<?xml version="1.0" encoding="UTF-8"?>
<gpx xmlns:gpxdata="http://www.cluetrust.com/XML/GPXDATA/1/0" xmlns:xsi="http://www.w3.org/2001/XMLSchema-instance" xmlns="http://www.topografix.com/GPX/1/1" version="1.1" creator="http://ridewithgps.com/" xsi:schemaLocation="http://www.topografix.com/GPX/1/1 http://www.topografix.com/GPX/1/1/gpx.xsd http://www.cluetrust.com/XML/GPXDATA/1/0 http://www.cluetrust.com/Schemas/gpxdata10.xsd">
  <metadata>
    <name>BERGMAN OT BENGALURU</name>
    <link href="https://ridewithgps.com/routes/54220856">
      <text>BERGMAN OT BENGALURU</text>
    </link>
    <time>2026-03-12T13:11:42Z</time>
  </metadata>
  <trk>
    <name>BERGMAN OT BENGALURU</name>
    <trkseg>
      <trkpt lat="12.81084" lon="77.37744">
        <ele>736.5</ele>
      </trkpt>
      <trkpt lat="12.81082" lon="77.37746">
        <ele>736.6</ele>
      </trkpt>
      <trkpt lat="12.81079" lon="77.37751">
        <ele>736.9</ele>
      </trkpt>
      <trkpt lat="12.81076" lon="77.37759">
        <ele>737.4</ele>
      </trkpt>
      <trkpt lat="12.81073" lon="77.37766">
        <ele>737.8</ele>
      </trkpt>
      <trkpt lat="12.81066" lon="77.37772">
        <ele>738.3</ele>
      </trkpt>
      <trkpt lat="12.81056" lon="77.37776">
        <ele>739.0</ele>
      </trkpt>
      <trkpt lat="12.80975" lon="77.37781">
        <ele>739.3</ele>
      </trkpt>
      <trkpt lat="12.80954" lon="77.37785">
        <ele>738.8</ele>
      </trkpt>
      <trkpt lat="12.80875" lon="77.37802">
        <ele>737.5</ele>
      </trkpt>
      <trkpt lat="12.80796" lon="77.37819">
        <ele>737.2</ele>
      </trkpt>
      <trkpt lat="12.80786" lon="77.37826">
        <ele>737.6</ele>
      </trkpt>
      <trkpt lat="12.80781" lon="77.37832">
        <ele>737.9</ele>
      </trkpt>
      <trkpt lat="12.80802" lon="77.37852">
        <ele>737.1</ele>
      </trkpt>
      <trkpt lat="12.80802" lon="77.37852">
        <ele>737.1</ele>
      </trkpt>
      <trkpt lat="12.80839" lon="77.37887">
        <ele>735.7</ele>
      </trkpt>
      <trkpt lat="12.80877" lon="77.37922">
        <ele>736.4</ele>
      </trkpt>
      <trkpt lat="12.80931" lon="77.37972">
        <ele>736.6</ele>
      </trkpt>
      <trkpt lat="12.80985" lon="77.38021">
        <ele>735.2</ele>
      </trkpt>
      <trkpt lat="12.81039" lon="77.38071">
        <ele>735.2</ele>
      </trkpt>
      <trkpt lat="12.81105" lon="77.3813">
        <ele>736.6</ele>
      </trkpt>
      <trkpt lat="12.81171" lon="77.38189">
        <ele>738.6</ele>
      </trkpt>
      <trkpt lat="12.81237" lon="77.38248">
        <ele>737.1</ele>
      </trkpt>
      <trkpt lat="12.81279" lon="77.38292">
        <ele>736.0</ele>
      </trkpt>
      <trkpt lat="12.81321" lon="77.38336">
        <ele>734.7</ele>
      </trkpt>
      <trkpt lat="12.81352" lon="77.38375">
        <ele>732.7</ele>
      </trkpt>
      <trkpt lat="12.81384" lon="77.38415">
        <ele>730.5</ele>
      </trkpt>
      <trkpt lat="12.81421" lon="77.38466">
        <ele>731.3</ele>
      </trkpt>
      <trkpt lat="12.81458" lon="77.38518">
        <ele>733.8</ele>
      </trkpt>
      <trkpt lat="12.81464" lon="77.38529">
        <ele>734.2</ele>
      </trkpt>
      <trkpt lat="12.81464" lon="77.38529">
        <ele>734.2</ele>
      </trkpt>
      <trkpt lat="12.81493" lon="77.38578">
        <ele>735.0</ele>
      </trkpt>
      <trkpt lat="12.81521" lon="77.38628">
        <ele>737.2</ele>
      </trkpt>
      <trkpt lat="12.81548" lon="77.38686">
        <ele>739.1</ele>
      </trkpt>
      <trkpt lat="12.81575" lon="77.38745">
        <ele>740.9</ele>
      </trkpt>
      <trkpt lat="12.81592" lon="77.38794">
        <ele>741.9</ele>
      </trkpt>
      <trkpt lat="12.81609" lon="77.38844">
        <ele>742.5</ele>
      </trkpt>
      <trkpt lat="12.81628" lon="77.38906">
        <ele>741.8</ele>
      </trkpt>
      <trkpt lat="12.81646" lon="77.38969">
        <ele>741.4</ele>
      </trkpt>
      <trkpt lat="12.81659" lon="77.39036">
        <ele>742.9</ele>
      </trkpt>
      <trkpt lat="12.81666" lon="77.39095">
        <ele>745.5</ele>
      </trkpt>
      <trkpt lat="12.8167" lon="77.39161">
        <ele>747.7</ele>
      </trkpt>
      <trkpt lat="12.81675" lon="77.39228">
        <ele>748.5</ele>
      </trkpt>
      <trkpt lat="12.81679" lon="77.39294">
        <ele>751.1</ele>
      </trkpt>
      <trkpt lat="12.81683" lon="77.39369">
        <ele>754.0</ele>
      </trkpt>
      <trkpt lat="12.81686" lon="77.39443">
        <ele>756.3</ele>
      </trkpt>
      <trkpt lat="12.81687" lon="77.39461">
        <ele>756.9</ele>
      </trkpt>
      <trkpt lat="12.81691" lon="77.39537">
        <ele>759.4</ele>
      </trkpt>
      <trkpt lat="12.81695" lon="77.39612">
        <ele>761.8</ele>
      </trkpt>
      <trkpt lat="12.81698" lon="77.39691">
        <ele>761.2</ele>
      </trkpt>
      <trkpt lat="12.81702" lon="77.39771">
        <ele>758.4</ele>
      </trkpt>
      <trkpt lat="12.81706" lon="77.3985">
        <ele>755.9</ele>
      </trkpt>
      <trkpt lat="12.81709" lon="77.39929">
        <ele>756.3</ele>
      </trkpt>
      <trkpt lat="12.81709" lon="77.39929">
        <ele>756.3</ele>
      </trkpt>
      <trkpt lat="12.81713" lon="77.40013">
        <ele>758.1</ele>
      </trkpt>
      <trkpt lat="12.81717" lon="77.40097">
        <ele>755.4</ele>
      </trkpt>
      <trkpt lat="12.81721" lon="77.40181">
        <ele>751.0</ele>
      </trkpt>
      <trkpt lat="12.81723" lon="77.40264">
        <ele>748.0</ele>
      </trkpt>
      <trkpt lat="12.81726" lon="77.40348">
        <ele>746.0</ele>
      </trkpt>
      <trkpt lat="12.81729" lon="77.40431">
        <ele>743.8</ele>
      </trkpt>
      <trkpt lat="12.81732" lon="77.40515">
        <ele>742.1</ele>
      </trkpt>
      <trkpt lat="12.81698" lon="77.40519">
        <ele>741.6</ele>
      </trkpt>
      <trkpt lat="12.81693" lon="77.40506">
        <ele>742.1</ele>
      </trkpt>
      <trkpt lat="12.8169" lon="77.40423">
        <ele>743.9</ele>
      </trkpt>
      <trkpt lat="12.81687" lon="77.40339">
        <ele>745.4</ele>
      </trkpt>
      <trkpt lat="12.81687" lon="77.40339">
        <ele>745.4</ele>
      </trkpt>
      <trkpt lat="12.81683" lon="77.40261">
        <ele>747.1</ele>
      </trkpt>
      <trkpt lat="12.81679" lon="77.40183">
        <ele>749.1</ele>
      </trkpt>
      <trkpt lat="12.81675" lon="77.40094">
        <ele>752.3</ele>
      </trkpt>
      <trkpt lat="12.81671" lon="77.40006">
        <ele>754.3</ele>
      </trkpt>
      <trkpt lat="12.81667" lon="77.39917">
        <ele>753.0</ele>
      </trkpt>
      <trkpt lat="12.81663" lon="77.39829">
        <ele>754.3</ele>
      </trkpt>
      <trkpt lat="12.81659" lon="77.3974">
        <ele>758.7</ele>
      </trkpt>
      <trkpt lat="12.81655" lon="77.39651">
        <ele>762.4</ele>
      </trkpt>
      <trkpt lat="12.81651" lon="77.39563">
        <ele>762.5</ele>
      </trkpt>
      <trkpt lat="12.81647" lon="77.39474">
        <ele>759.1</ele>
      </trkpt>
      <trkpt lat="12.81646" lon="77.39458">
        <ele>758.5</ele>
      </trkpt>
      <trkpt lat="12.81644" lon="77.39377">
        <ele>755.5</ele>
      </trkpt>
      <trkpt lat="12.81641" lon="77.39297">
        <ele>752.3</ele>
      </trkpt>
      <trkpt lat="12.81638" lon="77.39246">
        <ele>749.6</ele>
      </trkpt>
      <trkpt lat="12.81636" lon="77.39195">
        <ele>748.8</ele>
      </trkpt>
      <trkpt lat="12.81633" lon="77.39154">
        <ele>748.3</ele>
      </trkpt>
      <trkpt lat="12.81633" lon="77.39154">
        <ele>748.3</ele>
      </trkpt>
      <trkpt lat="12.81631" lon="77.39134">
        <ele>748.3</ele>
      </trkpt>
      <trkpt lat="12.81614" lon="77.39051">
        <ele>747.7</ele>
      </trkpt>
      <trkpt lat="12.81597" lon="77.38969">
        <ele>745.7</ele>
      </trkpt>
      <trkpt lat="12.81587" lon="77.38906">
        <ele>744.5</ele>
      </trkpt>
      <trkpt lat="12.81572" lon="77.38854">
        <ele>743.7</ele>
      </trkpt>
      <trkpt lat="12.81554" lon="77.38808">
        <ele>742.7</ele>
      </trkpt>
      <trkpt lat="12.81536" lon="77.38761">
        <ele>741.8</ele>
      </trkpt>
      <trkpt lat="12.8151" lon="77.38705">
        <ele>740.3</ele>
      </trkpt>
      <trkpt lat="12.81484" lon="77.38648">
        <ele>738.0</ele>
      </trkpt>
      <trkpt lat="12.81454" lon="77.38595">
        <ele>735.5</ele>
      </trkpt>
      <trkpt lat="12.81423" lon="77.38542">
        <ele>733.6</ele>
      </trkpt>
      <trkpt lat="12.81396" lon="77.38501">
        <ele>731.3</ele>
      </trkpt>
      <trkpt lat="12.81368" lon="77.3846">
        <ele>730.4</ele>
      </trkpt>
      <trkpt lat="12.8135" lon="77.38438">
        <ele>730.5</ele>
      </trkpt>
      <trkpt lat="12.81312" lon="77.38392">
        <ele>731.9</ele>
      </trkpt>
      <trkpt lat="12.81289" lon="77.38364">
        <ele>733.0</ele>
      </trkpt>
      <trkpt lat="12.81289" lon="77.38364">
        <ele>733.0</ele>
      </trkpt>
      <trkpt lat="12.81248" lon="77.38322">
        <ele>734.4</ele>
      </trkpt>
      <trkpt lat="12.81208" lon="77.38279">
        <ele>736.0</ele>
      </trkpt>
      <trkpt lat="12.81168" lon="77.38243">
        <ele>737.2</ele>
      </trkpt>
      <trkpt lat="12.81129" lon="77.38206">
        <ele>737.1</ele>
      </trkpt>
      <trkpt lat="12.81083" lon="77.38166">
        <ele>736.0</ele>
      </trkpt>
      <trkpt lat="12.81037" lon="77.38126">
        <ele>734.6</ele>
      </trkpt>
      <trkpt lat="12.80974" lon="77.38069">
        <ele>733.3</ele>
      </trkpt>
      <trkpt lat="12.80911" lon="77.38011">
        <ele>734.0</ele>
      </trkpt>
      <trkpt lat="12.80849" lon="77.37954">
        <ele>733.1</ele>
      </trkpt>
      <trkpt lat="12.80809" lon="77.37919">
        <ele>733.9</ele>
      </trkpt>
      <trkpt lat="12.8077" lon="77.37885">
        <ele>735.5</ele>
      </trkpt>
      <trkpt lat="12.80758" lon="77.37877">
        <ele>735.9</ele>
      </trkpt>
      <trkpt lat="12.80745" lon="77.37866">
        <ele>736.4</ele>
      </trkpt>
      <trkpt lat="12.80742" lon="77.37862">
        <ele>736.6</ele>
      </trkpt>
      <trkpt lat="12.80708" lon="77.3783">
        <ele>736.8</ele>
      </trkpt>
      <trkpt lat="12.80708" lon="77.3783">
        <ele>736.8</ele>
      </trkpt>
      <trkpt lat="12.80657" lon="77.37783">
        <ele>734.1</ele>
      </trkpt>
      <trkpt lat="12.80605" lon="77.37736">
        <ele>731.6</ele>
      </trkpt>
      <trkpt lat="12.80554" lon="77.3769">
        <ele>728.6</ele>
      </trkpt>
      <trkpt lat="12.80496" lon="77.3764">
        <ele>726.6</ele>
      </trkpt>
      <trkpt lat="12.8044" lon="77.37597">
        <ele>724.4</ele>
      </trkpt>
      <trkpt lat="12.80422" lon="77.37585">
        <ele>723.7</ele>
      </trkpt>
      <trkpt lat="12.80361" lon="77.37545">
        <ele>721.5</ele>
      </trkpt>
      <trkpt lat="12.80311" lon="77.37517">
        <ele>721.1</ele>
      </trkpt>
      <trkpt lat="12.80262" lon="77.37489">
        <ele>721.2</ele>
      </trkpt>
      <trkpt lat="12.80205" lon="77.37462">
        <ele>722.5</ele>
      </trkpt>
      <trkpt lat="12.80162" lon="77.37445">
        <ele>723.7</ele>
      </trkpt>
      <trkpt lat="12.80119" lon="77.37427">
        <ele>724.4</ele>
      </trkpt>
      <trkpt lat="12.80043" lon="77.37402">
        <ele>725.8</ele>
      </trkpt>
      <trkpt lat="12.79981" lon="77.37386">
        <ele>727.4</ele>
      </trkpt>
      <trkpt lat="12.7992" lon="77.3737">
        <ele>730.0</ele>
      </trkpt>
      <trkpt lat="12.79865" lon="77.37361">
        <ele>731.6</ele>
      </trkpt>
      <trkpt lat="12.7981" lon="77.37352">
        <ele>733.1</ele>
      </trkpt>
      <trkpt lat="12.79774" lon="77.37348">
        <ele>734.4</ele>
      </trkpt>
      <trkpt lat="12.79723" lon="77.37344">
        <ele>735.3</ele>
      </trkpt>
      <trkpt lat="12.79645" lon="77.37344">
        <ele>736.1</ele>
      </trkpt>
      <trkpt lat="12.79567" lon="77.37343">
        <ele>738.7</ele>
      </trkpt>
      <trkpt lat="12.79489" lon="77.37343">
        <ele>739.9</ele>
      </trkpt>
      <trkpt lat="12.79411" lon="77.37342">
        <ele>737.9</ele>
      </trkpt>
      <trkpt lat="12.79333" lon="77.37342">
        <ele>738.8</ele>
      </trkpt>
      <trkpt lat="12.79333" lon="77.37342">
        <ele>738.8</ele>
      </trkpt>
      <trkpt lat="12.79293" lon="77.37342">
        <ele>742.1</ele>
      </trkpt>
      <trkpt lat="12.79204" lon="77.3734">
        <ele>747.4</ele>
      </trkpt>
      <trkpt lat="12.79143" lon="77.37339">
        <ele>748.5</ele>
      </trkpt>
      <trkpt lat="12.79082" lon="77.37338">
        <ele>747.8</ele>
      </trkpt>
      <trkpt lat="12.79013" lon="77.37338">
        <ele>743.8</ele>
      </trkpt>
      <trkpt lat="12.78945" lon="77.37338">
        <ele>740.4</ele>
      </trkpt>
      <trkpt lat="12.78876" lon="77.37339">
        <ele>736.8</ele>
      </trkpt>
      <trkpt lat="12.78948" lon="77.37338">
        <ele>740.5</ele>
      </trkpt>
      <trkpt lat="12.79019" lon="77.37338">
        <ele>744.1</ele>
      </trkpt>
      <trkpt lat="12.79091" lon="77.37339">
        <ele>747.9</ele>
      </trkpt>
      <trkpt lat="12.79091" lon="77.37339">
        <ele>747.9</ele>
      </trkpt>
      <trkpt lat="12.79176" lon="77.3734">
        <ele>748.4</ele>
      </trkpt>
      <trkpt lat="12.79262" lon="77.37341">
        <ele>744.6</ele>
      </trkpt>
      <trkpt lat="12.79347" lon="77.37342">
        <ele>738.6</ele>
      </trkpt>
      <trkpt lat="12.79347" lon="77.37342">
        <ele>738.6</ele>
      </trkpt>
      <trkpt lat="12.79431" lon="77.37342">
        <ele>738.2</ele>
      </trkpt>
      <trkpt lat="12.79516" lon="77.37343">
        <ele>739.9</ele>
      </trkpt>
      <trkpt lat="12.796" lon="77.37343">
        <ele>737.7</ele>
      </trkpt>
      <trkpt lat="12.796" lon="77.37343">
        <ele>737.7</ele>
      </trkpt>
      <trkpt lat="12.79661" lon="77.37344">
        <ele>735.5</ele>
      </trkpt>
      <trkpt lat="12.79723" lon="77.37344">
        <ele>735.3</ele>
      </trkpt>
      <trkpt lat="12.79774" lon="77.37347">
        <ele>734.4</ele>
      </trkpt>
      <trkpt lat="12.7981" lon="77.37352">
        <ele>733.1</ele>
      </trkpt>
      <trkpt lat="12.79865" lon="77.37361">
        <ele>731.6</ele>
      </trkpt>
      <trkpt lat="12.7992" lon="77.3737">
        <ele>730.0</ele>
      </trkpt>
      <trkpt lat="12.79981" lon="77.37386">
        <ele>727.4</ele>
      </trkpt>
      <trkpt lat="12.80042" lon="77.37402">
        <ele>725.8</ele>
      </trkpt>
      <trkpt lat="12.80119" lon="77.37427">
        <ele>724.4</ele>
      </trkpt>
      <trkpt lat="12.80162" lon="77.37445">
        <ele>723.7</ele>
      </trkpt>
      <trkpt lat="12.80205" lon="77.37462">
        <ele>722.5</ele>
      </trkpt>
      <trkpt lat="12.80265" lon="77.37491">
        <ele>721.1</ele>
      </trkpt>
      <trkpt lat="12.80265" lon="77.37491">
        <ele>721.1</ele>
      </trkpt>
      <trkpt lat="12.80313" lon="77.37518">
        <ele>721.1</ele>
      </trkpt>
      <trkpt lat="12.80361" lon="77.37545">
        <ele>721.5</ele>
      </trkpt>
      <trkpt lat="12.80422" lon="77.37585">
        <ele>723.7</ele>
      </trkpt>
      <trkpt lat="12.8044" lon="77.37597">
        <ele>724.4</ele>
      </trkpt>
      <trkpt lat="12.80496" lon="77.37639">
        <ele>726.6</ele>
      </trkpt>
      <trkpt lat="12.80544" lon="77.37682">
        <ele>728.1</ele>
      </trkpt>
      <trkpt lat="12.80591" lon="77.37724">
        <ele>730.9</ele>
      </trkpt>
      <trkpt lat="12.80591" lon="77.37724">
        <ele>730.9</ele>
      </trkpt>
      <trkpt lat="12.80655" lon="77.37782">
        <ele>734.0</ele>
      </trkpt>
      <trkpt lat="12.8072" lon="77.3784">
        <ele>737.1</ele>
      </trkpt>
      <trkpt lat="12.80745" lon="77.37866">
        <ele>736.4</ele>
      </trkpt>
      <trkpt lat="12.8077" lon="77.37885">
        <ele>735.5</ele>
      </trkpt>
      <trkpt lat="12.80818" lon="77.37927">
        <ele>733.5</ele>
      </trkpt>
      <trkpt lat="12.80866" lon="77.3797">
        <ele>733.4</ele>
      </trkpt>
      <trkpt lat="12.80866" lon="77.3797">
        <ele>733.4</ele>
      </trkpt>
      <trkpt lat="12.80923" lon="77.38022">
        <ele>733.8</ele>
      </trkpt>
      <trkpt lat="12.8098" lon="77.38074">
        <ele>733.3</ele>
      </trkpt>
      <trkpt lat="12.81037" lon="77.38126">
        <ele>734.6</ele>
      </trkpt>
      <trkpt lat="12.81092" lon="77.38175">
        <ele>736.3</ele>
      </trkpt>
      <trkpt lat="12.81147" lon="77.38223">
        <ele>737.3</ele>
      </trkpt>
      <trkpt lat="12.81147" lon="77.38223">
        <ele>737.3</ele>
      </trkpt>
      <trkpt lat="12.81208" lon="77.38279">
        <ele>736.0</ele>
      </trkpt>
      <trkpt lat="12.81249" lon="77.38322">
        <ele>734.4</ele>
      </trkpt>
      <trkpt lat="12.8129" lon="77.38365">
        <ele>733.0</ele>
      </trkpt>
      <trkpt lat="12.81329" lon="77.38413">
        <ele>731.1</ele>
      </trkpt>
      <trkpt lat="12.81368" lon="77.3846">
        <ele>730.4</ele>
      </trkpt>
      <trkpt lat="12.81418" lon="77.38535">
        <ele>733.3</ele>
      </trkpt>
      <trkpt lat="12.81418" lon="77.38535">
        <ele>733.3</ele>
      </trkpt>
      <trkpt lat="12.81451" lon="77.38591">
        <ele>735.3</ele>
      </trkpt>
      <trkpt lat="12.81484" lon="77.38648">
        <ele>738.0</ele>
      </trkpt>
      <trkpt lat="12.8151" lon="77.38705">
        <ele>740.3</ele>
      </trkpt>
      <trkpt lat="12.81536" lon="77.38761">
        <ele>741.8</ele>
      </trkpt>
      <trkpt lat="12.81554" lon="77.38808">
        <ele>742.7</ele>
      </trkpt>
      <trkpt lat="12.81572" lon="77.38854">
        <ele>743.7</ele>
      </trkpt>
      <trkpt lat="12.81587" lon="77.38906">
        <ele>744.5</ele>
      </trkpt>
      <trkpt lat="12.81597" lon="77.38969">
        <ele>745.7</ele>
      </trkpt>
      <trkpt lat="12.81609" lon="77.39026">
        <ele>746.9</ele>
      </trkpt>
      <trkpt lat="12.81609" lon="77.39026">
        <ele>746.9</ele>
      </trkpt>
      <trkpt lat="12.8162" lon="77.3908">
        <ele>748.7</ele>
      </trkpt>
      <trkpt lat="12.81631" lon="77.39134">
        <ele>748.3</ele>
      </trkpt>
      <trkpt lat="12.81636" lon="77.39195">
        <ele>748.8</ele>
      </trkpt>
      <trkpt lat="12.81639" lon="77.39283">
        <ele>751.5</ele>
      </trkpt>
      <trkpt lat="12.81643" lon="77.3937">
        <ele>755.3</ele>
      </trkpt>
      <trkpt lat="12.81646" lon="77.39458">
        <ele>758.4</ele>
      </trkpt>
      <trkpt lat="12.81647" lon="77.39474">
        <ele>759.0</ele>
      </trkpt>
      <trkpt lat="12.8165" lon="77.3954">
        <ele>761.4</ele>
      </trkpt>
      <trkpt lat="12.81653" lon="77.39606">
        <ele>763.1</ele>
      </trkpt>
      <trkpt lat="12.81656" lon="77.39671">
        <ele>761.9</ele>
      </trkpt>
      <trkpt lat="12.81656" lon="77.39671">
        <ele>761.9</ele>
      </trkpt>
      <trkpt lat="12.8166" lon="77.39756">
        <ele>757.9</ele>
      </trkpt>
      <trkpt lat="12.81664" lon="77.3984">
        <ele>754.0</ele>
      </trkpt>
      <trkpt lat="12.81668" lon="77.39925">
        <ele>753.2</ele>
      </trkpt>
      <trkpt lat="12.81671" lon="77.40009">
        <ele>754.2</ele>
      </trkpt>
      <trkpt lat="12.81675" lon="77.40094">
        <ele>752.3</ele>
      </trkpt>
      <trkpt lat="12.81679" lon="77.40178">
        <ele>749.3</ele>
      </trkpt>
      <trkpt lat="12.81683" lon="77.40263">
        <ele>747.1</ele>
      </trkpt>
      <trkpt lat="12.81687" lon="77.40347">
        <ele>745.2</ele>
      </trkpt>
      <trkpt lat="12.8169" lon="77.40425">
        <ele>743.8</ele>
      </trkpt>
      <trkpt lat="12.81693" lon="77.40503">
        <ele>742.2</ele>
      </trkpt>
      <trkpt lat="12.81693" lon="77.40503">
        <ele>742.2</ele>
      </trkpt>
      <trkpt lat="12.81698" lon="77.40519">
        <ele>741.6</ele>
      </trkpt>
      <trkpt lat="12.81732" lon="77.40515">
        <ele>742.1</ele>
      </trkpt>
      <trkpt lat="12.8173" lon="77.40465">
        <ele>743.3</ele>
      </trkpt>
      <trkpt lat="12.8173" lon="77.40465">
        <ele>743.3</ele>
      </trkpt>
      <trkpt lat="12.81727" lon="77.40394">
        <ele>744.7</ele>
      </trkpt>
      <trkpt lat="12.81725" lon="77.40323">
        <ele>746.6</ele>
      </trkpt>
      <trkpt lat="12.81723" lon="77.40252">
        <ele>748.3</ele>
      </trkpt>
      <trkpt lat="12.81721" lon="77.40181">
        <ele>751.0</ele>
      </trkpt>
      <trkpt lat="12.81717" lon="77.40094">
        <ele>755.6</ele>
      </trkpt>
      <trkpt lat="12.81713" lon="77.40007">
        <ele>758.2</ele>
      </trkpt>
      <trkpt lat="12.81709" lon="77.3992">
        <ele>756.1</ele>
      </trkpt>
      <trkpt lat="12.81705" lon="77.39833">
        <ele>755.9</ele>
      </trkpt>
      <trkpt lat="12.81701" lon="77.39746">
        <ele>759.4</ele>
      </trkpt>
      <trkpt lat="12.81697" lon="77.39659">
        <ele>762.0</ele>
      </trkpt>
      <trkpt lat="12.81697" lon="77.39659">
        <ele>762.0</ele>
      </trkpt>
      <trkpt lat="12.81693" lon="77.39593">
        <ele>761.8</ele>
      </trkpt>
      <trkpt lat="12.8169" lon="77.39527">
        <ele>759.0</ele>
      </trkpt>
      <trkpt lat="12.81687" lon="77.39461">
        <ele>756.9</ele>
      </trkpt>
      <trkpt lat="12.81686" lon="77.39443">
        <ele>756.3</ele>
      </trkpt>
      <trkpt lat="12.81683" lon="77.39369">
        <ele>754.0</ele>
      </trkpt>
      <trkpt lat="12.81679" lon="77.39294">
        <ele>751.1</ele>
      </trkpt>
      <trkpt lat="12.81675" lon="77.39228">
        <ele>748.5</ele>
      </trkpt>
      <trkpt lat="12.8167" lon="77.39161">
        <ele>747.7</ele>
      </trkpt>
      <trkpt lat="12.81666" lon="77.39095">
        <ele>745.5</ele>
      </trkpt>
      <trkpt lat="12.81659" lon="77.39036">
        <ele>742.9</ele>
      </trkpt>
      <trkpt lat="12.81646" lon="77.38969">
        <ele>741.4</ele>
      </trkpt>
      <trkpt lat="12.81638" lon="77.38943">
        <ele>741.6</ele>
      </trkpt>
      <trkpt lat="12.81638" lon="77.38943">
        <ele>741.6</ele>
      </trkpt>
      <trkpt lat="12.81624" lon="77.38893">
        <ele>742.1</ele>
      </trkpt>
      <trkpt lat="12.81609" lon="77.38844">
        <ele>742.5</ele>
      </trkpt>
      <trkpt lat="12.81592" lon="77.38794">
        <ele>741.9</ele>
      </trkpt>
      <trkpt lat="12.81575" lon="77.38745">
        <ele>740.9</ele>
      </trkpt>
      <trkpt lat="12.81548" lon="77.38686">
        <ele>739.1</ele>
      </trkpt>
      <trkpt lat="12.81521" lon="77.38628">
        <ele>737.2</ele>
      </trkpt>
      <trkpt lat="12.8149" lon="77.38573">
        <ele>735.0</ele>
      </trkpt>
      <trkpt lat="12.81458" lon="77.38518">
        <ele>733.8</ele>
      </trkpt>
      <trkpt lat="12.81428" lon="77.38477">
        <ele>731.9</ele>
      </trkpt>
      <trkpt lat="12.81398" lon="77.38436">
        <ele>730.5</ele>
      </trkpt>
      <trkpt lat="12.81348" lon="77.3837">
        <ele>733.0</ele>
      </trkpt>
      <trkpt lat="12.81348" lon="77.3837">
        <ele>733.0</ele>
      </trkpt>
      <trkpt lat="12.81321" lon="77.38336">
        <ele>734.7</ele>
      </trkpt>
      <trkpt lat="12.81279" lon="77.38292">
        <ele>736.0</ele>
      </trkpt>
      <trkpt lat="12.81237" lon="77.38248">
        <ele>737.1</ele>
      </trkpt>
      <trkpt lat="12.81184" lon="77.38201">
        <ele>738.5</ele>
      </trkpt>
      <trkpt lat="12.81131" lon="77.38153">
        <ele>737.5</ele>
      </trkpt>
      <trkpt lat="12.81079" lon="77.38106">
        <ele>735.9</ele>
      </trkpt>
      <trkpt lat="12.81026" lon="77.38059">
        <ele>735.1</ele>
      </trkpt>
      <trkpt lat="12.81026" lon="77.38059">
        <ele>735.1</ele>
      </trkpt>
      <trkpt lat="12.80976" lon="77.38013">
        <ele>735.3</ele>
      </trkpt>
      <trkpt lat="12.80927" lon="77.37968">
        <ele>736.7</ele>
      </trkpt>
      <trkpt lat="12.80877" lon="77.37922">
        <ele>736.4</ele>
      </trkpt>
      <trkpt lat="12.80829" lon="77.37877">
        <ele>735.9</ele>
      </trkpt>
      <trkpt lat="12.80781" lon="77.37832">
        <ele>737.9</ele>
      </trkpt>
      <trkpt lat="12.80781" lon="77.37832">
        <ele>737.9</ele>
      </trkpt>
      <trkpt lat="12.80745" lon="77.37807">
        <ele>736.3</ele>
      </trkpt>
      <trkpt lat="12.80691" lon="77.37757">
        <ele>733.3</ele>
      </trkpt>
      <trkpt lat="12.80636" lon="77.37707">
        <ele>730.9</ele>
      </trkpt>
      <trkpt lat="12.80581" lon="77.37657">
        <ele>728.3</ele>
      </trkpt>
      <trkpt lat="12.80529" lon="77.37615">
        <ele>727.6</ele>
      </trkpt>
      <trkpt lat="12.80478" lon="77.37573">
        <ele>725.0</ele>
      </trkpt>
      <trkpt lat="12.8046" lon="77.3756">
        <ele>724.2</ele>
      </trkpt>
      <trkpt lat="12.80422" lon="77.37535">
        <ele>722.5</ele>
      </trkpt>
      <trkpt lat="12.8038" lon="77.37508">
        <ele>721.6</ele>
      </trkpt>
      <trkpt lat="12.80337" lon="77.37482">
        <ele>721.7</ele>
      </trkpt>
      <trkpt lat="12.8028" lon="77.37453">
        <ele>722.0</ele>
      </trkpt>
      <trkpt lat="12.80222" lon="77.37423">
        <ele>722.6</ele>
      </trkpt>
      <trkpt lat="12.80178" lon="77.37405">
        <ele>724.0</ele>
      </trkpt>
      <trkpt lat="12.80133" lon="77.37387">
        <ele>725.1</ele>
      </trkpt>
      <trkpt lat="12.80053" lon="77.3736">
        <ele>726.7</ele>
      </trkpt>
      <trkpt lat="12.79997" lon="77.37348">
        <ele>727.8</ele>
      </trkpt>
      <trkpt lat="12.80053" lon="77.3736">
        <ele>726.7</ele>
      </trkpt>
      <trkpt lat="12.80133" lon="77.37387">
        <ele>725.1</ele>
      </trkpt>
      <trkpt lat="12.80178" lon="77.37405">
        <ele>724.0</ele>
      </trkpt>
      <trkpt lat="12.80222" lon="77.37423">
        <ele>722.6</ele>
      </trkpt>
      <trkpt lat="12.8028" lon="77.37453">
        <ele>722.0</ele>
      </trkpt>
      <trkpt lat="12.80337" lon="77.37482">
        <ele>721.7</ele>
      </trkpt>
      <trkpt lat="12.8038" lon="77.37508">
        <ele>721.6</ele>
      </trkpt>
      <trkpt lat="12.80422" lon="77.37535">
        <ele>722.5</ele>
      </trkpt>
      <trkpt lat="12.8046" lon="77.3756">
        <ele>724.1</ele>
      </trkpt>
      <trkpt lat="12.80478" lon="77.37573">
        <ele>725.0</ele>
      </trkpt>
      <trkpt lat="12.80538" lon="77.37622">
        <ele>727.9</ele>
      </trkpt>
      <trkpt lat="12.80538" lon="77.37622">
        <ele>727.9</ele>
      </trkpt>
      <trkpt lat="12.80581" lon="77.37657">
        <ele>728.3</ele>
      </trkpt>
      <trkpt lat="12.80636" lon="77.37707">
        <ele>730.9</ele>
      </trkpt>
      <trkpt lat="12.80691" lon="77.37757">
        <ele>733.3</ele>
      </trkpt>
      <trkpt lat="12.80745" lon="77.37807">
        <ele>736.3</ele>
      </trkpt>
      <trkpt lat="12.80767" lon="77.37821">
        <ele>737.3</ele>
      </trkpt>
      <trkpt lat="12.80767" lon="77.37821">
        <ele>737.3</ele>
      </trkpt>
      <trkpt lat="12.80778" lon="77.37829">
        <ele>737.8</ele>
      </trkpt>
      <trkpt lat="12.80827" lon="77.37875">
        <ele>736.0</ele>
      </trkpt>
      <trkpt lat="12.80877" lon="77.37922">
        <ele>736.4</ele>
      </trkpt>
      <trkpt lat="12.80931" lon="77.37972">
        <ele>736.6</ele>
      </trkpt>
      <trkpt lat="12.80985" lon="77.38021">
        <ele>735.2</ele>
      </trkpt>
      <trkpt lat="12.81039" lon="77.38071">
        <ele>735.2</ele>
      </trkpt>
      <trkpt lat="12.81105" lon="77.3813">
        <ele>736.6</ele>
      </trkpt>
      <trkpt lat="12.81171" lon="77.38189">
        <ele>738.6</ele>
      </trkpt>
      <trkpt lat="12.81237" lon="77.38248">
        <ele>737.1</ele>
      </trkpt>
      <trkpt lat="12.81279" lon="77.38292">
        <ele>736.0</ele>
      </trkpt>
      <trkpt lat="12.81321" lon="77.38336">
        <ele>734.7</ele>
      </trkpt>
      <trkpt lat="12.8136" lon="77.38386">
        <ele>732.0</ele>
      </trkpt>
      <trkpt lat="12.81398" lon="77.38436">
        <ele>730.5</ele>
      </trkpt>
      <trkpt lat="12.81428" lon="77.38477">
        <ele>731.9</ele>
      </trkpt>
      <trkpt lat="12.81458" lon="77.38518">
        <ele>733.8</ele>
      </trkpt>
      <trkpt lat="12.8149" lon="77.38573">
        <ele>735.0</ele>
      </trkpt>
      <trkpt lat="12.81521" lon="77.38628">
        <ele>737.2</ele>
      </trkpt>
      <trkpt lat="12.81548" lon="77.38686">
        <ele>739.1</ele>
      </trkpt>
      <trkpt lat="12.81575" lon="77.38745">
        <ele>740.9</ele>
      </trkpt>
      <trkpt lat="12.81592" lon="77.38794">
        <ele>741.9</ele>
      </trkpt>
      <trkpt lat="12.81609" lon="77.38844">
        <ele>742.5</ele>
      </trkpt>
      <trkpt lat="12.81627" lon="77.38906">
        <ele>741.9</ele>
      </trkpt>
      <trkpt lat="12.81646" lon="77.38969">
        <ele>741.4</ele>
      </trkpt>
      <trkpt lat="12.81659" lon="77.39036">
        <ele>742.9</ele>
      </trkpt>
      <trkpt lat="12.81666" lon="77.39095">
        <ele>745.5</ele>
      </trkpt>
      <trkpt lat="12.81671" lon="77.39176">
        <ele>748.0</ele>
      </trkpt>
      <trkpt lat="12.81677" lon="77.39256">
        <ele>749.1</ele>
      </trkpt>
      <trkpt lat="12.81677" lon="77.39256">
        <ele>749.1</ele>
      </trkpt>
      <trkpt lat="12.8168" lon="77.39318">
        <ele>752.4</ele>
      </trkpt>
      <trkpt lat="12.81683" lon="77.39381">
        <ele>754.3</ele>
      </trkpt>
      <trkpt lat="12.81686" lon="77.39443">
        <ele>756.4</ele>
      </trkpt>
      <trkpt lat="12.81687" lon="77.39461">
        <ele>757.0</ele>
      </trkpt>
      <trkpt lat="12.81691" lon="77.3955">
        <ele>760.1</ele>
      </trkpt>
      <trkpt lat="12.81696" lon="77.39639">
        <ele>761.9</ele>
      </trkpt>
      <trkpt lat="12.817" lon="77.39728">
        <ele>759.9</ele>
      </trkpt>
      <trkpt lat="12.81704" lon="77.39819">
        <ele>756.4</ele>
      </trkpt>
      <trkpt lat="12.81708" lon="77.39909">
        <ele>756.0</ele>
      </trkpt>
      <trkpt lat="12.81712" lon="77.4">
        <ele>758.4</ele>
      </trkpt>
      <trkpt lat="12.81716" lon="77.4009">
        <ele>755.8</ele>
      </trkpt>
      <trkpt lat="12.81721" lon="77.40181">
        <ele>751.0</ele>
      </trkpt>
      <trkpt lat="12.81722" lon="77.40232">
        <ele>749.0</ele>
      </trkpt>
      <trkpt lat="12.81724" lon="77.40283">
        <ele>747.6</ele>
      </trkpt>
      <trkpt lat="12.81724" lon="77.40283">
        <ele>747.6</ele>
      </trkpt>
      <trkpt lat="12.81726" lon="77.4036">
        <ele>745.6</ele>
      </trkpt>
      <trkpt lat="12.81729" lon="77.40437">
        <ele>743.7</ele>
      </trkpt>
      <trkpt lat="12.81731" lon="77.40514">
        <ele>742.1</ele>
      </trkpt>
      <trkpt lat="12.81731" lon="77.40514">
        <ele>742.1</ele>
      </trkpt>
      <trkpt lat="12.81698" lon="77.40519">
        <ele>741.6</ele>
      </trkpt>
      <trkpt lat="12.81693" lon="77.40506">
        <ele>742.1</ele>
      </trkpt>
      <trkpt lat="12.8169" lon="77.40426">
        <ele>743.8</ele>
      </trkpt>
      <trkpt lat="12.81687" lon="77.40347">
        <ele>745.2</ele>
      </trkpt>
      <trkpt lat="12.81683" lon="77.40266">
        <ele>747.0</ele>
      </trkpt>
      <trkpt lat="12.8168" lon="77.40185">
        <ele>749.1</ele>
      </trkpt>
      <trkpt lat="12.81676" lon="77.40103">
        <ele>752.0</ele>
      </trkpt>
      <trkpt lat="12.81672" lon="77.40022">
        <ele>754.0</ele>
      </trkpt>
      <trkpt lat="12.81672" lon="77.40022">
        <ele>754.0</ele>
      </trkpt>
      <trkpt lat="12.81668" lon="77.39931">
        <ele>753.3</ele>
      </trkpt>
      <trkpt lat="12.81664" lon="77.39839">
        <ele>754.0</ele>
      </trkpt>
      <trkpt lat="12.8166" lon="77.39748">
        <ele>758.3</ele>
      </trkpt>
      <trkpt lat="12.81655" lon="77.39657">
        <ele>762.3</ele>
      </trkpt>
      <trkpt lat="12.81651" lon="77.39566">
        <ele>762.7</ele>
      </trkpt>
      <trkpt lat="12.81647" lon="77.39474">
        <ele>759.2</ele>
      </trkpt>
      <trkpt lat="12.81646" lon="77.39458">
        <ele>758.6</ele>
      </trkpt>
      <trkpt lat="12.81643" lon="77.3937">
        <ele>755.3</ele>
      </trkpt>
      <trkpt lat="12.81639" lon="77.39283">
        <ele>751.5</ele>
      </trkpt>
      <trkpt lat="12.81636" lon="77.39195">
        <ele>748.8</ele>
      </trkpt>
      <trkpt lat="12.8163" lon="77.39127">
        <ele>748.3</ele>
      </trkpt>
      <trkpt lat="12.8163" lon="77.39127">
        <ele>748.3</ele>
      </trkpt>
      <trkpt lat="12.81613" lon="77.39048">
        <ele>747.7</ele>
      </trkpt>
      <trkpt lat="12.81597" lon="77.38969">
        <ele>745.7</ele>
      </trkpt>
      <trkpt lat="12.81587" lon="77.38906">
        <ele>744.5</ele>
      </trkpt>
      <trkpt lat="12.81572" lon="77.38854">
        <ele>743.7</ele>
      </trkpt>
      <trkpt lat="12.81554" lon="77.38808">
        <ele>742.7</ele>
      </trkpt>
      <trkpt lat="12.81536" lon="77.38761">
        <ele>741.8</ele>
      </trkpt>
      <trkpt lat="12.8151" lon="77.38705">
        <ele>740.3</ele>
      </trkpt>
      <trkpt lat="12.81484" lon="77.38648">
        <ele>738.0</ele>
      </trkpt>
      <trkpt lat="12.81454" lon="77.38595">
        <ele>735.5</ele>
      </trkpt>
      <trkpt lat="12.81423" lon="77.38542">
        <ele>733.6</ele>
      </trkpt>
      <trkpt lat="12.81396" lon="77.38501">
        <ele>731.3</ele>
      </trkpt>
      <trkpt lat="12.81368" lon="77.3846">
        <ele>730.4</ele>
      </trkpt>
      <trkpt lat="12.81323" lon="77.38406">
        <ele>731.4</ele>
      </trkpt>
      <trkpt lat="12.81323" lon="77.38406">
        <ele>731.4</ele>
      </trkpt>
      <trkpt lat="12.8129" lon="77.38365">
        <ele>733.0</ele>
      </trkpt>
      <trkpt lat="12.81249" lon="77.38322">
        <ele>734.4</ele>
      </trkpt>
      <trkpt lat="12.81208" lon="77.38279">
        <ele>736.0</ele>
      </trkpt>
      <trkpt lat="12.81168" lon="77.38243">
        <ele>737.2</ele>
      </trkpt>
      <trkpt lat="12.81129" lon="77.38206">
        <ele>737.1</ele>
      </trkpt>
      <trkpt lat="12.81083" lon="77.38166">
        <ele>736.0</ele>
      </trkpt>
      <trkpt lat="12.81037" lon="77.38126">
        <ele>734.6</ele>
      </trkpt>
      <trkpt lat="12.80979" lon="77.38073">
        <ele>733.3</ele>
      </trkpt>
      <trkpt lat="12.80922" lon="77.38021">
        <ele>733.9</ele>
      </trkpt>
      <trkpt lat="12.80922" lon="77.38021">
        <ele>733.9</ele>
      </trkpt>
      <trkpt lat="12.80885" lon="77.37987">
        <ele>733.7</ele>
      </trkpt>
      <trkpt lat="12.80849" lon="77.37954">
        <ele>733.1</ele>
      </trkpt>
      <trkpt lat="12.80809" lon="77.37919">
        <ele>733.9</ele>
      </trkpt>
      <trkpt lat="12.8077" lon="77.37885">
        <ele>735.5</ele>
      </trkpt>
      <trkpt lat="12.80745" lon="77.37866">
        <ele>736.4</ele>
      </trkpt>
      <trkpt lat="12.8072" lon="77.3784">
        <ele>737.1</ele>
      </trkpt>
      <trkpt lat="12.80664" lon="77.3779">
        <ele>734.4</ele>
      </trkpt>
      <trkpt lat="12.80609" lon="77.3774">
        <ele>731.9</ele>
      </trkpt>
      <trkpt lat="12.80554" lon="77.3769">
        <ele>728.6</ele>
      </trkpt>
      <trkpt lat="12.80506" lon="77.37648">
        <ele>726.9</ele>
      </trkpt>
      <trkpt lat="12.80506" lon="77.37648">
        <ele>726.9</ele>
      </trkpt>
      <trkpt lat="12.8044" lon="77.37597">
        <ele>724.3</ele>
      </trkpt>
      <trkpt lat="12.80422" lon="77.37585">
        <ele>723.7</ele>
      </trkpt>
      <trkpt lat="12.80361" lon="77.37545">
        <ele>721.5</ele>
      </trkpt>
      <trkpt lat="12.80311" lon="77.37517">
        <ele>721.1</ele>
      </trkpt>
      <trkpt lat="12.80262" lon="77.37489">
        <ele>721.2</ele>
      </trkpt>
      <trkpt lat="12.80205" lon="77.37462">
        <ele>722.5</ele>
      </trkpt>
      <trkpt lat="12.80162" lon="77.37445">
        <ele>723.7</ele>
      </trkpt>
      <trkpt lat="12.80119" lon="77.37427">
        <ele>724.4</ele>
      </trkpt>
      <trkpt lat="12.80042" lon="77.37402">
        <ele>725.8</ele>
      </trkpt>
      <trkpt lat="12.79981" lon="77.37386">
        <ele>727.4</ele>
      </trkpt>
      <trkpt lat="12.7992" lon="77.3737">
        <ele>730.0</ele>
      </trkpt>
      <trkpt lat="12.79865" lon="77.37361">
        <ele>731.6</ele>
      </trkpt>
      <trkpt lat="12.7981" lon="77.37352">
        <ele>733.1</ele>
      </trkpt>
      <trkpt lat="12.79774" lon="77.37347">
        <ele>734.4</ele>
      </trkpt>
      <trkpt lat="12.79723" lon="77.37344">
        <ele>735.3</ele>
      </trkpt>
      <trkpt lat="12.79681" lon="77.37344">
        <ele>735.3</ele>
      </trkpt>
      <trkpt lat="12.79681" lon="77.37344">
        <ele>735.3</ele>
      </trkpt>
      <trkpt lat="12.79603" lon="77.37344">
        <ele>737.6</ele>
      </trkpt>
      <trkpt lat="12.79526" lon="77.37343">
        <ele>739.6</ele>
      </trkpt>
      <trkpt lat="12.79448" lon="77.37343">
        <ele>738.7</ele>
      </trkpt>
      <trkpt lat="12.79371" lon="77.37342">
        <ele>738.3</ele>
      </trkpt>
      <trkpt lat="12.79293" lon="77.37342">
        <ele>742.1</ele>
      </trkpt>
      <trkpt lat="12.79223" lon="77.37341">
        <ele>746.6</ele>
      </trkpt>
      <trkpt lat="12.79152" lon="77.3734">
        <ele>748.6</ele>
      </trkpt>
      <trkpt lat="12.79082" lon="77.37338">
        <ele>747.8</ele>
      </trkpt>
      <trkpt lat="12.79016" lon="77.37338">
        <ele>743.9</ele>
      </trkpt>
      <trkpt lat="12.7895" lon="77.37338">
        <ele>740.6</ele>
      </trkpt>
      <trkpt lat="12.7895" lon="77.37338">
        <ele>740.6</ele>
      </trkpt>
      <trkpt lat="12.78874" lon="77.37338">
        <ele>736.6</ele>
      </trkpt>
      <trkpt lat="12.78874" lon="77.37338">
        <ele>736.6</ele>
      </trkpt>
      <trkpt lat="12.78943" lon="77.37338">
        <ele>740.3</ele>
      </trkpt>
      <trkpt lat="12.79012" lon="77.37338">
        <ele>743.7</ele>
      </trkpt>
      <trkpt lat="12.79082" lon="77.37338">
        <ele>747.8</ele>
      </trkpt>
      <trkpt lat="12.79152" lon="77.3734">
        <ele>748.6</ele>
      </trkpt>
      <trkpt lat="12.79223" lon="77.37341">
        <ele>746.6</ele>
      </trkpt>
      <trkpt lat="12.79293" lon="77.37342">
        <ele>742.1</ele>
      </trkpt>
      <trkpt lat="12.79379" lon="77.37342">
        <ele>738.2</ele>
      </trkpt>
      <trkpt lat="12.79465" lon="77.37343">
        <ele>739.2</ele>
      </trkpt>
      <trkpt lat="12.79551" lon="77.37343">
        <ele>739.1</ele>
      </trkpt>
      <trkpt lat="12.79637" lon="77.37344">
        <ele>736.4</ele>
      </trkpt>
      <trkpt lat="12.79723" lon="77.37344">
        <ele>735.3</ele>
      </trkpt>
      <trkpt lat="12.79774" lon="77.37347">
        <ele>734.4</ele>
      </trkpt>
      <trkpt lat="12.7981" lon="77.37352">
        <ele>733.1</ele>
      </trkpt>
      <trkpt lat="12.79897" lon="77.37366">
        <ele>730.7</ele>
      </trkpt>
      <trkpt lat="12.79897" lon="77.37366">
        <ele>730.7</ele>
      </trkpt>
      <trkpt lat="12.7992" lon="77.3737">
        <ele>730.0</ele>
      </trkpt>
      <trkpt lat="12.79981" lon="77.37386">
        <ele>727.4</ele>
      </trkpt>
      <trkpt lat="12.80042" lon="77.37402">
        <ele>725.8</ele>
      </trkpt>
      <trkpt lat="12.80119" lon="77.37427">
        <ele>724.4</ele>
      </trkpt>
      <trkpt lat="12.80162" lon="77.37445">
        <ele>723.7</ele>
      </trkpt>
      <trkpt lat="12.80205" lon="77.37462">
        <ele>722.5</ele>
      </trkpt>
      <trkpt lat="12.80262" lon="77.37489">
        <ele>721.2</ele>
      </trkpt>
      <trkpt lat="12.80311" lon="77.37517">
        <ele>721.1</ele>
      </trkpt>
      <trkpt lat="12.80361" lon="77.37545">
        <ele>721.5</ele>
      </trkpt>
      <trkpt lat="12.80422" lon="77.37584">
        <ele>723.7</ele>
      </trkpt>
      <trkpt lat="12.80422" lon="77.37584">
        <ele>723.7</ele>
      </trkpt>
      <trkpt lat="12.80422" lon="77.37585">
        <ele>723.7</ele>
      </trkpt>
      <trkpt lat="12.8044" lon="77.37597">
        <ele>724.4</ele>
      </trkpt>
      <trkpt lat="12.80496" lon="77.37639">
        <ele>726.6</ele>
      </trkpt>
      <trkpt lat="12.80554" lon="77.3769">
        <ele>728.6</ele>
      </trkpt>
      <trkpt lat="12.80609" lon="77.3774">
        <ele>731.9</ele>
      </trkpt>
      <trkpt lat="12.80664" lon="77.3779">
        <ele>734.4</ele>
      </trkpt>
      <trkpt lat="12.8072" lon="77.3784">
        <ele>737.1</ele>
      </trkpt>
      <trkpt lat="12.80745" lon="77.37866">
        <ele>736.4</ele>
      </trkpt>
      <trkpt lat="12.80776" lon="77.3789">
        <ele>735.3</ele>
      </trkpt>
      <trkpt lat="12.80776" lon="77.3789">
        <ele>735.3</ele>
      </trkpt>
      <trkpt lat="12.80812" lon="77.37922">
        <ele>733.7</ele>
      </trkpt>
      <trkpt lat="12.80849" lon="77.37954">
        <ele>733.1</ele>
      </trkpt>
      <trkpt lat="12.80911" lon="77.38011">
        <ele>734.0</ele>
      </trkpt>
      <trkpt lat="12.80974" lon="77.38069">
        <ele>733.3</ele>
      </trkpt>
      <trkpt lat="12.81037" lon="77.38126">
        <ele>734.6</ele>
      </trkpt>
      <trkpt lat="12.81083" lon="77.38166">
        <ele>736.0</ele>
      </trkpt>
      <trkpt lat="12.81129" lon="77.38206">
        <ele>737.1</ele>
      </trkpt>
      <trkpt lat="12.81168" lon="77.38243">
        <ele>737.2</ele>
      </trkpt>
      <trkpt lat="12.81208" lon="77.38279">
        <ele>736.0</ele>
      </trkpt>
      <trkpt lat="12.81242" lon="77.38315">
        <ele>734.7</ele>
      </trkpt>
      <trkpt lat="12.81242" lon="77.38315">
        <ele>734.7</ele>
      </trkpt>
      <trkpt lat="12.8129" lon="77.38365">
        <ele>733.0</ele>
      </trkpt>
      <trkpt lat="12.81329" lon="77.38413">
        <ele>731.1</ele>
      </trkpt>
      <trkpt lat="12.81368" lon="77.3846">
        <ele>730.4</ele>
      </trkpt>
      <trkpt lat="12.81396" lon="77.38501">
        <ele>731.3</ele>
      </trkpt>
      <trkpt lat="12.81423" lon="77.38542">
        <ele>733.6</ele>
      </trkpt>
      <trkpt lat="12.81454" lon="77.38595">
        <ele>735.5</ele>
      </trkpt>
      <trkpt lat="12.81484" lon="77.38648">
        <ele>738.0</ele>
      </trkpt>
      <trkpt lat="12.8151" lon="77.38705">
        <ele>740.3</ele>
      </trkpt>
      <trkpt lat="12.81536" lon="77.38761">
        <ele>741.8</ele>
      </trkpt>
      <trkpt lat="12.81554" lon="77.38808">
        <ele>742.7</ele>
      </trkpt>
      <trkpt lat="12.81572" lon="77.38854">
        <ele>743.7</ele>
      </trkpt>
      <trkpt lat="12.81587" lon="77.38906">
        <ele>744.5</ele>
      </trkpt>
      <trkpt lat="12.81597" lon="77.38969">
        <ele>745.7</ele>
      </trkpt>
      <trkpt lat="12.81614" lon="77.39051">
        <ele>747.7</ele>
      </trkpt>
      <trkpt lat="12.81631" lon="77.39134">
        <ele>748.3</ele>
      </trkpt>
      <trkpt lat="12.81636" lon="77.39195">
        <ele>748.8</ele>
      </trkpt>
      <trkpt lat="12.81638" lon="77.39248">
        <ele>749.7</ele>
      </trkpt>
      <trkpt lat="12.81638" lon="77.39248">
        <ele>749.7</ele>
      </trkpt>
      <trkpt lat="12.81641" lon="77.39318">
        <ele>753.4</ele>
      </trkpt>
      <trkpt lat="12.81644" lon="77.39388">
        <ele>755.8</ele>
      </trkpt>
      <trkpt lat="12.81646" lon="77.39458">
        <ele>758.4</ele>
      </trkpt>
      <trkpt lat="12.81647" lon="77.39474">
        <ele>759.1</ele>
      </trkpt>
      <trkpt lat="12.81651" lon="77.39562">
        <ele>762.5</ele>
      </trkpt>
      <trkpt lat="12.81655" lon="77.39649">
        <ele>762.4</ele>
      </trkpt>
      <trkpt lat="12.81659" lon="77.39736">
        <ele>758.8</ele>
      </trkpt>
      <trkpt lat="12.81663" lon="77.39824">
        <ele>754.5</ele>
      </trkpt>
      <trkpt lat="12.81667" lon="77.39911">
        <ele>753.1</ele>
      </trkpt>
      <trkpt lat="12.81671" lon="77.39998">
        <ele>754.4</ele>
      </trkpt>
      <trkpt lat="12.81675" lon="77.40085">
        <ele>752.6</ele>
      </trkpt>
      <trkpt lat="12.81679" lon="77.40173">
        <ele>749.4</ele>
      </trkpt>
      <trkpt lat="12.81683" lon="77.4026">
        <ele>747.2</ele>
      </trkpt>
      <trkpt lat="12.81687" lon="77.40347">
        <ele>745.2</ele>
      </trkpt>
      <trkpt lat="12.81689" lon="77.40405">
        <ele>744.2</ele>
      </trkpt>
      <trkpt lat="12.81691" lon="77.40463">
        <ele>743.1</ele>
      </trkpt>
      <trkpt lat="12.81691" lon="77.40463">
        <ele>743.1</ele>
      </trkpt>
      <trkpt lat="12.81693" lon="77.40506">
        <ele>742.1</ele>
      </trkpt>
      <trkpt lat="12.81698" lon="77.40519">
        <ele>741.6</ele>
      </trkpt>
      <trkpt lat="12.81732" lon="77.40515">
        <ele>742.1</ele>
      </trkpt>
      <trkpt lat="12.8173" lon="77.40467">
        <ele>743.3</ele>
      </trkpt>
      <trkpt lat="12.81728" lon="77.4042">
        <ele>743.9</ele>
      </trkpt>
      <trkpt lat="12.81728" lon="77.4042">
        <ele>743.9</ele>
      </trkpt>
      <trkpt lat="12.81726" lon="77.4034">
        <ele>746.2</ele>
      </trkpt>
      <trkpt lat="12.81723" lon="77.40261">
        <ele>748.1</ele>
      </trkpt>
      <trkpt lat="12.81721" lon="77.40181">
        <ele>751.0</ele>
      </trkpt>
      <trkpt lat="12.81717" lon="77.40103">
        <ele>755.1</ele>
      </trkpt>
      <trkpt lat="12.81713" lon="77.40025">
        <ele>757.7</ele>
      </trkpt>
      <trkpt lat="12.8171" lon="77.39948">
        <ele>756.9</ele>
      </trkpt>
      <trkpt lat="12.81706" lon="77.3987">
        <ele>755.9</ele>
      </trkpt>
      <trkpt lat="12.81703" lon="77.39792">
        <ele>757.5</ele>
      </trkpt>
      <trkpt lat="12.81699" lon="77.39714">
        <ele>760.4</ele>
      </trkpt>
      <trkpt lat="12.81699" lon="77.39714">
        <ele>760.4</ele>
      </trkpt>
      <trkpt lat="12.81695" lon="77.3963">
        <ele>761.8</ele>
      </trkpt>
      <trkpt lat="12.81691" lon="77.39545">
        <ele>759.9</ele>
      </trkpt>
      <trkpt lat="12.81687" lon="77.39461">
        <ele>757.0</ele>
      </trkpt>
      <trkpt lat="12.81686" lon="77.39443">
        <ele>756.4</ele>
      </trkpt>
      <trkpt lat="12.81683" lon="77.39369">
        <ele>754.0</ele>
      </trkpt>
      <trkpt lat="12.81679" lon="77.39294">
        <ele>751.1</ele>
      </trkpt>
      <trkpt lat="12.81675" lon="77.39228">
        <ele>748.5</ele>
      </trkpt>
      <trkpt lat="12.8167" lon="77.39162">
        <ele>747.7</ele>
      </trkpt>
      <trkpt lat="12.81666" lon="77.39096">
        <ele>745.5</ele>
      </trkpt>
      <trkpt lat="12.81666" lon="77.39096">
        <ele>745.5</ele>
      </trkpt>
      <trkpt lat="12.81659" lon="77.39036">
        <ele>742.9</ele>
      </trkpt>
      <trkpt lat="12.81646" lon="77.38969">
        <ele>741.4</ele>
      </trkpt>
      <trkpt lat="12.81627" lon="77.38906">
        <ele>741.9</ele>
      </trkpt>
      <trkpt lat="12.81609" lon="77.38844">
        <ele>742.5</ele>
      </trkpt>
      <trkpt lat="12.81592" lon="77.38794">
        <ele>741.9</ele>
      </trkpt>
      <trkpt lat="12.81575" lon="77.38745">
        <ele>740.9</ele>
      </trkpt>
      <trkpt lat="12.81548" lon="77.38686">
        <ele>739.1</ele>
      </trkpt>
      <trkpt lat="12.81521" lon="77.38628">
        <ele>737.2</ele>
      </trkpt>
      <trkpt lat="12.81515" lon="77.38617">
        <ele>736.8</ele>
      </trkpt>
      <trkpt lat="12.81515" lon="77.38617">
        <ele>736.8</ele>
      </trkpt>
      <trkpt lat="12.81486" lon="77.38567">
        <ele>734.9</ele>
      </trkpt>
      <trkpt lat="12.81458" lon="77.38518">
        <ele>733.8</ele>
      </trkpt>
      <trkpt lat="12.81428" lon="77.38477">
        <ele>731.9</ele>
      </trkpt>
      <trkpt lat="12.81398" lon="77.38436">
        <ele>730.5</ele>
      </trkpt>
      <trkpt lat="12.81349" lon="77.38372">
        <ele>732.9</ele>
      </trkpt>
      <trkpt lat="12.81321" lon="77.38336">
        <ele>734.7</ele>
      </trkpt>
      <trkpt lat="12.81279" lon="77.38292">
        <ele>736.0</ele>
      </trkpt>
      <trkpt lat="12.81237" lon="77.38248">
        <ele>737.1</ele>
      </trkpt>
      <trkpt lat="12.81199" lon="77.38214">
        <ele>738.4</ele>
      </trkpt>
      <trkpt lat="12.81199" lon="77.38214">
        <ele>738.4</ele>
      </trkpt>
      <trkpt lat="12.81146" lon="77.38167">
        <ele>738.3</ele>
      </trkpt>
      <trkpt lat="12.81093" lon="77.38119">
        <ele>736.2</ele>
      </trkpt>
      <trkpt lat="12.81039" lon="77.38071">
        <ele>735.2</ele>
      </trkpt>
      <trkpt lat="12.80989" lon="77.38025">
        <ele>735.1</ele>
      </trkpt>
      <trkpt lat="12.80939" lon="77.37978">
        <ele>736.4</ele>
      </trkpt>
      <trkpt lat="12.80888" lon="77.37932">
        <ele>736.5</ele>
      </trkpt>
      <trkpt lat="12.80838" lon="77.37886">
        <ele>735.7</ele>
      </trkpt>
      <trkpt lat="12.80838" lon="77.37886">
        <ele>735.7</ele>
      </trkpt>
      <trkpt lat="12.80778" lon="77.37829">
        <ele>737.8</ele>
      </trkpt>
      <trkpt lat="12.80745" lon="77.37807">
        <ele>736.3</ele>
      </trkpt>
      <trkpt lat="12.80691" lon="77.37757">
        <ele>733.3</ele>
      </trkpt>
      <trkpt lat="12.80636" lon="77.37707">
        <ele>730.9</ele>
      </trkpt>
      <trkpt lat="12.80581" lon="77.37657">
        <ele>728.3</ele>
      </trkpt>
      <trkpt lat="12.80542" lon="77.37625">
        <ele>728.0</ele>
      </trkpt>
      <trkpt lat="12.80503" lon="77.37594">
        <ele>726.3</ele>
      </trkpt>
      <trkpt lat="12.80503" lon="77.37594">
        <ele>726.3</ele>
      </trkpt>
      <trkpt lat="12.80478" lon="77.37573">
        <ele>725.0</ele>
      </trkpt>
      <trkpt lat="12.8046" lon="77.3756">
        <ele>724.2</ele>
      </trkpt>
      <trkpt lat="12.80422" lon="77.37535">
        <ele>722.5</ele>
      </trkpt>
      <trkpt lat="12.8038" lon="77.37508">
        <ele>721.6</ele>
      </trkpt>
      <trkpt lat="12.80337" lon="77.37482">
        <ele>721.7</ele>
      </trkpt>
      <trkpt lat="12.8028" lon="77.37453">
        <ele>722.0</ele>
      </trkpt>
      <trkpt lat="12.80222" lon="77.37423">
        <ele>722.6</ele>
      </trkpt>
      <trkpt lat="12.80178" lon="77.37405">
        <ele>724.0</ele>
      </trkpt>
      <trkpt lat="12.80133" lon="77.37387">
        <ele>725.1</ele>
      </trkpt>
      <trkpt lat="12.80053" lon="77.3736">
        <ele>726.7</ele>
      </trkpt>
      <trkpt lat="12.80011" lon="77.37351">
        <ele>727.4</ele>
      </trkpt>
      <trkpt lat="12.80011" lon="77.37351">
        <ele>727.4</ele>
      </trkpt>
      <trkpt lat="12.79991" lon="77.37346">
        <ele>728.0</ele>
      </trkpt>
      <trkpt lat="12.79991" lon="77.37346">
        <ele>728.0</ele>
      </trkpt>
      <trkpt lat="12.80053" lon="77.3736">
        <ele>726.7</ele>
      </trkpt>
      <trkpt lat="12.80133" lon="77.37387">
        <ele>725.1</ele>
      </trkpt>
      <trkpt lat="12.80156" lon="77.37396">
        <ele>724.6</ele>
      </trkpt>
      <trkpt lat="12.80156" lon="77.37396">
        <ele>724.6</ele>
      </trkpt>
      <trkpt lat="12.80222" lon="77.37423">
        <ele>722.6</ele>
      </trkpt>
      <trkpt lat="12.8028" lon="77.37453">
        <ele>722.0</ele>
      </trkpt>
      <trkpt lat="12.80338" lon="77.37482">
        <ele>721.7</ele>
      </trkpt>
      <trkpt lat="12.80338" lon="77.37482">
        <ele>721.7</ele>
      </trkpt>
      <trkpt lat="12.8038" lon="77.37508">
        <ele>721.6</ele>
      </trkpt>
      <trkpt lat="12.80422" lon="77.37535">
        <ele>722.5</ele>
      </trkpt>
      <trkpt lat="12.8046" lon="77.3756">
        <ele>724.2</ele>
      </trkpt>
      <trkpt lat="12.80478" lon="77.37573">
        <ele>725.1</ele>
      </trkpt>
      <trkpt lat="12.80513" lon="77.37601">
        <ele>726.9</ele>
      </trkpt>
      <trkpt lat="12.80513" lon="77.37601">
        <ele>726.9</ele>
      </trkpt>
      <trkpt lat="12.80581" lon="77.37657">
        <ele>728.3</ele>
      </trkpt>
      <trkpt lat="12.80628" lon="77.377">
        <ele>730.5</ele>
      </trkpt>
      <trkpt lat="12.80675" lon="77.37743">
        <ele>732.7</ele>
      </trkpt>
      <trkpt lat="12.80675" lon="77.37743">
        <ele>732.7</ele>
      </trkpt>
      <trkpt lat="12.8071" lon="77.37775">
        <ele>734.2</ele>
      </trkpt>
      <trkpt lat="12.80745" lon="77.37807">
        <ele>736.3</ele>
      </trkpt>
      <trkpt lat="12.80777" lon="77.37828">
        <ele>737.7</ele>
      </trkpt>
      <trkpt lat="12.80777" lon="77.37828">
        <ele>737.7</ele>
      </trkpt>
      <trkpt lat="12.80778" lon="77.37829">
        <ele>737.8</ele>
      </trkpt>
      <trkpt lat="12.80786" lon="77.37826">
        <ele>737.6</ele>
      </trkpt>
      <trkpt lat="12.80796" lon="77.37819">
        <ele>737.2</ele>
      </trkpt>
      <trkpt lat="12.80856" lon="77.37806">
        <ele>737.2</ele>
      </trkpt>
      <trkpt lat="12.80917" lon="77.37794">
        <ele>738.1</ele>
      </trkpt>
      <trkpt lat="12.80977" lon="77.37781">
        <ele>739.4</ele>
      </trkpt>
      <trkpt lat="12.80977" lon="77.37781">
        <ele>739.4</ele>
      </trkpt>
      <trkpt lat="12.81056" lon="77.37776">
        <ele>739.0</ele>
      </trkpt>
      <trkpt lat="12.81066" lon="77.37772">
        <ele>738.3</ele>
      </trkpt>
      <trkpt lat="12.81073" lon="77.37766">
        <ele>737.8</ele>
      </trkpt>
      <trkpt lat="12.81076" lon="77.37759">
        <ele>737.4</ele>
      </trkpt>
      <trkpt lat="12.81077" lon="77.37755">
        <ele>737.2</ele>
      </trkpt>
      <trkpt lat="12.81077" lon="77.37755">
        <ele>737.2</ele>
      </trkpt>
      <trkpt lat="12.81079" lon="77.37751">
        <ele>736.9</ele>
      </trkpt>
      <trkpt lat="12.81082" lon="77.37745">
        <ele>736.6</ele>
      </trkpt>
    </trkseg>
  </trk>
</gpx>
