<?xml version="1.0" encoding="UTF-8"?>
<gpx xmlns:gpxdata="http://www.cluetrust.com/XML/GPXDATA/1/0" xmlns:xsi="http://www.w3.org/2001/XMLSchema-instance" xmlns="http://www.topografix.com/GPX/1/1" version="1.1" creator="http://ridewithgps.com/" xsi:schemaLocation="http://www.topografix.com/GPX/1/1 http://www.topografix.com/GPX/1/1/gpx.xsd http://www.cluetrust.com/XML/GPXDATA/1/0 http://www.cluetrust.com/Schemas/gpxdata10.xsd">
  <metadata>
    <name>Bergman Bengaluru OT new</name>
    <link href="https://ridewithgps.com/routes/56507105">
      <text>Bergman Bengaluru OT new</text>
    </link>
    <time>2026-08-05T16:42:09Z</time>
  </metadata>
  <trk>
    <name>Bergman Bengaluru OT new</name>
    <trkseg>
      <trkpt lat="12.80913" lon="77.37793">
        <ele>738.0</ele>
      </trkpt>
      <trkpt lat="12.80858" lon="77.37805">
        <ele>737.2</ele>
      </trkpt>
      <trkpt lat="12.80802" lon="77.37817">
        <ele>737.1</ele>
      </trkpt>
      <trkpt lat="12.80796" lon="77.37819">
        <ele>737.2</ele>
      </trkpt>
      <trkpt lat="12.80786" lon="77.37826">
        <ele>737.6</ele>
      </trkpt>
      <trkpt lat="12.80781" lon="77.37832">
        <ele>737.9</ele>
      </trkpt>
      <trkpt lat="12.80829" lon="77.37877">
        <ele>735.9</ele>
      </trkpt>
      <trkpt lat="12.80877" lon="77.37922">
        <ele>736.4</ele>
      </trkpt>
      <trkpt lat="12.80931" lon="77.37972">
        <ele>736.6</ele>
      </trkpt>
      <trkpt lat="12.80985" lon="77.38021">
        <ele>735.2</ele>
      </trkpt>
      <trkpt lat="12.81039" lon="77.38071">
        <ele>735.2</ele>
      </trkpt>
      <trkpt lat="12.81105" lon="77.3813">
        <ele>736.6</ele>
      </trkpt>
      <trkpt lat="12.81171" lon="77.38189">
        <ele>738.6</ele>
      </trkpt>
      <trkpt lat="12.81237" lon="77.38248">
        <ele>737.1</ele>
      </trkpt>
      <trkpt lat="12.81279" lon="77.38292">
        <ele>736.0</ele>
      </trkpt>
      <trkpt lat="12.81321" lon="77.38336">
        <ele>734.7</ele>
      </trkpt>
      <trkpt lat="12.81371" lon="77.38399">
        <ele>731.3</ele>
      </trkpt>
      <trkpt lat="12.81384" lon="77.38415">
        <ele>730.5</ele>
      </trkpt>
      <trkpt lat="12.81421" lon="77.38466">
        <ele>731.3</ele>
      </trkpt>
      <trkpt lat="12.81458" lon="77.38518">
        <ele>733.8</ele>
      </trkpt>
      <trkpt lat="12.8149" lon="77.38573">
        <ele>735.0</ele>
      </trkpt>
      <trkpt lat="12.81521" lon="77.38628">
        <ele>737.2</ele>
      </trkpt>
      <trkpt lat="12.81548" lon="77.38686">
        <ele>739.1</ele>
      </trkpt>
      <trkpt lat="12.81575" lon="77.38745">
        <ele>740.9</ele>
      </trkpt>
      <trkpt lat="12.81592" lon="77.38794">
        <ele>741.9</ele>
      </trkpt>
      <trkpt lat="12.81609" lon="77.38844">
        <ele>742.5</ele>
      </trkpt>
      <trkpt lat="12.81628" lon="77.38906">
        <ele>741.8</ele>
      </trkpt>
      <trkpt lat="12.81646" lon="77.38969">
        <ele>741.4</ele>
      </trkpt>
      <trkpt lat="12.81659" lon="77.39036">
        <ele>742.9</ele>
      </trkpt>
      <trkpt lat="12.81666" lon="77.39095">
        <ele>745.5</ele>
      </trkpt>
      <trkpt lat="12.81671" lon="77.39171">
        <ele>747.9</ele>
      </trkpt>
      <trkpt lat="12.81676" lon="77.39247">
        <ele>748.7</ele>
      </trkpt>
      <trkpt lat="12.81676" lon="77.39247">
        <ele>748.7</ele>
      </trkpt>
      <trkpt lat="12.81676" lon="77.39252">
        <ele>748.9</ele>
      </trkpt>
      <trkpt lat="12.81679" lon="77.39294">
        <ele>751.1</ele>
      </trkpt>
      <trkpt lat="12.81683" lon="77.39369">
        <ele>754.0</ele>
      </trkpt>
      <trkpt lat="12.81686" lon="77.39443">
        <ele>756.3</ele>
      </trkpt>
      <trkpt lat="12.81687" lon="77.39461">
        <ele>756.9</ele>
      </trkpt>
      <trkpt lat="12.81691" lon="77.39537">
        <ele>759.4</ele>
      </trkpt>
      <trkpt lat="12.81695" lon="77.39612">
        <ele>761.8</ele>
      </trkpt>
      <trkpt lat="12.81698" lon="77.3969">
        <ele>761.2</ele>
      </trkpt>
      <trkpt lat="12.81702" lon="77.39768">
        <ele>758.5</ele>
      </trkpt>
      <trkpt lat="12.81705" lon="77.39845">
        <ele>755.8</ele>
      </trkpt>
      <trkpt lat="12.81706" lon="77.39845">
        <ele>755.9</ele>
      </trkpt>
      <trkpt lat="12.81706" lon="77.39845">
        <ele>755.9</ele>
      </trkpt>
      <trkpt lat="12.81695" lon="77.39845">
        <ele>755.3</ele>
      </trkpt>
      <trkpt lat="12.81683" lon="77.39845">
        <ele>754.7</ele>
      </trkpt>
      <trkpt lat="12.81666" lon="77.39845">
        <ele>753.9</ele>
      </trkpt>
      <trkpt lat="12.81666" lon="77.39845">
        <ele>753.9</ele>
      </trkpt>
      <trkpt lat="12.81661" lon="77.39717">
        <ele>759.7</ele>
      </trkpt>
      <trkpt lat="12.81661" lon="77.39717">
        <ele>759.7</ele>
      </trkpt>
      <trkpt lat="12.81658" lon="77.39717">
        <ele>759.8</ele>
      </trkpt>
      <trkpt lat="12.81655" lon="77.3965">
        <ele>762.4</ele>
      </trkpt>
      <trkpt lat="12.81652" lon="77.39583">
        <ele>763.5</ele>
      </trkpt>
      <trkpt lat="12.81649" lon="77.39516">
        <ele>760.2</ele>
      </trkpt>
      <trkpt lat="12.81649" lon="77.39516">
        <ele>760.2</ele>
      </trkpt>
      <trkpt lat="12.81647" lon="77.39474">
        <ele>758.7</ele>
      </trkpt>
      <trkpt lat="12.81646" lon="77.39458">
        <ele>758.1</ele>
      </trkpt>
      <trkpt lat="12.81644" lon="77.39394">
        <ele>755.9</ele>
      </trkpt>
      <trkpt lat="12.81642" lon="77.39329">
        <ele>754.1</ele>
      </trkpt>
      <trkpt lat="12.81642" lon="77.39329">
        <ele>754.1</ele>
      </trkpt>
      <trkpt lat="12.81639" lon="77.39262">
        <ele>750.3</ele>
      </trkpt>
      <trkpt lat="12.81636" lon="77.39195">
        <ele>748.8</ele>
      </trkpt>
      <trkpt lat="12.81634" lon="77.39176">
        <ele>748.5</ele>
      </trkpt>
      <trkpt lat="12.81634" lon="77.39176">
        <ele>748.5</ele>
      </trkpt>
      <trkpt lat="12.81631" lon="77.39134">
        <ele>748.3</ele>
      </trkpt>
      <trkpt lat="12.81617" lon="77.39068">
        <ele>748.4</ele>
      </trkpt>
      <trkpt lat="12.81604" lon="77.39002">
        <ele>746.1</ele>
      </trkpt>
      <trkpt lat="12.81604" lon="77.39002">
        <ele>746.1</ele>
      </trkpt>
      <trkpt lat="12.81597" lon="77.38969">
        <ele>745.7</ele>
      </trkpt>
      <trkpt lat="12.81587" lon="77.38906">
        <ele>744.5</ele>
      </trkpt>
      <trkpt lat="12.81572" lon="77.38854">
        <ele>743.7</ele>
      </trkpt>
      <trkpt lat="12.81562" lon="77.38829">
        <ele>743.2</ele>
      </trkpt>
      <trkpt lat="12.81562" lon="77.38829">
        <ele>743.2</ele>
      </trkpt>
      <trkpt lat="12.81536" lon="77.38761">
        <ele>741.8</ele>
      </trkpt>
      <trkpt lat="12.81513" lon="77.38711">
        <ele>740.4</ele>
      </trkpt>
      <trkpt lat="12.8149" lon="77.3866">
        <ele>738.6</ele>
      </trkpt>
      <trkpt lat="12.8149" lon="77.3866">
        <ele>738.6</ele>
      </trkpt>
      <trkpt lat="12.81484" lon="77.38648">
        <ele>738.0</ele>
      </trkpt>
      <trkpt lat="12.81454" lon="77.38595">
        <ele>735.5</ele>
      </trkpt>
      <trkpt lat="12.81423" lon="77.38542">
        <ele>733.6</ele>
      </trkpt>
      <trkpt lat="12.81411" lon="77.38523">
        <ele>732.7</ele>
      </trkpt>
      <trkpt lat="12.81411" lon="77.38523">
        <ele>732.7</ele>
      </trkpt>
      <trkpt lat="12.81368" lon="77.3846">
        <ele>730.4</ele>
      </trkpt>
      <trkpt lat="12.81336" lon="77.38421">
        <ele>730.9</ele>
      </trkpt>
      <trkpt lat="12.81336" lon="77.38421">
        <ele>730.9</ele>
      </trkpt>
      <trkpt lat="12.81312" lon="77.38392">
        <ele>731.9</ele>
      </trkpt>
      <trkpt lat="12.8129" lon="77.38365">
        <ele>733.0</ele>
      </trkpt>
      <trkpt lat="12.81273" lon="77.38347">
        <ele>733.6</ele>
      </trkpt>
      <trkpt lat="12.81273" lon="77.38347">
        <ele>733.6</ele>
      </trkpt>
      <trkpt lat="12.8124" lon="77.38313">
        <ele>734.7</ele>
      </trkpt>
      <trkpt lat="12.81208" lon="77.38279">
        <ele>736.0</ele>
      </trkpt>
      <trkpt lat="12.81201" lon="77.38273">
        <ele>736.2</ele>
      </trkpt>
      <trkpt lat="12.81201" lon="77.38273">
        <ele>736.2</ele>
      </trkpt>
      <trkpt lat="12.81163" lon="77.38238">
        <ele>737.2</ele>
      </trkpt>
      <trkpt lat="12.81125" lon="77.38203">
        <ele>737.1</ele>
      </trkpt>
      <trkpt lat="12.81125" lon="77.38203">
        <ele>737.1</ele>
      </trkpt>
      <trkpt lat="12.81086" lon="77.38169">
        <ele>736.1</ele>
      </trkpt>
      <trkpt lat="12.81047" lon="77.38135">
        <ele>734.9</ele>
      </trkpt>
      <trkpt lat="12.81047" lon="77.38135">
        <ele>734.9</ele>
      </trkpt>
      <trkpt lat="12.81009" lon="77.381">
        <ele>734.0</ele>
      </trkpt>
      <trkpt lat="12.8097" lon="77.38065">
        <ele>733.2</ele>
      </trkpt>
      <trkpt lat="12.8097" lon="77.38065">
        <ele>733.2</ele>
      </trkpt>
      <trkpt lat="12.80966" lon="77.38061">
        <ele>733.2</ele>
      </trkpt>
      <trkpt lat="12.80966" lon="77.38061">
        <ele>733.2</ele>
      </trkpt>
      <trkpt lat="12.809" lon="77.38001">
        <ele>733.9</ele>
      </trkpt>
      <trkpt lat="12.809" lon="77.38001">
        <ele>733.9</ele>
      </trkpt>
      <trkpt lat="12.80849" lon="77.37954">
        <ele>733.1</ele>
      </trkpt>
      <trkpt lat="12.80824" lon="77.37932">
        <ele>733.2</ele>
      </trkpt>
      <trkpt lat="12.80824" lon="77.37932">
        <ele>733.2</ele>
      </trkpt>
      <trkpt lat="12.8077" lon="77.37885">
        <ele>735.5</ele>
      </trkpt>
      <trkpt lat="12.80758" lon="77.37877">
        <ele>735.9</ele>
      </trkpt>
      <trkpt lat="12.80751" lon="77.37871">
        <ele>736.2</ele>
      </trkpt>
      <trkpt lat="12.80751" lon="77.37871">
        <ele>736.2</ele>
      </trkpt>
      <trkpt lat="12.80745" lon="77.37866">
        <ele>736.4</ele>
      </trkpt>
      <trkpt lat="12.80742" lon="77.37862">
        <ele>736.6</ele>
      </trkpt>
      <trkpt lat="12.8072" lon="77.3784">
        <ele>737.1</ele>
      </trkpt>
      <trkpt lat="12.80681" lon="77.37806">
        <ele>735.2</ele>
      </trkpt>
      <trkpt lat="12.80681" lon="77.37806">
        <ele>735.2</ele>
      </trkpt>
      <trkpt lat="12.80642" lon="77.3777">
        <ele>733.4</ele>
      </trkpt>
      <trkpt lat="12.80602" lon="77.37734">
        <ele>731.5</ele>
      </trkpt>
      <trkpt lat="12.80602" lon="77.37734">
        <ele>731.5</ele>
      </trkpt>
      <trkpt lat="12.80554" lon="77.3769">
        <ele>728.6</ele>
      </trkpt>
      <trkpt lat="12.8052" lon="77.37661">
        <ele>727.2</ele>
      </trkpt>
      <trkpt lat="12.8052" lon="77.37661">
        <ele>727.2</ele>
      </trkpt>
      <trkpt lat="12.80496" lon="77.3764">
        <ele>726.6</ele>
      </trkpt>
      <trkpt lat="12.80444" lon="77.376">
        <ele>724.5</ele>
      </trkpt>
      <trkpt lat="12.80444" lon="77.376">
        <ele>724.5</ele>
      </trkpt>
      <trkpt lat="12.8044" lon="77.37597">
        <ele>724.4</ele>
      </trkpt>
      <trkpt lat="12.80422" lon="77.37585">
        <ele>723.7</ele>
      </trkpt>
      <trkpt lat="12.80361" lon="77.37545">
        <ele>721.5</ele>
      </trkpt>
      <trkpt lat="12.80361" lon="77.37545">
        <ele>721.5</ele>
      </trkpt>
      <trkpt lat="12.80285" lon="77.37502">
        <ele>721.0</ele>
      </trkpt>
      <trkpt lat="12.80285" lon="77.37502">
        <ele>721.0</ele>
      </trkpt>
      <trkpt lat="12.80262" lon="77.37489">
        <ele>721.2</ele>
      </trkpt>
      <trkpt lat="12.80206" lon="77.37463">
        <ele>722.5</ele>
      </trkpt>
      <trkpt lat="12.80206" lon="77.37463">
        <ele>722.5</ele>
      </trkpt>
      <trkpt lat="12.80143" lon="77.37437">
        <ele>724.0</ele>
      </trkpt>
      <trkpt lat="12.80143" lon="77.37437">
        <ele>724.0</ele>
      </trkpt>
      <trkpt lat="12.80119" lon="77.37427">
        <ele>724.4</ele>
      </trkpt>
      <trkpt lat="12.80043" lon="77.37402">
        <ele>725.8</ele>
      </trkpt>
      <trkpt lat="12.80034" lon="77.37399">
        <ele>726.0</ele>
      </trkpt>
      <trkpt lat="12.80034" lon="77.37399">
        <ele>726.0</ele>
      </trkpt>
      <trkpt lat="12.80012" lon="77.37394">
        <ele>726.4</ele>
      </trkpt>
      <trkpt lat="12.80012" lon="77.37394">
        <ele>726.4</ele>
      </trkpt>
      <trkpt lat="12.79964" lon="77.37381">
        <ele>728.2</ele>
      </trkpt>
      <trkpt lat="12.79917" lon="77.37369">
        <ele>730.1</ele>
      </trkpt>
      <trkpt lat="12.79917" lon="77.37369">
        <ele>730.1</ele>
      </trkpt>
      <trkpt lat="12.7986" lon="77.3736">
        <ele>731.7</ele>
      </trkpt>
      <trkpt lat="12.79804" lon="77.37351">
        <ele>733.3</ele>
      </trkpt>
      <trkpt lat="12.79804" lon="77.37351">
        <ele>733.3</ele>
      </trkpt>
      <trkpt lat="12.79774" lon="77.37348">
        <ele>734.4</ele>
      </trkpt>
      <trkpt lat="12.79723" lon="77.37344">
        <ele>735.3</ele>
      </trkpt>
      <trkpt lat="12.79691" lon="77.37344">
        <ele>735.3</ele>
      </trkpt>
      <trkpt lat="12.79691" lon="77.37344">
        <ele>735.3</ele>
      </trkpt>
      <trkpt lat="12.79635" lon="77.37344">
        <ele>736.4</ele>
      </trkpt>
      <trkpt lat="12.79579" lon="77.37343">
        <ele>738.4</ele>
      </trkpt>
      <trkpt lat="12.79579" lon="77.37343">
        <ele>738.4</ele>
      </trkpt>
      <trkpt lat="12.79524" lon="77.37343">
        <ele>739.7</ele>
      </trkpt>
      <trkpt lat="12.79469" lon="77.37343">
        <ele>739.3</ele>
      </trkpt>
      <trkpt lat="12.79469" lon="77.37343">
        <ele>739.3</ele>
      </trkpt>
      <trkpt lat="12.79381" lon="77.37342">
        <ele>738.2</ele>
      </trkpt>
      <trkpt lat="12.79293" lon="77.37342">
        <ele>742.1</ele>
      </trkpt>
      <trkpt lat="12.79204" lon="77.3734">
        <ele>747.4</ele>
      </trkpt>
      <trkpt lat="12.79152" lon="77.37339">
        <ele>748.6</ele>
      </trkpt>
      <trkpt lat="12.79099" lon="77.37339">
        <ele>748.0</ele>
      </trkpt>
      <trkpt lat="12.79099" lon="77.37339">
        <ele>748.0</ele>
      </trkpt>
      <trkpt lat="12.79022" lon="77.37339">
        <ele>744.3</ele>
      </trkpt>
      <trkpt lat="12.78945" lon="77.37339">
        <ele>740.4</ele>
      </trkpt>
      <trkpt lat="12.78867" lon="77.37338">
        <ele>736.2</ele>
      </trkpt>
      <trkpt lat="12.78789" lon="77.37338">
        <ele>733.2</ele>
      </trkpt>
      <trkpt lat="12.78789" lon="77.37338">
        <ele>733.2</ele>
      </trkpt>
      <trkpt lat="12.78853" lon="77.37338">
        <ele>735.5</ele>
      </trkpt>
      <trkpt lat="12.78917" lon="77.37339">
        <ele>739.1</ele>
      </trkpt>
      <trkpt lat="12.78917" lon="77.37339">
        <ele>739.1</ele>
      </trkpt>
      <trkpt lat="12.78999" lon="77.37339">
        <ele>743.0</ele>
      </trkpt>
      <trkpt lat="12.79082" lon="77.37338">
        <ele>747.8</ele>
      </trkpt>
      <trkpt lat="12.79143" lon="77.37339">
        <ele>748.5</ele>
      </trkpt>
      <trkpt lat="12.79204" lon="77.3734">
        <ele>747.4</ele>
      </trkpt>
      <trkpt lat="12.79293" lon="77.37342">
        <ele>742.1</ele>
      </trkpt>
      <trkpt lat="12.79341" lon="77.37342">
        <ele>738.7</ele>
      </trkpt>
      <trkpt lat="12.79388" lon="77.37342">
        <ele>738.1</ele>
      </trkpt>
      <trkpt lat="12.79472" lon="77.37343">
        <ele>739.4</ele>
      </trkpt>
      <trkpt lat="12.79555" lon="77.37343">
        <ele>739.0</ele>
      </trkpt>
      <trkpt lat="12.79639" lon="77.37344">
        <ele>736.3</ele>
      </trkpt>
      <trkpt lat="12.79723" lon="77.37344">
        <ele>735.3</ele>
      </trkpt>
      <trkpt lat="12.79774" lon="77.37348">
        <ele>734.4</ele>
      </trkpt>
      <trkpt lat="12.7981" lon="77.37352">
        <ele>733.1</ele>
      </trkpt>
      <trkpt lat="12.79865" lon="77.37361">
        <ele>731.6</ele>
      </trkpt>
      <trkpt lat="12.7992" lon="77.3737">
        <ele>730.0</ele>
      </trkpt>
      <trkpt lat="12.79981" lon="77.37386">
        <ele>727.4</ele>
      </trkpt>
      <trkpt lat="12.80043" lon="77.37402">
        <ele>725.8</ele>
      </trkpt>
      <trkpt lat="12.80119" lon="77.37427">
        <ele>724.4</ele>
      </trkpt>
      <trkpt lat="12.80162" lon="77.37445">
        <ele>723.7</ele>
      </trkpt>
      <trkpt lat="12.80205" lon="77.37462">
        <ele>722.5</ele>
      </trkpt>
      <trkpt lat="12.80262" lon="77.37489">
        <ele>721.2</ele>
      </trkpt>
      <trkpt lat="12.80311" lon="77.37517">
        <ele>721.1</ele>
      </trkpt>
      <trkpt lat="12.80361" lon="77.37545">
        <ele>721.5</ele>
      </trkpt>
      <trkpt lat="12.80422" lon="77.37585">
        <ele>723.7</ele>
      </trkpt>
      <trkpt lat="12.8044" lon="77.37597">
        <ele>724.4</ele>
      </trkpt>
      <trkpt lat="12.80496" lon="77.3764">
        <ele>726.6</ele>
      </trkpt>
      <trkpt lat="12.80554" lon="77.3769">
        <ele>728.6</ele>
      </trkpt>
      <trkpt lat="12.80609" lon="77.3774">
        <ele>731.9</ele>
      </trkpt>
      <trkpt lat="12.80664" lon="77.3779">
        <ele>734.4</ele>
      </trkpt>
      <trkpt lat="12.8072" lon="77.3784">
        <ele>737.1</ele>
      </trkpt>
      <trkpt lat="12.80742" lon="77.37862">
        <ele>736.6</ele>
      </trkpt>
      <trkpt lat="12.80745" lon="77.37866">
        <ele>736.4</ele>
      </trkpt>
      <trkpt lat="12.80758" lon="77.37877">
        <ele>735.9</ele>
      </trkpt>
      <trkpt lat="12.8077" lon="77.37885">
        <ele>735.5</ele>
      </trkpt>
      <trkpt lat="12.80809" lon="77.37919">
        <ele>733.9</ele>
      </trkpt>
      <trkpt lat="12.80849" lon="77.37954">
        <ele>733.1</ele>
      </trkpt>
      <trkpt lat="12.80911" lon="77.38011">
        <ele>734.0</ele>
      </trkpt>
      <trkpt lat="12.80974" lon="77.38069">
        <ele>733.3</ele>
      </trkpt>
      <trkpt lat="12.81037" lon="77.38126">
        <ele>734.6</ele>
      </trkpt>
      <trkpt lat="12.81083" lon="77.38166">
        <ele>736.0</ele>
      </trkpt>
      <trkpt lat="12.81129" lon="77.38206">
        <ele>737.1</ele>
      </trkpt>
      <trkpt lat="12.81168" lon="77.38243">
        <ele>737.2</ele>
      </trkpt>
      <trkpt lat="12.81208" lon="77.38279">
        <ele>736.0</ele>
      </trkpt>
      <trkpt lat="12.81249" lon="77.38322">
        <ele>734.4</ele>
      </trkpt>
      <trkpt lat="12.8129" lon="77.38365">
        <ele>733.0</ele>
      </trkpt>
      <trkpt lat="12.81312" lon="77.38392">
        <ele>731.9</ele>
      </trkpt>
      <trkpt lat="12.8135" lon="77.38438">
        <ele>730.5</ele>
      </trkpt>
      <trkpt lat="12.81368" lon="77.3846">
        <ele>730.4</ele>
      </trkpt>
      <trkpt lat="12.81396" lon="77.38501">
        <ele>731.3</ele>
      </trkpt>
      <trkpt lat="12.81423" lon="77.38542">
        <ele>733.6</ele>
      </trkpt>
      <trkpt lat="12.81454" lon="77.38595">
        <ele>735.5</ele>
      </trkpt>
      <trkpt lat="12.81484" lon="77.38648">
        <ele>738.0</ele>
      </trkpt>
      <trkpt lat="12.8151" lon="77.38705">
        <ele>740.3</ele>
      </trkpt>
      <trkpt lat="12.81536" lon="77.38761">
        <ele>741.8</ele>
      </trkpt>
      <trkpt lat="12.81554" lon="77.38808">
        <ele>742.7</ele>
      </trkpt>
      <trkpt lat="12.81572" lon="77.38854">
        <ele>743.7</ele>
      </trkpt>
      <trkpt lat="12.81587" lon="77.38906">
        <ele>744.5</ele>
      </trkpt>
      <trkpt lat="12.81597" lon="77.38969">
        <ele>745.7</ele>
      </trkpt>
      <trkpt lat="12.81614" lon="77.39051">
        <ele>747.7</ele>
      </trkpt>
      <trkpt lat="12.81631" lon="77.39134">
        <ele>748.3</ele>
      </trkpt>
      <trkpt lat="12.81636" lon="77.39195">
        <ele>748.8</ele>
      </trkpt>
      <trkpt lat="12.81638" lon="77.39246">
        <ele>749.6</ele>
      </trkpt>
      <trkpt lat="12.81641" lon="77.39297">
        <ele>752.3</ele>
      </trkpt>
      <trkpt lat="12.81644" lon="77.39377">
        <ele>755.5</ele>
      </trkpt>
      <trkpt lat="12.81646" lon="77.39458">
        <ele>758.4</ele>
      </trkpt>
      <trkpt lat="12.81647" lon="77.39474">
        <ele>759.0</ele>
      </trkpt>
      <trkpt lat="12.8165" lon="77.39548">
        <ele>761.8</ele>
      </trkpt>
      <trkpt lat="12.81654" lon="77.39621">
        <ele>762.9</ele>
      </trkpt>
      <trkpt lat="12.81657" lon="77.39694">
        <ele>760.8</ele>
      </trkpt>
      <trkpt lat="12.8166" lon="77.39768">
        <ele>757.3</ele>
      </trkpt>
      <trkpt lat="12.8166" lon="77.39768">
        <ele>757.3</ele>
      </trkpt>
      <trkpt lat="12.81664" lon="77.39847">
        <ele>753.9</ele>
      </trkpt>
      <trkpt lat="12.81705" lon="77.39845">
        <ele>755.8</ele>
      </trkpt>
      <trkpt lat="12.81702" lon="77.39768">
        <ele>758.5</ele>
      </trkpt>
      <trkpt lat="12.81698" lon="77.3969">
        <ele>761.2</ele>
      </trkpt>
      <trkpt lat="12.81695" lon="77.39612">
        <ele>761.8</ele>
      </trkpt>
      <trkpt lat="12.81692" lon="77.39559">
        <ele>760.5</ele>
      </trkpt>
      <trkpt lat="12.81689" lon="77.39506">
        <ele>758.0</ele>
      </trkpt>
      <trkpt lat="12.81689" lon="77.39506">
        <ele>758.0</ele>
      </trkpt>
      <trkpt lat="12.81687" lon="77.39461">
        <ele>756.6</ele>
      </trkpt>
      <trkpt lat="12.81686" lon="77.39443">
        <ele>756.1</ele>
      </trkpt>
      <trkpt lat="12.81683" lon="77.39369">
        <ele>754.0</ele>
      </trkpt>
      <trkpt lat="12.81679" lon="77.39294">
        <ele>751.1</ele>
      </trkpt>
      <trkpt lat="12.81675" lon="77.39228">
        <ele>748.5</ele>
      </trkpt>
      <trkpt lat="12.8167" lon="77.39161">
        <ele>747.7</ele>
      </trkpt>
      <trkpt lat="12.81666" lon="77.39095">
        <ele>745.5</ele>
      </trkpt>
      <trkpt lat="12.81659" lon="77.39036">
        <ele>742.9</ele>
      </trkpt>
      <trkpt lat="12.81646" lon="77.38969">
        <ele>741.4</ele>
      </trkpt>
      <trkpt lat="12.81628" lon="77.38906">
        <ele>741.8</ele>
      </trkpt>
      <trkpt lat="12.81609" lon="77.38844">
        <ele>742.5</ele>
      </trkpt>
      <trkpt lat="12.81592" lon="77.38794">
        <ele>741.9</ele>
      </trkpt>
      <trkpt lat="12.81575" lon="77.38745">
        <ele>740.9</ele>
      </trkpt>
      <trkpt lat="12.81548" lon="77.38686">
        <ele>739.1</ele>
      </trkpt>
      <trkpt lat="12.81521" lon="77.38628">
        <ele>737.2</ele>
      </trkpt>
      <trkpt lat="12.8149" lon="77.38573">
        <ele>735.0</ele>
      </trkpt>
      <trkpt lat="12.81458" lon="77.38518">
        <ele>733.8</ele>
      </trkpt>
      <trkpt lat="12.81421" lon="77.38466">
        <ele>731.3</ele>
      </trkpt>
      <trkpt lat="12.81384" lon="77.38415">
        <ele>730.5</ele>
      </trkpt>
      <trkpt lat="12.81352" lon="77.38375">
        <ele>732.7</ele>
      </trkpt>
      <trkpt lat="12.81321" lon="77.38336">
        <ele>734.7</ele>
      </trkpt>
      <trkpt lat="12.81313" lon="77.38328">
        <ele>735.0</ele>
      </trkpt>
      <trkpt lat="12.81275" lon="77.38288">
        <ele>736.1</ele>
      </trkpt>
      <trkpt lat="12.81237" lon="77.38248">
        <ele>737.1</ele>
      </trkpt>
      <trkpt lat="12.81171" lon="77.38189">
        <ele>738.6</ele>
      </trkpt>
      <trkpt lat="12.81105" lon="77.3813">
        <ele>736.6</ele>
      </trkpt>
      <trkpt lat="12.81039" lon="77.38071">
        <ele>735.2</ele>
      </trkpt>
      <trkpt lat="12.80985" lon="77.38021">
        <ele>735.2</ele>
      </trkpt>
      <trkpt lat="12.80931" lon="77.37972">
        <ele>736.6</ele>
      </trkpt>
      <trkpt lat="12.80877" lon="77.37922">
        <ele>736.4</ele>
      </trkpt>
      <trkpt lat="12.80829" lon="77.37877">
        <ele>735.9</ele>
      </trkpt>
      <trkpt lat="12.80781" lon="77.37832">
        <ele>737.9</ele>
      </trkpt>
      <trkpt lat="12.80786" lon="77.37826">
        <ele>737.6</ele>
      </trkpt>
      <trkpt lat="12.80786" lon="77.37826">
        <ele>737.6</ele>
      </trkpt>
      <trkpt lat="12.80778" lon="77.37829">
        <ele>737.8</ele>
      </trkpt>
      <trkpt lat="12.80745" lon="77.37807">
        <ele>736.3</ele>
      </trkpt>
      <trkpt lat="12.80691" lon="77.37757">
        <ele>733.3</ele>
      </trkpt>
      <trkpt lat="12.80636" lon="77.37707">
        <ele>730.9</ele>
      </trkpt>
      <trkpt lat="12.80581" lon="77.37657">
        <ele>728.3</ele>
      </trkpt>
      <trkpt lat="12.80529" lon="77.37615">
        <ele>727.6</ele>
      </trkpt>
      <trkpt lat="12.80478" lon="77.37573">
        <ele>725.0</ele>
      </trkpt>
      <trkpt lat="12.8046" lon="77.3756">
        <ele>724.2</ele>
      </trkpt>
      <trkpt lat="12.80422" lon="77.37535">
        <ele>722.5</ele>
      </trkpt>
      <trkpt lat="12.8038" lon="77.37508">
        <ele>721.6</ele>
      </trkpt>
      <trkpt lat="12.80337" lon="77.37482">
        <ele>721.7</ele>
      </trkpt>
      <trkpt lat="12.8028" lon="77.37453">
        <ele>722.0</ele>
      </trkpt>
      <trkpt lat="12.80222" lon="77.37423">
        <ele>722.6</ele>
      </trkpt>
      <trkpt lat="12.80178" lon="77.37405">
        <ele>724.0</ele>
      </trkpt>
      <trkpt lat="12.80133" lon="77.37387">
        <ele>725.1</ele>
      </trkpt>
      <trkpt lat="12.80053" lon="77.3736">
        <ele>726.7</ele>
      </trkpt>
      <trkpt lat="12.79995" lon="77.37347">
        <ele>727.9</ele>
      </trkpt>
      <trkpt lat="12.79936" lon="77.37334">
        <ele>730.3</ele>
      </trkpt>
      <trkpt lat="12.79874" lon="77.37325">
        <ele>732.1</ele>
      </trkpt>
      <trkpt lat="12.79813" lon="77.37316">
        <ele>733.6</ele>
      </trkpt>
      <trkpt lat="12.79813" lon="77.37316">
        <ele>733.6</ele>
      </trkpt>
      <trkpt lat="12.79726" lon="77.37305">
        <ele>735.7</ele>
      </trkpt>
      <trkpt lat="12.79678" lon="77.37304">
        <ele>735.7</ele>
      </trkpt>
      <trkpt lat="12.79605" lon="77.37304">
        <ele>737.9</ele>
      </trkpt>
      <trkpt lat="12.79531" lon="77.37303">
        <ele>740.2</ele>
      </trkpt>
      <trkpt lat="12.79458" lon="77.37303">
        <ele>740.8</ele>
      </trkpt>
      <trkpt lat="12.79384" lon="77.37302">
        <ele>740.9</ele>
      </trkpt>
      <trkpt lat="12.79311" lon="77.37302">
        <ele>742.7</ele>
      </trkpt>
      <trkpt lat="12.79311" lon="77.37302">
        <ele>742.7</ele>
      </trkpt>
      <trkpt lat="12.79293" lon="77.37302">
        <ele>743.9</ele>
      </trkpt>
      <trkpt lat="12.79205" lon="77.37298">
        <ele>748.5</ele>
      </trkpt>
      <trkpt lat="12.79123" lon="77.37298">
        <ele>748.7</ele>
      </trkpt>
      <trkpt lat="12.79042" lon="77.37298">
        <ele>745.1</ele>
      </trkpt>
      <trkpt lat="12.7896" lon="77.37298">
        <ele>740.2</ele>
      </trkpt>
      <trkpt lat="12.78878" lon="77.37298">
        <ele>736.0</ele>
      </trkpt>
      <trkpt lat="12.78836" lon="77.37298">
        <ele>734.1</ele>
      </trkpt>
      <trkpt lat="12.78836" lon="77.37298">
        <ele>734.1</ele>
      </trkpt>
      <trkpt lat="12.78799" lon="77.37298">
        <ele>733.5</ele>
      </trkpt>
      <trkpt lat="12.78799" lon="77.37298">
        <ele>733.5</ele>
      </trkpt>
      <trkpt lat="12.78865" lon="77.37298">
        <ele>735.4</ele>
      </trkpt>
      <trkpt lat="12.78931" lon="77.37299">
        <ele>738.6</ele>
      </trkpt>
      <trkpt lat="12.79006" lon="77.37298">
        <ele>742.9</ele>
      </trkpt>
      <trkpt lat="12.79081" lon="77.37298">
        <ele>747.4</ele>
      </trkpt>
      <trkpt lat="12.79081" lon="77.37298">
        <ele>747.4</ele>
      </trkpt>
      <trkpt lat="12.79143" lon="77.37298">
        <ele>749.2</ele>
      </trkpt>
      <trkpt lat="12.79205" lon="77.37298">
        <ele>748.5</ele>
      </trkpt>
      <trkpt lat="12.79293" lon="77.37302">
        <ele>743.9</ele>
      </trkpt>
      <trkpt lat="12.79382" lon="77.37302">
        <ele>740.9</ele>
      </trkpt>
      <trkpt lat="12.79471" lon="77.37303">
        <ele>740.9</ele>
      </trkpt>
      <trkpt lat="12.79559" lon="77.37303">
        <ele>739.4</ele>
      </trkpt>
      <trkpt lat="12.79559" lon="77.37303">
        <ele>739.4</ele>
      </trkpt>
      <trkpt lat="12.79619" lon="77.37304">
        <ele>737.4</ele>
      </trkpt>
      <trkpt lat="12.79678" lon="77.37304">
        <ele>735.7</ele>
      </trkpt>
      <trkpt lat="12.79726" lon="77.37305">
        <ele>735.7</ele>
      </trkpt>
      <trkpt lat="12.79814" lon="77.37316">
        <ele>733.6</ele>
      </trkpt>
      <trkpt lat="12.79875" lon="77.37325">
        <ele>732.1</ele>
      </trkpt>
      <trkpt lat="12.79936" lon="77.37334">
        <ele>730.3</ele>
      </trkpt>
      <trkpt lat="12.79994" lon="77.37347">
        <ele>727.9</ele>
      </trkpt>
      <trkpt lat="12.80053" lon="77.3736">
        <ele>726.7</ele>
      </trkpt>
      <trkpt lat="12.80053" lon="77.3736">
        <ele>726.7</ele>
      </trkpt>
      <trkpt lat="12.80055" lon="77.37361">
        <ele>726.7</ele>
      </trkpt>
      <trkpt lat="12.80055" lon="77.37361">
        <ele>726.7</ele>
      </trkpt>
      <trkpt lat="12.80133" lon="77.37387">
        <ele>725.1</ele>
      </trkpt>
      <trkpt lat="12.80178" lon="77.37405">
        <ele>724.0</ele>
      </trkpt>
      <trkpt lat="12.80222" lon="77.37423">
        <ele>722.6</ele>
      </trkpt>
      <trkpt lat="12.8028" lon="77.37453">
        <ele>722.0</ele>
      </trkpt>
      <trkpt lat="12.80337" lon="77.37482">
        <ele>721.7</ele>
      </trkpt>
      <trkpt lat="12.8038" lon="77.37508">
        <ele>721.6</ele>
      </trkpt>
      <trkpt lat="12.80422" lon="77.37535">
        <ele>722.5</ele>
      </trkpt>
      <trkpt lat="12.8046" lon="77.3756">
        <ele>724.2</ele>
      </trkpt>
      <trkpt lat="12.80478" lon="77.37573">
        <ele>725.1</ele>
      </trkpt>
      <trkpt lat="12.80514" lon="77.37602">
        <ele>726.9</ele>
      </trkpt>
      <trkpt lat="12.80514" lon="77.37602">
        <ele>726.9</ele>
      </trkpt>
      <trkpt lat="12.80581" lon="77.37657">
        <ele>728.3</ele>
      </trkpt>
      <trkpt lat="12.80636" lon="77.37707">
        <ele>730.9</ele>
      </trkpt>
      <trkpt lat="12.80691" lon="77.37757">
        <ele>733.3</ele>
      </trkpt>
      <trkpt lat="12.80745" lon="77.37807">
        <ele>736.3</ele>
      </trkpt>
      <trkpt lat="12.80778" lon="77.37829">
        <ele>737.8</ele>
      </trkpt>
      <trkpt lat="12.80786" lon="77.37826">
        <ele>737.6</ele>
      </trkpt>
      <trkpt lat="12.80781" lon="77.37832">
        <ele>737.9</ele>
      </trkpt>
      <trkpt lat="12.80829" lon="77.37877">
        <ele>735.9</ele>
      </trkpt>
      <trkpt lat="12.80877" lon="77.37922">
        <ele>736.4</ele>
      </trkpt>
      <trkpt lat="12.80931" lon="77.37972">
        <ele>736.6</ele>
      </trkpt>
      <trkpt lat="12.80985" lon="77.38021">
        <ele>735.2</ele>
      </trkpt>
      <trkpt lat="12.81039" lon="77.38071">
        <ele>735.2</ele>
      </trkpt>
      <trkpt lat="12.81105" lon="77.3813">
        <ele>736.6</ele>
      </trkpt>
      <trkpt lat="12.81171" lon="77.38189">
        <ele>738.6</ele>
      </trkpt>
      <trkpt lat="12.81237" lon="77.38248">
        <ele>737.1</ele>
      </trkpt>
      <trkpt lat="12.81279" lon="77.38292">
        <ele>736.0</ele>
      </trkpt>
      <trkpt lat="12.81321" lon="77.38336">
        <ele>734.7</ele>
      </trkpt>
      <trkpt lat="12.81352" lon="77.38375">
        <ele>732.7</ele>
      </trkpt>
      <trkpt lat="12.81384" lon="77.38415">
        <ele>730.5</ele>
      </trkpt>
      <trkpt lat="12.81421" lon="77.38466">
        <ele>731.3</ele>
      </trkpt>
      <trkpt lat="12.81458" lon="77.38518">
        <ele>733.8</ele>
      </trkpt>
      <trkpt lat="12.8149" lon="77.38573">
        <ele>735.0</ele>
      </trkpt>
      <trkpt lat="12.81521" lon="77.38628">
        <ele>737.2</ele>
      </trkpt>
      <trkpt lat="12.81548" lon="77.38686">
        <ele>739.1</ele>
      </trkpt>
      <trkpt lat="12.81575" lon="77.38745">
        <ele>740.9</ele>
      </trkpt>
      <trkpt lat="12.81591" lon="77.38791">
        <ele>741.8</ele>
      </trkpt>
      <trkpt lat="12.81607" lon="77.38838">
        <ele>742.5</ele>
      </trkpt>
      <trkpt lat="12.81607" lon="77.38838">
        <ele>742.5</ele>
      </trkpt>
      <trkpt lat="12.81627" lon="77.38904">
        <ele>741.9</ele>
      </trkpt>
      <trkpt lat="12.81646" lon="77.38969">
        <ele>741.4</ele>
      </trkpt>
      <trkpt lat="12.81659" lon="77.39036">
        <ele>742.9</ele>
      </trkpt>
      <trkpt lat="12.81666" lon="77.39095">
        <ele>745.5</ele>
      </trkpt>
      <trkpt lat="12.8167" lon="77.39161">
        <ele>747.7</ele>
      </trkpt>
      <trkpt lat="12.81675" lon="77.39228">
        <ele>748.5</ele>
      </trkpt>
      <trkpt lat="12.81679" lon="77.39294">
        <ele>751.1</ele>
      </trkpt>
      <trkpt lat="12.81683" lon="77.39369">
        <ele>754.0</ele>
      </trkpt>
      <trkpt lat="12.81686" lon="77.39443">
        <ele>756.3</ele>
      </trkpt>
      <trkpt lat="12.81687" lon="77.39461">
        <ele>756.9</ele>
      </trkpt>
      <trkpt lat="12.81691" lon="77.39537">
        <ele>759.4</ele>
      </trkpt>
      <trkpt lat="12.81695" lon="77.39612">
        <ele>761.8</ele>
      </trkpt>
      <trkpt lat="12.81698" lon="77.39674">
        <ele>761.7</ele>
      </trkpt>
      <trkpt lat="12.817" lon="77.39736">
        <ele>759.7</ele>
      </trkpt>
      <trkpt lat="12.81703" lon="77.39798">
        <ele>757.3</ele>
      </trkpt>
      <trkpt lat="12.81703" lon="77.39798">
        <ele>757.3</ele>
      </trkpt>
      <trkpt lat="12.81705" lon="77.39845">
        <ele>755.8</ele>
      </trkpt>
      <trkpt lat="12.81688" lon="77.39846">
        <ele>755.0</ele>
      </trkpt>
      <trkpt lat="12.81688" lon="77.39846">
        <ele>755.0</ele>
      </trkpt>
      <trkpt lat="12.81664" lon="77.39847">
        <ele>753.9</ele>
      </trkpt>
      <trkpt lat="12.81661" lon="77.39786">
        <ele>756.4</ele>
      </trkpt>
      <trkpt lat="12.81661" lon="77.39786">
        <ele>756.4</ele>
      </trkpt>
      <trkpt lat="12.81657" lon="77.39708">
        <ele>760.2</ele>
      </trkpt>
      <trkpt lat="12.81654" lon="77.3963">
        <ele>762.7</ele>
      </trkpt>
      <trkpt lat="12.81651" lon="77.39552">
        <ele>762.0</ele>
      </trkpt>
      <trkpt lat="12.81647" lon="77.39474">
        <ele>758.7</ele>
      </trkpt>
      <trkpt lat="12.81646" lon="77.39458">
        <ele>758.1</ele>
      </trkpt>
      <trkpt lat="12.81645" lon="77.39431">
        <ele>757.0</ele>
      </trkpt>
      <trkpt lat="12.81645" lon="77.39431">
        <ele>757.0</ele>
      </trkpt>
      <trkpt lat="12.81643" lon="77.39364">
        <ele>755.1</ele>
      </trkpt>
      <trkpt lat="12.81641" lon="77.39297">
        <ele>752.3</ele>
      </trkpt>
      <trkpt lat="12.81638" lon="77.39246">
        <ele>749.6</ele>
      </trkpt>
      <trkpt lat="12.81636" lon="77.39195">
        <ele>748.8</ele>
      </trkpt>
      <trkpt lat="12.81631" lon="77.39134">
        <ele>748.3</ele>
      </trkpt>
      <trkpt lat="12.81626" lon="77.39107">
        <ele>748.4</ele>
      </trkpt>
      <trkpt lat="12.81626" lon="77.39107">
        <ele>748.4</ele>
      </trkpt>
      <trkpt lat="12.81611" lon="77.39038">
        <ele>747.3</ele>
      </trkpt>
      <trkpt lat="12.81597" lon="77.38969">
        <ele>745.7</ele>
      </trkpt>
      <trkpt lat="12.81587" lon="77.38906">
        <ele>744.5</ele>
      </trkpt>
      <trkpt lat="12.81572" lon="77.38854">
        <ele>743.7</ele>
      </trkpt>
      <trkpt lat="12.81554" lon="77.38808">
        <ele>742.7</ele>
      </trkpt>
      <trkpt lat="12.81536" lon="77.38761">
        <ele>741.8</ele>
      </trkpt>
      <trkpt lat="12.81529" lon="77.38746">
        <ele>741.5</ele>
      </trkpt>
      <trkpt lat="12.81529" lon="77.38746">
        <ele>741.5</ele>
      </trkpt>
      <trkpt lat="12.81507" lon="77.38697">
        <ele>740.0</ele>
      </trkpt>
      <trkpt lat="12.81484" lon="77.38648">
        <ele>738.0</ele>
      </trkpt>
      <trkpt lat="12.81454" lon="77.38595">
        <ele>735.5</ele>
      </trkpt>
      <trkpt lat="12.81423" lon="77.38542">
        <ele>733.6</ele>
      </trkpt>
      <trkpt lat="12.81378" lon="77.38474">
        <ele>730.6</ele>
      </trkpt>
      <trkpt lat="12.81378" lon="77.38474">
        <ele>730.6</ele>
      </trkpt>
      <trkpt lat="12.81368" lon="77.3846">
        <ele>730.4</ele>
      </trkpt>
      <trkpt lat="12.8135" lon="77.38438">
        <ele>730.5</ele>
      </trkpt>
      <trkpt lat="12.81312" lon="77.38392">
        <ele>731.9</ele>
      </trkpt>
      <trkpt lat="12.8129" lon="77.38365">
        <ele>733.0</ele>
      </trkpt>
      <trkpt lat="12.81249" lon="77.38322">
        <ele>734.4</ele>
      </trkpt>
      <trkpt lat="12.81208" lon="77.38279">
        <ele>736.0</ele>
      </trkpt>
      <trkpt lat="12.81185" lon="77.38258">
        <ele>736.7</ele>
      </trkpt>
      <trkpt lat="12.81185" lon="77.38258">
        <ele>736.7</ele>
      </trkpt>
      <trkpt lat="12.81129" lon="77.38206">
        <ele>737.1</ele>
      </trkpt>
      <trkpt lat="12.81083" lon="77.38166">
        <ele>736.0</ele>
      </trkpt>
      <trkpt lat="12.81037" lon="77.38126">
        <ele>734.6</ele>
      </trkpt>
      <trkpt lat="12.8099" lon="77.38084">
        <ele>733.5</ele>
      </trkpt>
      <trkpt lat="12.8099" lon="77.38084">
        <ele>733.5</ele>
      </trkpt>
      <trkpt lat="12.80943" lon="77.3804">
        <ele>733.4</ele>
      </trkpt>
      <trkpt lat="12.80896" lon="77.37997">
        <ele>733.9</ele>
      </trkpt>
      <trkpt lat="12.80849" lon="77.37954">
        <ele>733.1</ele>
      </trkpt>
      <trkpt lat="12.80809" lon="77.37919">
        <ele>733.9</ele>
      </trkpt>
      <trkpt lat="12.8077" lon="77.37885">
        <ele>735.5</ele>
      </trkpt>
      <trkpt lat="12.80758" lon="77.37877">
        <ele>735.9</ele>
      </trkpt>
      <trkpt lat="12.80745" lon="77.37866">
        <ele>736.4</ele>
      </trkpt>
      <trkpt lat="12.80742" lon="77.37862">
        <ele>736.6</ele>
      </trkpt>
      <trkpt lat="12.8072" lon="77.3784">
        <ele>737.1</ele>
      </trkpt>
      <trkpt lat="12.80664" lon="77.3779">
        <ele>734.4</ele>
      </trkpt>
      <trkpt lat="12.80609" lon="77.3774">
        <ele>731.9</ele>
      </trkpt>
      <trkpt lat="12.80554" lon="77.3769">
        <ele>728.6</ele>
      </trkpt>
      <trkpt lat="12.80496" lon="77.3764">
        <ele>726.6</ele>
      </trkpt>
      <trkpt lat="12.8044" lon="77.37597">
        <ele>724.4</ele>
      </trkpt>
      <trkpt lat="12.80422" lon="77.37585">
        <ele>723.7</ele>
      </trkpt>
      <trkpt lat="12.80361" lon="77.37545">
        <ele>721.5</ele>
      </trkpt>
      <trkpt lat="12.80328" lon="77.37526">
        <ele>721.0</ele>
      </trkpt>
      <trkpt lat="12.80328" lon="77.37526">
        <ele>721.0</ele>
      </trkpt>
      <trkpt lat="12.80262" lon="77.37489">
        <ele>721.2</ele>
      </trkpt>
      <trkpt lat="12.80205" lon="77.37462">
        <ele>722.5</ele>
      </trkpt>
      <trkpt lat="12.80162" lon="77.37445">
        <ele>723.7</ele>
      </trkpt>
      <trkpt lat="12.80119" lon="77.37427">
        <ele>724.4</ele>
      </trkpt>
      <trkpt lat="12.80073" lon="77.37412">
        <ele>725.2</ele>
      </trkpt>
      <trkpt lat="12.80073" lon="77.37412">
        <ele>725.2</ele>
      </trkpt>
      <trkpt lat="12.80043" lon="77.37402">
        <ele>725.8</ele>
      </trkpt>
      <trkpt lat="12.79981" lon="77.37386">
        <ele>727.4</ele>
      </trkpt>
      <trkpt lat="12.7992" lon="77.3737">
        <ele>730.0</ele>
      </trkpt>
      <trkpt lat="12.79865" lon="77.37361">
        <ele>731.6</ele>
      </trkpt>
      <trkpt lat="12.7981" lon="77.37352">
        <ele>733.1</ele>
      </trkpt>
      <trkpt lat="12.79774" lon="77.37348">
        <ele>734.4</ele>
      </trkpt>
      <trkpt lat="12.79723" lon="77.37344">
        <ele>735.3</ele>
      </trkpt>
      <trkpt lat="12.79645" lon="77.37344">
        <ele>736.1</ele>
      </trkpt>
      <trkpt lat="12.79567" lon="77.37343">
        <ele>738.7</ele>
      </trkpt>
      <trkpt lat="12.79489" lon="77.37343">
        <ele>739.9</ele>
      </trkpt>
      <trkpt lat="12.79411" lon="77.37342">
        <ele>737.9</ele>
      </trkpt>
      <trkpt lat="12.79411" lon="77.37342">
        <ele>737.9</ele>
      </trkpt>
      <trkpt lat="12.79352" lon="77.37342">
        <ele>738.6</ele>
      </trkpt>
      <trkpt lat="12.79293" lon="77.37342">
        <ele>742.1</ele>
      </trkpt>
      <trkpt lat="12.79204" lon="77.3734">
        <ele>747.4</ele>
      </trkpt>
      <trkpt lat="12.79149" lon="77.37339">
        <ele>748.6</ele>
      </trkpt>
      <trkpt lat="12.79082" lon="77.37338">
        <ele>747.8</ele>
      </trkpt>
      <trkpt lat="12.79006" lon="77.37339">
        <ele>743.3</ele>
      </trkpt>
      <trkpt lat="12.7893" lon="77.37339">
        <ele>739.7</ele>
      </trkpt>
      <trkpt lat="12.78859" lon="77.37339">
        <ele>735.8</ele>
      </trkpt>
      <trkpt lat="12.78789" lon="77.37338">
        <ele>733.2</ele>
      </trkpt>
      <trkpt lat="12.78859" lon="77.37339">
        <ele>735.8</ele>
      </trkpt>
      <trkpt lat="12.7893" lon="77.37339">
        <ele>739.7</ele>
      </trkpt>
      <trkpt lat="12.79006" lon="77.37339">
        <ele>743.3</ele>
      </trkpt>
      <trkpt lat="12.79082" lon="77.37338">
        <ele>747.8</ele>
      </trkpt>
      <trkpt lat="12.79143" lon="77.37339">
        <ele>748.5</ele>
      </trkpt>
      <trkpt lat="12.79204" lon="77.3734">
        <ele>747.4</ele>
      </trkpt>
      <trkpt lat="12.79293" lon="77.37342">
        <ele>742.1</ele>
      </trkpt>
      <trkpt lat="12.79341" lon="77.37342">
        <ele>738.7</ele>
      </trkpt>
      <trkpt lat="12.79388" lon="77.37342">
        <ele>738.1</ele>
      </trkpt>
      <trkpt lat="12.79472" lon="77.37343">
        <ele>739.4</ele>
      </trkpt>
      <trkpt lat="12.79555" lon="77.37343">
        <ele>739.0</ele>
      </trkpt>
      <trkpt lat="12.79639" lon="77.37344">
        <ele>736.3</ele>
      </trkpt>
      <trkpt lat="12.79723" lon="77.37344">
        <ele>735.3</ele>
      </trkpt>
      <trkpt lat="12.79774" lon="77.37348">
        <ele>734.4</ele>
      </trkpt>
      <trkpt lat="12.7981" lon="77.37352">
        <ele>733.1</ele>
      </trkpt>
      <trkpt lat="12.79865" lon="77.37361">
        <ele>731.6</ele>
      </trkpt>
      <trkpt lat="12.7992" lon="77.3737">
        <ele>730.0</ele>
      </trkpt>
      <trkpt lat="12.79981" lon="77.37386">
        <ele>727.4</ele>
      </trkpt>
      <trkpt lat="12.80043" lon="77.37402">
        <ele>725.8</ele>
      </trkpt>
      <trkpt lat="12.80119" lon="77.37427">
        <ele>724.4</ele>
      </trkpt>
      <trkpt lat="12.80162" lon="77.37445">
        <ele>723.7</ele>
      </trkpt>
      <trkpt lat="12.80205" lon="77.37462">
        <ele>722.5</ele>
      </trkpt>
      <trkpt lat="12.80262" lon="77.37489">
        <ele>721.2</ele>
      </trkpt>
      <trkpt lat="12.80311" lon="77.37517">
        <ele>721.1</ele>
      </trkpt>
      <trkpt lat="12.80361" lon="77.37545">
        <ele>721.5</ele>
      </trkpt>
      <trkpt lat="12.80422" lon="77.37585">
        <ele>723.7</ele>
      </trkpt>
      <trkpt lat="12.8044" lon="77.37597">
        <ele>724.4</ele>
      </trkpt>
      <trkpt lat="12.80496" lon="77.3764">
        <ele>726.6</ele>
      </trkpt>
      <trkpt lat="12.80554" lon="77.3769">
        <ele>728.6</ele>
      </trkpt>
      <trkpt lat="12.80609" lon="77.3774">
        <ele>731.9</ele>
      </trkpt>
      <trkpt lat="12.80664" lon="77.3779">
        <ele>734.4</ele>
      </trkpt>
      <trkpt lat="12.8072" lon="77.3784">
        <ele>737.1</ele>
      </trkpt>
      <trkpt lat="12.80742" lon="77.37862">
        <ele>736.6</ele>
      </trkpt>
      <trkpt lat="12.80745" lon="77.37866">
        <ele>736.4</ele>
      </trkpt>
      <trkpt lat="12.80758" lon="77.37877">
        <ele>735.9</ele>
      </trkpt>
      <trkpt lat="12.8077" lon="77.37885">
        <ele>735.5</ele>
      </trkpt>
      <trkpt lat="12.80809" lon="77.37919">
        <ele>733.9</ele>
      </trkpt>
      <trkpt lat="12.80849" lon="77.37954">
        <ele>733.1</ele>
      </trkpt>
      <trkpt lat="12.80911" lon="77.38011">
        <ele>734.0</ele>
      </trkpt>
      <trkpt lat="12.80974" lon="77.38069">
        <ele>733.3</ele>
      </trkpt>
      <trkpt lat="12.81037" lon="77.38126">
        <ele>734.6</ele>
      </trkpt>
      <trkpt lat="12.81083" lon="77.38166">
        <ele>736.0</ele>
      </trkpt>
      <trkpt lat="12.81129" lon="77.38206">
        <ele>737.1</ele>
      </trkpt>
      <trkpt lat="12.81168" lon="77.38243">
        <ele>737.2</ele>
      </trkpt>
      <trkpt lat="12.81208" lon="77.38279">
        <ele>736.0</ele>
      </trkpt>
      <trkpt lat="12.81249" lon="77.38322">
        <ele>734.4</ele>
      </trkpt>
      <trkpt lat="12.8129" lon="77.38365">
        <ele>733.0</ele>
      </trkpt>
      <trkpt lat="12.81312" lon="77.38392">
        <ele>731.9</ele>
      </trkpt>
      <trkpt lat="12.8135" lon="77.38438">
        <ele>730.5</ele>
      </trkpt>
      <trkpt lat="12.81368" lon="77.3846">
        <ele>730.4</ele>
      </trkpt>
      <trkpt lat="12.81396" lon="77.38501">
        <ele>731.3</ele>
      </trkpt>
      <trkpt lat="12.81423" lon="77.38542">
        <ele>733.6</ele>
      </trkpt>
      <trkpt lat="12.81454" lon="77.38595">
        <ele>735.5</ele>
      </trkpt>
      <trkpt lat="12.81484" lon="77.38648">
        <ele>738.0</ele>
      </trkpt>
      <trkpt lat="12.8151" lon="77.38705">
        <ele>740.3</ele>
      </trkpt>
      <trkpt lat="12.81536" lon="77.38761">
        <ele>741.8</ele>
      </trkpt>
      <trkpt lat="12.81554" lon="77.38808">
        <ele>742.7</ele>
      </trkpt>
      <trkpt lat="12.81572" lon="77.38854">
        <ele>743.7</ele>
      </trkpt>
      <trkpt lat="12.81587" lon="77.38906">
        <ele>744.5</ele>
      </trkpt>
      <trkpt lat="12.81592" lon="77.38939">
        <ele>745.1</ele>
      </trkpt>
      <trkpt lat="12.81592" lon="77.38939">
        <ele>745.1</ele>
      </trkpt>
      <trkpt lat="12.81597" lon="77.38969">
        <ele>745.7</ele>
      </trkpt>
      <trkpt lat="12.81614" lon="77.39051">
        <ele>747.7</ele>
      </trkpt>
      <trkpt lat="12.81631" lon="77.39134">
        <ele>748.3</ele>
      </trkpt>
      <trkpt lat="12.81636" lon="77.39195">
        <ele>748.8</ele>
      </trkpt>
      <trkpt lat="12.81638" lon="77.39246">
        <ele>749.6</ele>
      </trkpt>
      <trkpt lat="12.81641" lon="77.39297">
        <ele>752.3</ele>
      </trkpt>
      <trkpt lat="12.81644" lon="77.39377">
        <ele>755.5</ele>
      </trkpt>
      <trkpt lat="12.81646" lon="77.39458">
        <ele>758.3</ele>
      </trkpt>
      <trkpt lat="12.81647" lon="77.39474">
        <ele>758.9</ele>
      </trkpt>
      <trkpt lat="12.81649" lon="77.39527">
        <ele>760.8</ele>
      </trkpt>
      <trkpt lat="12.81652" lon="77.39579">
        <ele>763.3</ele>
      </trkpt>
      <trkpt lat="12.81652" lon="77.39579">
        <ele>763.3</ele>
      </trkpt>
      <trkpt lat="12.81655" lon="77.39654">
        <ele>762.3</ele>
      </trkpt>
      <trkpt lat="12.81658" lon="77.3973">
        <ele>759.1</ele>
      </trkpt>
      <trkpt lat="12.81662" lon="77.39805">
        <ele>755.5</ele>
      </trkpt>
      <trkpt lat="12.81662" lon="77.39805">
        <ele>755.5</ele>
      </trkpt>
      <trkpt lat="12.81664" lon="77.39847">
        <ele>753.9</ele>
      </trkpt>
      <trkpt lat="12.81705" lon="77.39845">
        <ele>755.8</ele>
      </trkpt>
      <trkpt lat="12.81705" lon="77.39832">
        <ele>755.9</ele>
      </trkpt>
      <trkpt lat="12.81705" lon="77.39832">
        <ele>755.9</ele>
      </trkpt>
      <trkpt lat="12.81701" lon="77.39751">
        <ele>759.2</ele>
      </trkpt>
      <trkpt lat="12.81697" lon="77.39669">
        <ele>761.9</ele>
      </trkpt>
      <trkpt lat="12.81697" lon="77.39669">
        <ele>761.9</ele>
      </trkpt>
      <trkpt lat="12.81697" lon="77.39669">
        <ele>761.9</ele>
      </trkpt>
      <trkpt lat="12.81697" lon="77.39669">
        <ele>761.9</ele>
      </trkpt>
      <trkpt lat="12.81695" lon="77.39611">
        <ele>761.8</ele>
      </trkpt>
      <trkpt lat="12.81692" lon="77.39553">
        <ele>760.2</ele>
      </trkpt>
      <trkpt lat="12.81692" lon="77.39553">
        <ele>760.2</ele>
      </trkpt>
      <trkpt lat="12.81689" lon="77.39507">
        <ele>758.0</ele>
      </trkpt>
      <trkpt lat="12.81687" lon="77.39461">
        <ele>756.6</ele>
      </trkpt>
      <trkpt lat="12.81686" lon="77.39443">
        <ele>756.1</ele>
      </trkpt>
      <trkpt lat="12.81683" lon="77.39384">
        <ele>754.4</ele>
      </trkpt>
      <trkpt lat="12.81683" lon="77.39384">
        <ele>754.4</ele>
      </trkpt>
      <trkpt lat="12.81679" lon="77.39294">
        <ele>751.1</ele>
      </trkpt>
      <trkpt lat="12.81674" lon="77.39222">
        <ele>748.5</ele>
      </trkpt>
      <trkpt lat="12.81674" lon="77.39222">
        <ele>748.5</ele>
      </trkpt>
      <trkpt lat="12.81669" lon="77.39147">
        <ele>747.2</ele>
      </trkpt>
      <trkpt lat="12.81669" lon="77.39147">
        <ele>747.2</ele>
      </trkpt>
      <trkpt lat="12.81666" lon="77.39095">
        <ele>745.5</ele>
      </trkpt>
      <trkpt lat="12.81662" lon="77.39061">
        <ele>744.1</ele>
      </trkpt>
      <trkpt lat="12.81662" lon="77.39061">
        <ele>744.1</ele>
      </trkpt>
      <trkpt lat="12.81659" lon="77.39036">
        <ele>742.9</ele>
      </trkpt>
      <trkpt lat="12.81647" lon="77.38975">
        <ele>741.4</ele>
      </trkpt>
      <trkpt lat="12.81647" lon="77.38975">
        <ele>741.4</ele>
      </trkpt>
      <trkpt lat="12.81646" lon="77.38969">
        <ele>741.4</ele>
      </trkpt>
      <trkpt lat="12.8162" lon="77.38882">
        <ele>742.3</ele>
      </trkpt>
      <trkpt lat="12.8162" lon="77.38882">
        <ele>742.3</ele>
      </trkpt>
      <trkpt lat="12.81609" lon="77.38844">
        <ele>742.5</ele>
      </trkpt>
      <trkpt lat="12.81589" lon="77.38787">
        <ele>741.8</ele>
      </trkpt>
      <trkpt lat="12.81589" lon="77.38787">
        <ele>741.8</ele>
      </trkpt>
      <trkpt lat="12.81575" lon="77.38745">
        <ele>740.9</ele>
      </trkpt>
      <trkpt lat="12.8155" lon="77.38691">
        <ele>739.3</ele>
      </trkpt>
      <trkpt lat="12.8155" lon="77.38691">
        <ele>739.3</ele>
      </trkpt>
      <trkpt lat="12.81521" lon="77.38628">
        <ele>737.2</ele>
      </trkpt>
      <trkpt lat="12.81512" lon="77.38612">
        <ele>736.5</ele>
      </trkpt>
      <trkpt lat="12.81512" lon="77.38612">
        <ele>736.5</ele>
      </trkpt>
      <trkpt lat="12.81512" lon="77.38612">
        <ele>736.5</ele>
      </trkpt>
      <trkpt lat="12.81512" lon="77.38612">
        <ele>736.5</ele>
      </trkpt>
      <trkpt lat="12.81481" lon="77.38558">
        <ele>734.8</ele>
      </trkpt>
      <trkpt lat="12.81481" lon="77.38558">
        <ele>734.8</ele>
      </trkpt>
      <trkpt lat="12.81458" lon="77.38518">
        <ele>733.8</ele>
      </trkpt>
      <trkpt lat="12.81421" lon="77.38466">
        <ele>731.3</ele>
      </trkpt>
      <trkpt lat="12.81384" lon="77.38415">
        <ele>730.5</ele>
      </trkpt>
      <trkpt lat="12.81352" lon="77.38375">
        <ele>732.7</ele>
      </trkpt>
      <trkpt lat="12.81321" lon="77.38336">
        <ele>734.7</ele>
      </trkpt>
      <trkpt lat="12.81279" lon="77.38292">
        <ele>736.0</ele>
      </trkpt>
      <trkpt lat="12.81237" lon="77.38248">
        <ele>737.1</ele>
      </trkpt>
      <trkpt lat="12.81171" lon="77.38189">
        <ele>738.6</ele>
      </trkpt>
      <trkpt lat="12.81105" lon="77.3813">
        <ele>736.6</ele>
      </trkpt>
      <trkpt lat="12.81039" lon="77.38071">
        <ele>735.2</ele>
      </trkpt>
      <trkpt lat="12.80985" lon="77.38021">
        <ele>735.2</ele>
      </trkpt>
      <trkpt lat="12.8093" lon="77.37971">
        <ele>736.6</ele>
      </trkpt>
      <trkpt lat="12.80876" lon="77.37921">
        <ele>736.4</ele>
      </trkpt>
      <trkpt lat="12.80876" lon="77.37921">
        <ele>736.4</ele>
      </trkpt>
      <trkpt lat="12.80827" lon="77.37875">
        <ele>736.0</ele>
      </trkpt>
      <trkpt lat="12.80778" lon="77.37829">
        <ele>737.8</ele>
      </trkpt>
      <trkpt lat="12.80745" lon="77.37807">
        <ele>736.3</ele>
      </trkpt>
      <trkpt lat="12.8068" lon="77.37747">
        <ele>732.9</ele>
      </trkpt>
      <trkpt lat="12.80614" lon="77.37687">
        <ele>729.6</ele>
      </trkpt>
      <trkpt lat="12.80614" lon="77.37687">
        <ele>729.6</ele>
      </trkpt>
      <trkpt lat="12.80581" lon="77.37657">
        <ele>728.3</ele>
      </trkpt>
      <trkpt lat="12.80529" lon="77.37615">
        <ele>727.6</ele>
      </trkpt>
      <trkpt lat="12.80478" lon="77.37573">
        <ele>725.0</ele>
      </trkpt>
      <trkpt lat="12.8046" lon="77.3756">
        <ele>724.2</ele>
      </trkpt>
      <trkpt lat="12.80422" lon="77.37535">
        <ele>722.5</ele>
      </trkpt>
      <trkpt lat="12.8038" lon="77.37508">
        <ele>721.6</ele>
      </trkpt>
      <trkpt lat="12.80337" lon="77.37482">
        <ele>721.7</ele>
      </trkpt>
      <trkpt lat="12.80288" lon="77.37457">
        <ele>722.0</ele>
      </trkpt>
      <trkpt lat="12.80288" lon="77.37457">
        <ele>722.0</ele>
      </trkpt>
      <trkpt lat="12.80222" lon="77.37423">
        <ele>722.6</ele>
      </trkpt>
      <trkpt lat="12.80178" lon="77.37405">
        <ele>724.0</ele>
      </trkpt>
      <trkpt lat="12.80133" lon="77.37387">
        <ele>725.1</ele>
      </trkpt>
      <trkpt lat="12.80053" lon="77.3736">
        <ele>726.7</ele>
      </trkpt>
      <trkpt lat="12.79995" lon="77.37347">
        <ele>727.9</ele>
      </trkpt>
      <trkpt lat="12.79936" lon="77.37334">
        <ele>730.3</ele>
      </trkpt>
      <trkpt lat="12.79923" lon="77.37332">
        <ele>730.9</ele>
      </trkpt>
      <trkpt lat="12.79923" lon="77.37332">
        <ele>730.9</ele>
      </trkpt>
      <trkpt lat="12.79868" lon="77.37324">
        <ele>732.2</ele>
      </trkpt>
      <trkpt lat="12.79814" lon="77.37316">
        <ele>733.6</ele>
      </trkpt>
      <trkpt lat="12.79726" lon="77.37305">
        <ele>735.7</ele>
      </trkpt>
      <trkpt lat="12.79678" lon="77.37304">
        <ele>735.7</ele>
      </trkpt>
      <trkpt lat="12.79599" lon="77.37303">
        <ele>738.2</ele>
      </trkpt>
      <trkpt lat="12.7952" lon="77.37303">
        <ele>740.5</ele>
      </trkpt>
      <trkpt lat="12.7952" lon="77.37303">
        <ele>740.5</ele>
      </trkpt>
      <trkpt lat="12.79444" lon="77.37302">
        <ele>740.8</ele>
      </trkpt>
      <trkpt lat="12.79369" lon="77.37302">
        <ele>741.0</ele>
      </trkpt>
      <trkpt lat="12.79293" lon="77.37302">
        <ele>743.9</ele>
      </trkpt>
      <trkpt lat="12.79205" lon="77.37298">
        <ele>748.5</ele>
      </trkpt>
      <trkpt lat="12.7915" lon="77.37298">
        <ele>749.4</ele>
      </trkpt>
      <trkpt lat="12.7915" lon="77.37298">
        <ele>749.4</ele>
      </trkpt>
      <trkpt lat="12.79077" lon="77.37298">
        <ele>747.2</ele>
      </trkpt>
      <trkpt lat="12.79004" lon="77.37298">
        <ele>742.8</ele>
      </trkpt>
      <trkpt lat="12.78931" lon="77.37299">
        <ele>738.6</ele>
      </trkpt>
      <trkpt lat="12.78876" lon="77.37298">
        <ele>735.9</ele>
      </trkpt>
      <trkpt lat="12.78822" lon="77.37298">
        <ele>733.8</ele>
      </trkpt>
      <trkpt lat="12.78822" lon="77.37298">
        <ele>733.8</ele>
      </trkpt>
      <trkpt lat="12.78819" lon="77.37298">
        <ele>733.8</ele>
      </trkpt>
      <trkpt lat="12.78819" lon="77.37298">
        <ele>733.8</ele>
      </trkpt>
      <trkpt lat="12.78867" lon="77.37298">
        <ele>735.5</ele>
      </trkpt>
      <trkpt lat="12.78867" lon="77.37298">
        <ele>735.5</ele>
      </trkpt>
      <trkpt lat="12.78916" lon="77.37299">
        <ele>737.7</ele>
      </trkpt>
      <trkpt lat="12.78916" lon="77.37299">
        <ele>737.7</ele>
      </trkpt>
      <trkpt lat="12.78972" lon="77.37299">
        <ele>741.0</ele>
      </trkpt>
      <trkpt lat="12.78972" lon="77.37299">
        <ele>741.0</ele>
      </trkpt>
      <trkpt lat="12.7903" lon="77.37298">
        <ele>744.4</ele>
      </trkpt>
      <trkpt lat="12.7903" lon="77.37298">
        <ele>744.4</ele>
      </trkpt>
      <trkpt lat="12.79093" lon="77.37298">
        <ele>747.8</ele>
      </trkpt>
      <trkpt lat="12.79093" lon="77.37298">
        <ele>747.8</ele>
      </trkpt>
      <trkpt lat="12.79158" lon="77.37298">
        <ele>749.6</ele>
      </trkpt>
      <trkpt lat="12.79158" lon="77.37298">
        <ele>749.6</ele>
      </trkpt>
      <trkpt lat="12.79205" lon="77.37298">
        <ele>748.5</ele>
      </trkpt>
      <trkpt lat="12.79221" lon="77.37299">
        <ele>747.9</ele>
      </trkpt>
      <trkpt lat="12.79221" lon="77.37299">
        <ele>747.9</ele>
      </trkpt>
      <trkpt lat="12.79283" lon="77.37301">
        <ele>744.6</ele>
      </trkpt>
      <trkpt lat="12.79283" lon="77.37301">
        <ele>744.6</ele>
      </trkpt>
      <trkpt lat="12.79345" lon="77.37302">
        <ele>741.2</ele>
      </trkpt>
      <trkpt lat="12.79345" lon="77.37302">
        <ele>741.2</ele>
      </trkpt>
      <trkpt lat="12.79407" lon="77.37302">
        <ele>740.7</ele>
      </trkpt>
      <trkpt lat="12.79407" lon="77.37302">
        <ele>740.7</ele>
      </trkpt>
      <trkpt lat="12.79468" lon="77.37303">
        <ele>740.9</ele>
      </trkpt>
      <trkpt lat="12.79468" lon="77.37303">
        <ele>740.9</ele>
      </trkpt>
      <trkpt lat="12.79538" lon="77.37303">
        <ele>740.0</ele>
      </trkpt>
      <trkpt lat="12.79608" lon="77.37304">
        <ele>737.8</ele>
      </trkpt>
      <trkpt lat="12.79678" lon="77.37304">
        <ele>735.7</ele>
      </trkpt>
      <trkpt lat="12.79726" lon="77.37305">
        <ele>735.7</ele>
      </trkpt>
      <trkpt lat="12.79814" lon="77.37316">
        <ele>733.6</ele>
      </trkpt>
      <trkpt lat="12.79876" lon="77.37325">
        <ele>732.1</ele>
      </trkpt>
      <trkpt lat="12.79939" lon="77.37334">
        <ele>730.2</ele>
      </trkpt>
      <trkpt lat="12.79939" lon="77.37334">
        <ele>730.2</ele>
      </trkpt>
      <trkpt lat="12.79996" lon="77.37347">
        <ele>727.8</ele>
      </trkpt>
      <trkpt lat="12.80053" lon="77.3736">
        <ele>726.7</ele>
      </trkpt>
      <trkpt lat="12.80133" lon="77.37387">
        <ele>725.1</ele>
      </trkpt>
      <trkpt lat="12.80178" lon="77.37405">
        <ele>724.0</ele>
      </trkpt>
      <trkpt lat="12.80222" lon="77.37423">
        <ele>722.6</ele>
      </trkpt>
      <trkpt lat="12.8028" lon="77.37453">
        <ele>722.0</ele>
      </trkpt>
      <trkpt lat="12.80337" lon="77.37482">
        <ele>721.7</ele>
      </trkpt>
      <trkpt lat="12.8038" lon="77.37508">
        <ele>721.6</ele>
      </trkpt>
      <trkpt lat="12.80422" lon="77.37535">
        <ele>722.5</ele>
      </trkpt>
      <trkpt lat="12.8046" lon="77.3756">
        <ele>724.2</ele>
      </trkpt>
      <trkpt lat="12.80478" lon="77.37573">
        <ele>725.0</ele>
      </trkpt>
      <trkpt lat="12.80529" lon="77.37615">
        <ele>727.6</ele>
      </trkpt>
      <trkpt lat="12.80581" lon="77.37657">
        <ele>728.3</ele>
      </trkpt>
      <trkpt lat="12.80635" lon="77.37706">
        <ele>730.8</ele>
      </trkpt>
      <trkpt lat="12.8069" lon="77.37756">
        <ele>733.3</ele>
      </trkpt>
      <trkpt lat="12.80744" lon="77.37805">
        <ele>736.2</ele>
      </trkpt>
      <trkpt lat="12.80778" lon="77.37829">
        <ele>737.8</ele>
      </trkpt>
      <trkpt lat="12.80786" lon="77.37826">
        <ele>737.6</ele>
      </trkpt>
      <trkpt lat="12.80796" lon="77.37819">
        <ele>737.2</ele>
      </trkpt>
      <trkpt lat="12.80873" lon="77.37802">
        <ele>737.4</ele>
      </trkpt>
      <trkpt lat="12.80949" lon="77.37786">
        <ele>738.7</ele>
      </trkpt>
      <trkpt lat="12.80949" lon="77.37786">
        <ele>738.7</ele>
      </trkpt>
      <trkpt lat="12.80963" lon="77.37783">
        <ele>739.0</ele>
      </trkpt>
      <trkpt lat="12.80963" lon="77.37783">
        <ele>739.0</ele>
      </trkpt>
      <trkpt lat="12.8098" lon="77.37781">
        <ele>739.5</ele>
      </trkpt>
    </trkseg>
  </trk>
</gpx>
