<?xml version="1.0" encoding="UTF-8"?>
<gpx xmlns:gpxdata="http://www.cluetrust.com/XML/GPXDATA/1/0" xmlns:xsi="http://www.w3.org/2001/XMLSchema-instance" xmlns="http://www.topografix.com/GPX/1/1" version="1.1" creator="http://ridewithgps.com/" xsi:schemaLocation="http://www.topografix.com/GPX/1/1 http://www.topografix.com/GPX/1/1/gpx.xsd http://www.cluetrust.com/XML/GPXDATA/1/0 http://www.cluetrust.com/Schemas/gpxdata10.xsd">
  <metadata>
    <name>Bergman 102 Run mysuru 20K</name>
    <link href="https://ridewithgps.com/routes/53725190">
      <text>Bergman 102 Run mysuru 20K</text>
    </link>
    <time>2026-01-14T11:09:06Z</time>
  </metadata>
  <trk>
    <name>Bergman 102 Run mysuru 20K</name>
    <trkseg>
      <trkpt lat="12.408245" lon="76.559056">
        <ele>754.6</ele>
      </trkpt>
      <trkpt lat="12.408245" lon="76.559056">
        <ele>754.6</ele>
      </trkpt>
      <trkpt lat="12.407355" lon="76.558736">
        <ele>758.4</ele>
      </trkpt>
      <trkpt lat="12.406466" lon="76.558416">
        <ele>760.3</ele>
      </trkpt>
      <trkpt lat="12.405576" lon="76.558096">
        <ele>764.5</ele>
      </trkpt>
      <trkpt lat="12.405576" lon="76.558096">
        <ele>764.5</ele>
      </trkpt>
      <trkpt lat="12.405576" lon="76.558096">
        <ele>764.5</ele>
      </trkpt>
      <trkpt lat="12.405758" lon="76.557029">
        <ele>769.8</ele>
      </trkpt>
      <trkpt lat="12.405758" lon="76.557029">
        <ele>769.8</ele>
      </trkpt>
      <trkpt lat="12.405893" lon="76.556535">
        <ele>771.6</ele>
      </trkpt>
      <trkpt lat="12.405893" lon="76.556535">
        <ele>771.6</ele>
      </trkpt>
      <trkpt lat="12.406001" lon="76.556144">
        <ele>770.8</ele>
      </trkpt>
      <trkpt lat="12.406001" lon="76.556144">
        <ele>770.8</ele>
      </trkpt>
      <trkpt lat="12.405984" lon="76.555709">
        <ele>770.9</ele>
      </trkpt>
      <trkpt lat="12.405984" lon="76.555709">
        <ele>770.9</ele>
      </trkpt>
      <trkpt lat="12.405984" lon="76.555709">
        <ele>770.9</ele>
      </trkpt>
      <trkpt lat="12.406203" lon="76.554787">
        <ele>770.9</ele>
      </trkpt>
      <trkpt lat="12.406203" lon="76.554787">
        <ele>770.9</ele>
      </trkpt>
      <trkpt lat="12.406411" lon="76.554266">
        <ele>773.3</ele>
      </trkpt>
      <trkpt lat="12.406411" lon="76.554266">
        <ele>773.3</ele>
      </trkpt>
      <trkpt lat="12.40587" lon="76.554261">
        <ele>773.7</ele>
      </trkpt>
      <trkpt lat="12.40574" lon="76.55426">
        <ele>773.6</ele>
      </trkpt>
      <trkpt lat="12.40573" lon="76.55426">
        <ele>773.6</ele>
      </trkpt>
      <trkpt lat="12.40564" lon="76.55424">
        <ele>773.4</ele>
      </trkpt>
      <trkpt lat="12.40556" lon="76.5542">
        <ele>773.3</ele>
      </trkpt>
      <trkpt lat="12.40554" lon="76.55418">
        <ele>773.3</ele>
      </trkpt>
      <trkpt lat="12.40536" lon="76.55404">
        <ele>773.3</ele>
      </trkpt>
      <trkpt lat="12.40521" lon="76.55388">
        <ele>773.3</ele>
      </trkpt>
      <trkpt lat="12.40517" lon="76.55382">
        <ele>773.2</ele>
      </trkpt>
      <trkpt lat="12.40514" lon="76.55379">
        <ele>773.2</ele>
      </trkpt>
      <trkpt lat="12.40514" lon="76.55379">
        <ele>773.2</ele>
      </trkpt>
      <trkpt lat="12.40513" lon="76.55378">
        <ele>773.1</ele>
      </trkpt>
      <trkpt lat="12.40505" lon="76.55364">
        <ele>772.9</ele>
      </trkpt>
      <trkpt lat="12.40499" lon="76.55344">
        <ele>772.8</ele>
      </trkpt>
      <trkpt lat="12.40495" lon="76.55332">
        <ele>773.0</ele>
      </trkpt>
      <trkpt lat="12.40493" lon="76.55325">
        <ele>773.3</ele>
      </trkpt>
      <trkpt lat="12.40493" lon="76.55325">
        <ele>773.3</ele>
      </trkpt>
      <trkpt lat="12.40491" lon="76.55318">
        <ele>773.7</ele>
      </trkpt>
      <trkpt lat="12.40488" lon="76.55313">
        <ele>774.0</ele>
      </trkpt>
      <trkpt lat="12.40483" lon="76.55307">
        <ele>774.3</ele>
      </trkpt>
      <trkpt lat="12.40473" lon="76.553">
        <ele>774.6</ele>
      </trkpt>
      <trkpt lat="12.40466" lon="76.55298">
        <ele>774.6</ele>
      </trkpt>
      <trkpt lat="12.40452" lon="76.55293">
        <ele>774.8</ele>
      </trkpt>
      <trkpt lat="12.40434" lon="76.55291">
        <ele>774.8</ele>
      </trkpt>
      <trkpt lat="12.40417" lon="76.55293">
        <ele>774.4</ele>
      </trkpt>
      <trkpt lat="12.40414" lon="76.55294">
        <ele>774.4</ele>
      </trkpt>
      <trkpt lat="12.40403" lon="76.55299">
        <ele>774.2</ele>
      </trkpt>
      <trkpt lat="12.40397" lon="76.55302">
        <ele>774.0</ele>
      </trkpt>
      <trkpt lat="12.40391" lon="76.55306">
        <ele>773.7</ele>
      </trkpt>
      <trkpt lat="12.40389" lon="76.55308">
        <ele>773.5</ele>
      </trkpt>
      <trkpt lat="12.40389" lon="76.55308">
        <ele>773.5</ele>
      </trkpt>
      <trkpt lat="12.40383" lon="76.55314">
        <ele>773.0</ele>
      </trkpt>
      <trkpt lat="12.40381" lon="76.55316">
        <ele>772.8</ele>
      </trkpt>
      <trkpt lat="12.40337" lon="76.5537">
        <ele>768.0</ele>
      </trkpt>
      <trkpt lat="12.40307" lon="76.55407">
        <ele>764.8</ele>
      </trkpt>
      <trkpt lat="12.40303" lon="76.55413">
        <ele>764.3</ele>
      </trkpt>
      <trkpt lat="12.40276" lon="76.55443">
        <ele>763.0</ele>
      </trkpt>
      <trkpt lat="12.40258" lon="76.55459">
        <ele>762.4</ele>
      </trkpt>
      <trkpt lat="12.40253" lon="76.55463">
        <ele>762.3</ele>
      </trkpt>
      <trkpt lat="12.4025" lon="76.55464">
        <ele>762.3</ele>
      </trkpt>
      <trkpt lat="12.4025" lon="76.55464">
        <ele>762.3</ele>
      </trkpt>
      <trkpt lat="12.401267" lon="76.55562">
        <ele>762.8</ele>
      </trkpt>
      <trkpt lat="12.401221" lon="76.55566">
        <ele>763.0</ele>
      </trkpt>
      <trkpt lat="12.40098" lon="76.556141">
        <ele>763.6</ele>
      </trkpt>
      <trkpt lat="12.40094" lon="76.5563">
        <ele>763.7</ele>
      </trkpt>
      <trkpt lat="12.400952" lon="76.556495">
        <ele>763.6</ele>
      </trkpt>
      <trkpt lat="12.401062" lon="76.555936">
        <ele>763.4</ele>
      </trkpt>
      <trkpt lat="12.401666" lon="76.555287">
        <ele>762.0</ele>
      </trkpt>
      <trkpt lat="12.401666" lon="76.555287">
        <ele>762.0</ele>
      </trkpt>
      <trkpt lat="12.40243" lon="76.554645">
        <ele>762.3</ele>
      </trkpt>
      <trkpt lat="12.40243" lon="76.554645">
        <ele>762.3</ele>
      </trkpt>
      <trkpt lat="12.402464" lon="76.553379">
        <ele>769.5</ele>
      </trkpt>
      <trkpt lat="12.402498" lon="76.552112">
        <ele>774.9</ele>
      </trkpt>
      <trkpt lat="12.40271" lon="76.55123">
        <ele>776.6</ele>
      </trkpt>
      <trkpt lat="12.40271" lon="76.55123">
        <ele>776.6</ele>
      </trkpt>
      <trkpt lat="12.402457" lon="76.552547">
        <ele>773.5</ele>
      </trkpt>
      <trkpt lat="12.402457" lon="76.552547">
        <ele>773.5</ele>
      </trkpt>
      <trkpt lat="12.402447" lon="76.553617">
        <ele>767.7</ele>
      </trkpt>
      <trkpt lat="12.402438" lon="76.554687">
        <ele>762.1</ele>
      </trkpt>
      <trkpt lat="12.401783" lon="76.555195">
        <ele>761.8</ele>
      </trkpt>
      <trkpt lat="12.401139" lon="76.555775">
        <ele>763.2</ele>
      </trkpt>
      <trkpt lat="12.400956" lon="76.556493">
        <ele>763.6</ele>
      </trkpt>
      <trkpt lat="12.401108" lon="76.555824">
        <ele>763.3</ele>
      </trkpt>
      <trkpt lat="12.401108" lon="76.555824">
        <ele>763.3</ele>
      </trkpt>
      <trkpt lat="12.402371" lon="76.554771">
        <ele>761.9</ele>
      </trkpt>
      <trkpt lat="12.40244" lon="76.55439">
        <ele>763.1</ele>
      </trkpt>
      <trkpt lat="12.40244" lon="76.55439">
        <ele>763.1</ele>
      </trkpt>
      <trkpt lat="12.402454" lon="76.553388">
        <ele>769.3</ele>
      </trkpt>
      <trkpt lat="12.402467" lon="76.552386">
        <ele>774.1</ele>
      </trkpt>
      <trkpt lat="12.402604" lon="76.551663">
        <ele>777.0</ele>
      </trkpt>
      <trkpt lat="12.40267" lon="76.55132">
        <ele>776.6</ele>
      </trkpt>
      <trkpt lat="12.402575" lon="76.551758">
        <ele>776.5</ele>
      </trkpt>
      <trkpt lat="12.402433" lon="76.552589">
        <ele>773.1</ele>
      </trkpt>
      <trkpt lat="12.402433" lon="76.552589">
        <ele>773.1</ele>
      </trkpt>
      <trkpt lat="12.402502" lon="76.553595">
        <ele>768.1</ele>
      </trkpt>
      <trkpt lat="12.40257" lon="76.5546">
        <ele>762.4</ele>
      </trkpt>
      <trkpt lat="12.40257" lon="76.5546">
        <ele>762.4</ele>
      </trkpt>
      <trkpt lat="12.40258" lon="76.55459">
        <ele>762.4</ele>
      </trkpt>
      <trkpt lat="12.40276" lon="76.55443">
        <ele>763.0</ele>
      </trkpt>
      <trkpt lat="12.40303" lon="76.55413">
        <ele>764.3</ele>
      </trkpt>
      <trkpt lat="12.40337" lon="76.5537">
        <ele>768.0</ele>
      </trkpt>
      <trkpt lat="12.40381" lon="76.55316">
        <ele>772.8</ele>
      </trkpt>
      <trkpt lat="12.40383" lon="76.55314">
        <ele>773.0</ele>
      </trkpt>
      <trkpt lat="12.40391" lon="76.55306">
        <ele>773.7</ele>
      </trkpt>
      <trkpt lat="12.40397" lon="76.55302">
        <ele>774.0</ele>
      </trkpt>
      <trkpt lat="12.40403" lon="76.55299">
        <ele>774.2</ele>
      </trkpt>
      <trkpt lat="12.40414" lon="76.55294">
        <ele>774.4</ele>
      </trkpt>
      <trkpt lat="12.40417" lon="76.55293">
        <ele>774.4</ele>
      </trkpt>
      <trkpt lat="12.40434" lon="76.55291">
        <ele>774.8</ele>
      </trkpt>
      <trkpt lat="12.40452" lon="76.55293">
        <ele>774.8</ele>
      </trkpt>
      <trkpt lat="12.40466" lon="76.55298">
        <ele>774.6</ele>
      </trkpt>
      <trkpt lat="12.40473" lon="76.553">
        <ele>774.6</ele>
      </trkpt>
      <trkpt lat="12.40483" lon="76.55307">
        <ele>774.3</ele>
      </trkpt>
      <trkpt lat="12.40488" lon="76.55313">
        <ele>774.0</ele>
      </trkpt>
      <trkpt lat="12.40491" lon="76.55318">
        <ele>773.7</ele>
      </trkpt>
      <trkpt lat="12.40495" lon="76.55332">
        <ele>773.0</ele>
      </trkpt>
      <trkpt lat="12.40499" lon="76.55344">
        <ele>772.8</ele>
      </trkpt>
      <trkpt lat="12.40505" lon="76.55364">
        <ele>772.9</ele>
      </trkpt>
      <trkpt lat="12.40513" lon="76.55378">
        <ele>773.1</ele>
      </trkpt>
      <trkpt lat="12.40517" lon="76.55382">
        <ele>773.2</ele>
      </trkpt>
      <trkpt lat="12.40521" lon="76.55388">
        <ele>773.3</ele>
      </trkpt>
      <trkpt lat="12.40536" lon="76.55404">
        <ele>773.3</ele>
      </trkpt>
      <trkpt lat="12.40545" lon="76.55411">
        <ele>773.3</ele>
      </trkpt>
      <trkpt lat="12.40545" lon="76.55411">
        <ele>773.3</ele>
      </trkpt>
      <trkpt lat="12.40554" lon="76.55418">
        <ele>773.3</ele>
      </trkpt>
      <trkpt lat="12.40556" lon="76.5542">
        <ele>773.3</ele>
      </trkpt>
      <trkpt lat="12.40564" lon="76.55424">
        <ele>773.4</ele>
      </trkpt>
      <trkpt lat="12.40573" lon="76.55426">
        <ele>773.6</ele>
      </trkpt>
      <trkpt lat="12.40574" lon="76.55426">
        <ele>773.6</ele>
      </trkpt>
      <trkpt lat="12.40586" lon="76.55426">
        <ele>773.8</ele>
      </trkpt>
      <trkpt lat="12.40612" lon="76.55427">
        <ele>773.5</ele>
      </trkpt>
      <trkpt lat="12.40632" lon="76.55425">
        <ele>773.5</ele>
      </trkpt>
      <trkpt lat="12.40645" lon="76.55426">
        <ele>773.4</ele>
      </trkpt>
      <trkpt lat="12.40683" lon="76.55425">
        <ele>773.1</ele>
      </trkpt>
      <trkpt lat="12.40736" lon="76.55425">
        <ele>772.6</ele>
      </trkpt>
      <trkpt lat="12.40754" lon="76.55424">
        <ele>772.4</ele>
      </trkpt>
      <trkpt lat="12.40761" lon="76.55424">
        <ele>772.3</ele>
      </trkpt>
      <trkpt lat="12.40783" lon="76.55428">
        <ele>771.7</ele>
      </trkpt>
      <trkpt lat="12.40795" lon="76.5543">
        <ele>771.4</ele>
      </trkpt>
      <trkpt lat="12.40809" lon="76.55432">
        <ele>771.1</ele>
      </trkpt>
      <trkpt lat="12.40824" lon="76.55438">
        <ele>770.3</ele>
      </trkpt>
      <trkpt lat="12.40833" lon="76.55441">
        <ele>770.0</ele>
      </trkpt>
      <trkpt lat="12.40872" lon="76.55453">
        <ele>768.1</ele>
      </trkpt>
      <trkpt lat="12.40891" lon="76.55458">
        <ele>767.1</ele>
      </trkpt>
      <trkpt lat="12.40911" lon="76.55458">
        <ele>766.7</ele>
      </trkpt>
      <trkpt lat="12.40929" lon="76.55458">
        <ele>766.8</ele>
      </trkpt>
      <trkpt lat="12.40942" lon="76.55459">
        <ele>766.9</ele>
      </trkpt>
      <trkpt lat="12.40971" lon="76.55461">
        <ele>767.3</ele>
      </trkpt>
      <trkpt lat="12.41003" lon="76.55463">
        <ele>767.6</ele>
      </trkpt>
      <trkpt lat="12.4104" lon="76.55465">
        <ele>766.8</ele>
      </trkpt>
      <trkpt lat="12.41057" lon="76.55462">
        <ele>766.7</ele>
      </trkpt>
      <trkpt lat="12.41074" lon="76.5545">
        <ele>767.2</ele>
      </trkpt>
      <trkpt lat="12.41094" lon="76.55425">
        <ele>768.0</ele>
      </trkpt>
      <trkpt lat="12.41141" lon="76.55376">
        <ele>768.3</ele>
      </trkpt>
      <trkpt lat="12.41148" lon="76.55372">
        <ele>768.2</ele>
      </trkpt>
      <trkpt lat="12.41149" lon="76.55371">
        <ele>768.2</ele>
      </trkpt>
      <trkpt lat="12.4116" lon="76.55368">
        <ele>767.7</ele>
      </trkpt>
      <trkpt lat="12.4117" lon="76.55368">
        <ele>767.5</ele>
      </trkpt>
      <trkpt lat="12.41181" lon="76.55368">
        <ele>767.9</ele>
      </trkpt>
      <trkpt lat="12.41201" lon="76.55374">
        <ele>768.3</ele>
      </trkpt>
      <trkpt lat="12.41208" lon="76.55375">
        <ele>768.5</ele>
      </trkpt>
      <trkpt lat="12.41233" lon="76.55388">
        <ele>768.5</ele>
      </trkpt>
      <trkpt lat="12.41248" lon="76.55402">
        <ele>768.0</ele>
      </trkpt>
      <trkpt lat="12.41258" lon="76.55419">
        <ele>767.4</ele>
      </trkpt>
      <trkpt lat="12.4127" lon="76.55433">
        <ele>767.0</ele>
      </trkpt>
      <trkpt lat="12.4128" lon="76.55445">
        <ele>766.7</ele>
      </trkpt>
      <trkpt lat="12.41292" lon="76.55459">
        <ele>766.2</ele>
      </trkpt>
      <trkpt lat="12.41295" lon="76.55462">
        <ele>766.1</ele>
      </trkpt>
      <trkpt lat="12.41317" lon="76.5548">
        <ele>765.9</ele>
      </trkpt>
      <trkpt lat="12.41344" lon="76.55498">
        <ele>765.3</ele>
      </trkpt>
      <trkpt lat="12.41365" lon="76.55506">
        <ele>765.0</ele>
      </trkpt>
      <trkpt lat="12.41365" lon="76.55506">
        <ele>765.0</ele>
      </trkpt>
      <trkpt lat="12.41344" lon="76.55498">
        <ele>765.3</ele>
      </trkpt>
      <trkpt lat="12.41317" lon="76.5548">
        <ele>765.9</ele>
      </trkpt>
      <trkpt lat="12.41295" lon="76.55462">
        <ele>766.1</ele>
      </trkpt>
      <trkpt lat="12.41292" lon="76.55459">
        <ele>766.2</ele>
      </trkpt>
      <trkpt lat="12.4128" lon="76.55445">
        <ele>766.7</ele>
      </trkpt>
      <trkpt lat="12.4127" lon="76.55433">
        <ele>767.0</ele>
      </trkpt>
      <trkpt lat="12.41258" lon="76.55419">
        <ele>767.4</ele>
      </trkpt>
      <trkpt lat="12.41248" lon="76.55402">
        <ele>768.0</ele>
      </trkpt>
      <trkpt lat="12.41233" lon="76.55388">
        <ele>768.5</ele>
      </trkpt>
      <trkpt lat="12.41208" lon="76.55375">
        <ele>768.5</ele>
      </trkpt>
      <trkpt lat="12.41201" lon="76.55374">
        <ele>768.3</ele>
      </trkpt>
      <trkpt lat="12.41181" lon="76.55368">
        <ele>767.9</ele>
      </trkpt>
      <trkpt lat="12.4117" lon="76.55368">
        <ele>767.5</ele>
      </trkpt>
      <trkpt lat="12.4116" lon="76.55368">
        <ele>767.7</ele>
      </trkpt>
      <trkpt lat="12.41149" lon="76.55371">
        <ele>768.2</ele>
      </trkpt>
      <trkpt lat="12.41148" lon="76.55372">
        <ele>768.2</ele>
      </trkpt>
      <trkpt lat="12.41141" lon="76.55376">
        <ele>768.3</ele>
      </trkpt>
      <trkpt lat="12.41094" lon="76.55425">
        <ele>768.0</ele>
      </trkpt>
      <trkpt lat="12.41074" lon="76.5545">
        <ele>767.2</ele>
      </trkpt>
      <trkpt lat="12.41057" lon="76.55462">
        <ele>766.7</ele>
      </trkpt>
      <trkpt lat="12.4104" lon="76.55465">
        <ele>766.8</ele>
      </trkpt>
      <trkpt lat="12.41003" lon="76.55463">
        <ele>767.6</ele>
      </trkpt>
      <trkpt lat="12.40971" lon="76.55461">
        <ele>767.3</ele>
      </trkpt>
      <trkpt lat="12.40942" lon="76.55459">
        <ele>766.9</ele>
      </trkpt>
      <trkpt lat="12.40929" lon="76.55458">
        <ele>766.8</ele>
      </trkpt>
      <trkpt lat="12.40911" lon="76.55458">
        <ele>766.7</ele>
      </trkpt>
      <trkpt lat="12.40891" lon="76.55458">
        <ele>767.1</ele>
      </trkpt>
      <trkpt lat="12.40872" lon="76.55453">
        <ele>768.1</ele>
      </trkpt>
      <trkpt lat="12.40833" lon="76.55441">
        <ele>770.0</ele>
      </trkpt>
      <trkpt lat="12.40824" lon="76.55438">
        <ele>770.3</ele>
      </trkpt>
      <trkpt lat="12.40809" lon="76.55432">
        <ele>771.1</ele>
      </trkpt>
      <trkpt lat="12.40795" lon="76.5543">
        <ele>771.4</ele>
      </trkpt>
      <trkpt lat="12.40783" lon="76.55428">
        <ele>771.7</ele>
      </trkpt>
      <trkpt lat="12.40761" lon="76.55424">
        <ele>772.3</ele>
      </trkpt>
      <trkpt lat="12.40754" lon="76.55424">
        <ele>772.4</ele>
      </trkpt>
      <trkpt lat="12.40736" lon="76.55425">
        <ele>772.6</ele>
      </trkpt>
      <trkpt lat="12.40683" lon="76.55425">
        <ele>773.1</ele>
      </trkpt>
      <trkpt lat="12.40645" lon="76.55426">
        <ele>773.4</ele>
      </trkpt>
      <trkpt lat="12.40632" lon="76.55425">
        <ele>773.5</ele>
      </trkpt>
      <trkpt lat="12.40612" lon="76.55427">
        <ele>773.5</ele>
      </trkpt>
      <trkpt lat="12.40586" lon="76.55426">
        <ele>773.8</ele>
      </trkpt>
      <trkpt lat="12.40574" lon="76.55426">
        <ele>773.6</ele>
      </trkpt>
      <trkpt lat="12.40573" lon="76.55426">
        <ele>773.6</ele>
      </trkpt>
      <trkpt lat="12.40564" lon="76.55424">
        <ele>773.4</ele>
      </trkpt>
      <trkpt lat="12.40556" lon="76.5542">
        <ele>773.3</ele>
      </trkpt>
      <trkpt lat="12.40554" lon="76.55418">
        <ele>773.3</ele>
      </trkpt>
      <trkpt lat="12.40536" lon="76.55404">
        <ele>773.3</ele>
      </trkpt>
      <trkpt lat="12.40521" lon="76.55388">
        <ele>773.3</ele>
      </trkpt>
      <trkpt lat="12.40517" lon="76.55382">
        <ele>773.2</ele>
      </trkpt>
      <trkpt lat="12.40513" lon="76.55378">
        <ele>773.1</ele>
      </trkpt>
      <trkpt lat="12.40505" lon="76.55364">
        <ele>772.9</ele>
      </trkpt>
      <trkpt lat="12.40499" lon="76.55344">
        <ele>772.8</ele>
      </trkpt>
      <trkpt lat="12.40495" lon="76.55332">
        <ele>773.0</ele>
      </trkpt>
      <trkpt lat="12.40491" lon="76.55318">
        <ele>773.7</ele>
      </trkpt>
      <trkpt lat="12.40488" lon="76.55313">
        <ele>774.0</ele>
      </trkpt>
      <trkpt lat="12.40483" lon="76.55307">
        <ele>774.3</ele>
      </trkpt>
      <trkpt lat="12.40473" lon="76.553">
        <ele>774.6</ele>
      </trkpt>
      <trkpt lat="12.40466" lon="76.55298">
        <ele>774.6</ele>
      </trkpt>
      <trkpt lat="12.40452" lon="76.55293">
        <ele>774.8</ele>
      </trkpt>
      <trkpt lat="12.40434" lon="76.55291">
        <ele>774.8</ele>
      </trkpt>
      <trkpt lat="12.40417" lon="76.55293">
        <ele>774.4</ele>
      </trkpt>
      <trkpt lat="12.40414" lon="76.55294">
        <ele>774.4</ele>
      </trkpt>
      <trkpt lat="12.40403" lon="76.55299">
        <ele>774.2</ele>
      </trkpt>
      <trkpt lat="12.40397" lon="76.55302">
        <ele>774.0</ele>
      </trkpt>
      <trkpt lat="12.40391" lon="76.55306">
        <ele>773.7</ele>
      </trkpt>
      <trkpt lat="12.40383" lon="76.55314">
        <ele>773.0</ele>
      </trkpt>
      <trkpt lat="12.40381" lon="76.55316">
        <ele>772.8</ele>
      </trkpt>
      <trkpt lat="12.40337" lon="76.5537">
        <ele>768.0</ele>
      </trkpt>
      <trkpt lat="12.40326" lon="76.55383">
        <ele>766.8</ele>
      </trkpt>
      <trkpt lat="12.40326" lon="76.55383">
        <ele>766.8</ele>
      </trkpt>
      <trkpt lat="12.402531" lon="76.554542">
        <ele>762.6</ele>
      </trkpt>
      <trkpt lat="12.401801" lon="76.555253">
        <ele>761.8</ele>
      </trkpt>
      <trkpt lat="12.401072" lon="76.555965">
        <ele>763.4</ele>
      </trkpt>
      <trkpt lat="12.400965" lon="76.556449">
        <ele>763.6</ele>
      </trkpt>
      <trkpt lat="12.401071" lon="76.555884">
        <ele>763.4</ele>
      </trkpt>
      <trkpt lat="12.401534" lon="76.555383">
        <ele>762.2</ele>
      </trkpt>
      <trkpt lat="12.40213" lon="76.55489">
        <ele>761.7</ele>
      </trkpt>
      <trkpt lat="12.40213" lon="76.55489">
        <ele>761.7</ele>
      </trkpt>
      <trkpt lat="12.40224" lon="76.55482">
        <ele>761.8</ele>
      </trkpt>
      <trkpt lat="12.40234" lon="76.55476">
        <ele>761.9</ele>
      </trkpt>
      <trkpt lat="12.40244" lon="76.55467">
        <ele>762.2</ele>
      </trkpt>
      <trkpt lat="12.40242" lon="76.55355">
        <ele>768.0</ele>
      </trkpt>
      <trkpt lat="12.40242" lon="76.5532">
        <ele>770.1</ele>
      </trkpt>
      <trkpt lat="12.40242" lon="76.55288">
        <ele>771.6</ele>
      </trkpt>
      <trkpt lat="12.40242" lon="76.55281">
        <ele>772.0</ele>
      </trkpt>
      <trkpt lat="12.40242" lon="76.55264">
        <ele>772.8</ele>
      </trkpt>
      <trkpt lat="12.40243" lon="76.55253">
        <ele>773.4</ele>
      </trkpt>
      <trkpt lat="12.40258" lon="76.551747">
        <ele>776.6</ele>
      </trkpt>
      <trkpt lat="12.4027" lon="76.55125">
        <ele>776.6</ele>
      </trkpt>
      <trkpt lat="12.40258" lon="76.551767">
        <ele>776.5</ele>
      </trkpt>
      <trkpt lat="12.40258" lon="76.551767">
        <ele>776.5</ele>
      </trkpt>
      <trkpt lat="12.402411" lon="76.552945">
        <ele>771.3</ele>
      </trkpt>
      <trkpt lat="12.402411" lon="76.552945">
        <ele>771.3</ele>
      </trkpt>
      <trkpt lat="12.40247" lon="76.554692">
        <ele>762.1</ele>
      </trkpt>
      <trkpt lat="12.40289" lon="76.55429">
        <ele>763.5</ele>
      </trkpt>
      <trkpt lat="12.40289" lon="76.55429">
        <ele>763.5</ele>
      </trkpt>
      <trkpt lat="12.40303" lon="76.55413">
        <ele>764.3</ele>
      </trkpt>
      <trkpt lat="12.40337" lon="76.5537">
        <ele>768.0</ele>
      </trkpt>
      <trkpt lat="12.40381" lon="76.55316">
        <ele>772.8</ele>
      </trkpt>
      <trkpt lat="12.40383" lon="76.55314">
        <ele>773.0</ele>
      </trkpt>
      <trkpt lat="12.40391" lon="76.55306">
        <ele>773.7</ele>
      </trkpt>
      <trkpt lat="12.40397" lon="76.55302">
        <ele>774.0</ele>
      </trkpt>
      <trkpt lat="12.40403" lon="76.55299">
        <ele>774.2</ele>
      </trkpt>
      <trkpt lat="12.40414" lon="76.55294">
        <ele>774.4</ele>
      </trkpt>
      <trkpt lat="12.40417" lon="76.55293">
        <ele>774.4</ele>
      </trkpt>
      <trkpt lat="12.40434" lon="76.55291">
        <ele>774.8</ele>
      </trkpt>
      <trkpt lat="12.40452" lon="76.55293">
        <ele>774.8</ele>
      </trkpt>
      <trkpt lat="12.40466" lon="76.55298">
        <ele>774.6</ele>
      </trkpt>
      <trkpt lat="12.40473" lon="76.553">
        <ele>774.6</ele>
      </trkpt>
      <trkpt lat="12.40483" lon="76.55307">
        <ele>774.3</ele>
      </trkpt>
      <trkpt lat="12.40488" lon="76.55313">
        <ele>774.0</ele>
      </trkpt>
      <trkpt lat="12.40491" lon="76.55318">
        <ele>773.7</ele>
      </trkpt>
      <trkpt lat="12.40495" lon="76.55332">
        <ele>773.0</ele>
      </trkpt>
      <trkpt lat="12.40499" lon="76.55344">
        <ele>772.8</ele>
      </trkpt>
      <trkpt lat="12.40505" lon="76.55364">
        <ele>772.9</ele>
      </trkpt>
      <trkpt lat="12.40513" lon="76.55378">
        <ele>773.1</ele>
      </trkpt>
      <trkpt lat="12.40517" lon="76.55382">
        <ele>773.2</ele>
      </trkpt>
      <trkpt lat="12.40521" lon="76.55388">
        <ele>773.3</ele>
      </trkpt>
      <trkpt lat="12.40536" lon="76.55404">
        <ele>773.3</ele>
      </trkpt>
      <trkpt lat="12.40554" lon="76.55418">
        <ele>773.3</ele>
      </trkpt>
      <trkpt lat="12.40556" lon="76.5542">
        <ele>773.3</ele>
      </trkpt>
      <trkpt lat="12.40564" lon="76.55424">
        <ele>773.4</ele>
      </trkpt>
      <trkpt lat="12.40573" lon="76.55426">
        <ele>773.6</ele>
      </trkpt>
      <trkpt lat="12.40574" lon="76.55426">
        <ele>773.6</ele>
      </trkpt>
      <trkpt lat="12.40586" lon="76.55426">
        <ele>773.8</ele>
      </trkpt>
      <trkpt lat="12.40612" lon="76.55427">
        <ele>773.5</ele>
      </trkpt>
      <trkpt lat="12.40632" lon="76.55425">
        <ele>773.5</ele>
      </trkpt>
      <trkpt lat="12.40645" lon="76.55426">
        <ele>773.4</ele>
      </trkpt>
      <trkpt lat="12.40683" lon="76.55425">
        <ele>773.1</ele>
      </trkpt>
      <trkpt lat="12.40736" lon="76.55425">
        <ele>772.6</ele>
      </trkpt>
      <trkpt lat="12.40754" lon="76.55424">
        <ele>772.4</ele>
      </trkpt>
      <trkpt lat="12.40761" lon="76.55424">
        <ele>772.3</ele>
      </trkpt>
      <trkpt lat="12.40783" lon="76.55428">
        <ele>771.7</ele>
      </trkpt>
      <trkpt lat="12.40795" lon="76.5543">
        <ele>771.4</ele>
      </trkpt>
      <trkpt lat="12.40801" lon="76.55431">
        <ele>771.3</ele>
      </trkpt>
      <trkpt lat="12.40801" lon="76.55431">
        <ele>771.3</ele>
      </trkpt>
      <trkpt lat="12.40809" lon="76.55432">
        <ele>771.1</ele>
      </trkpt>
      <trkpt lat="12.40824" lon="76.55438">
        <ele>770.3</ele>
      </trkpt>
      <trkpt lat="12.40833" lon="76.55441">
        <ele>770.0</ele>
      </trkpt>
      <trkpt lat="12.40872" lon="76.55453">
        <ele>768.1</ele>
      </trkpt>
      <trkpt lat="12.40891" lon="76.55458">
        <ele>767.1</ele>
      </trkpt>
      <trkpt lat="12.40911" lon="76.55458">
        <ele>766.7</ele>
      </trkpt>
      <trkpt lat="12.40929" lon="76.55458">
        <ele>766.8</ele>
      </trkpt>
      <trkpt lat="12.40942" lon="76.55459">
        <ele>766.9</ele>
      </trkpt>
      <trkpt lat="12.40971" lon="76.55461">
        <ele>767.3</ele>
      </trkpt>
      <trkpt lat="12.41003" lon="76.55463">
        <ele>767.6</ele>
      </trkpt>
      <trkpt lat="12.4104" lon="76.55465">
        <ele>766.8</ele>
      </trkpt>
      <trkpt lat="12.41057" lon="76.55462">
        <ele>766.7</ele>
      </trkpt>
      <trkpt lat="12.41074" lon="76.5545">
        <ele>767.2</ele>
      </trkpt>
      <trkpt lat="12.41094" lon="76.55425">
        <ele>768.0</ele>
      </trkpt>
      <trkpt lat="12.411" lon="76.55419">
        <ele>768.1</ele>
      </trkpt>
      <trkpt lat="12.411" lon="76.55419">
        <ele>768.1</ele>
      </trkpt>
      <trkpt lat="12.41141" lon="76.55376">
        <ele>768.3</ele>
      </trkpt>
      <trkpt lat="12.41148" lon="76.55372">
        <ele>768.2</ele>
      </trkpt>
      <trkpt lat="12.41149" lon="76.55371">
        <ele>768.2</ele>
      </trkpt>
      <trkpt lat="12.4116" lon="76.55368">
        <ele>767.7</ele>
      </trkpt>
      <trkpt lat="12.4117" lon="76.55368">
        <ele>767.5</ele>
      </trkpt>
      <trkpt lat="12.41181" lon="76.55368">
        <ele>767.9</ele>
      </trkpt>
      <trkpt lat="12.41201" lon="76.55374">
        <ele>768.3</ele>
      </trkpt>
      <trkpt lat="12.41208" lon="76.55375">
        <ele>768.5</ele>
      </trkpt>
      <trkpt lat="12.41233" lon="76.55388">
        <ele>768.5</ele>
      </trkpt>
      <trkpt lat="12.41248" lon="76.55402">
        <ele>768.0</ele>
      </trkpt>
      <trkpt lat="12.41258" lon="76.55419">
        <ele>767.4</ele>
      </trkpt>
      <trkpt lat="12.4127" lon="76.55433">
        <ele>767.0</ele>
      </trkpt>
      <trkpt lat="12.4128" lon="76.55445">
        <ele>766.7</ele>
      </trkpt>
      <trkpt lat="12.41292" lon="76.55459">
        <ele>766.2</ele>
      </trkpt>
      <trkpt lat="12.41295" lon="76.55462">
        <ele>766.1</ele>
      </trkpt>
      <trkpt lat="12.41317" lon="76.5548">
        <ele>765.9</ele>
      </trkpt>
      <trkpt lat="12.41344" lon="76.55498">
        <ele>765.3</ele>
      </trkpt>
      <trkpt lat="12.41356" lon="76.55502">
        <ele>765.1</ele>
      </trkpt>
      <trkpt lat="12.41356" lon="76.55502">
        <ele>765.1</ele>
      </trkpt>
      <trkpt lat="12.41344" lon="76.55498">
        <ele>765.3</ele>
      </trkpt>
      <trkpt lat="12.41317" lon="76.5548">
        <ele>765.9</ele>
      </trkpt>
      <trkpt lat="12.41295" lon="76.55462">
        <ele>766.1</ele>
      </trkpt>
      <trkpt lat="12.41292" lon="76.55459">
        <ele>766.2</ele>
      </trkpt>
      <trkpt lat="12.4128" lon="76.55445">
        <ele>766.7</ele>
      </trkpt>
      <trkpt lat="12.4127" lon="76.55433">
        <ele>767.0</ele>
      </trkpt>
      <trkpt lat="12.41258" lon="76.55419">
        <ele>767.4</ele>
      </trkpt>
      <trkpt lat="12.41248" lon="76.55402">
        <ele>768.0</ele>
      </trkpt>
      <trkpt lat="12.41233" lon="76.55388">
        <ele>768.5</ele>
      </trkpt>
      <trkpt lat="12.41208" lon="76.55375">
        <ele>768.5</ele>
      </trkpt>
      <trkpt lat="12.41201" lon="76.55374">
        <ele>768.3</ele>
      </trkpt>
      <trkpt lat="12.41181" lon="76.55368">
        <ele>767.9</ele>
      </trkpt>
      <trkpt lat="12.4117" lon="76.55368">
        <ele>767.5</ele>
      </trkpt>
      <trkpt lat="12.4116" lon="76.55368">
        <ele>767.7</ele>
      </trkpt>
      <trkpt lat="12.41149" lon="76.55371">
        <ele>768.2</ele>
      </trkpt>
      <trkpt lat="12.41148" lon="76.55372">
        <ele>768.2</ele>
      </trkpt>
      <trkpt lat="12.41141" lon="76.55376">
        <ele>768.3</ele>
      </trkpt>
      <trkpt lat="12.41094" lon="76.55425">
        <ele>768.0</ele>
      </trkpt>
      <trkpt lat="12.41074" lon="76.5545">
        <ele>767.2</ele>
      </trkpt>
      <trkpt lat="12.41057" lon="76.55462">
        <ele>766.7</ele>
      </trkpt>
      <trkpt lat="12.4104" lon="76.55465">
        <ele>766.8</ele>
      </trkpt>
      <trkpt lat="12.41003" lon="76.55463">
        <ele>767.6</ele>
      </trkpt>
      <trkpt lat="12.40971" lon="76.55461">
        <ele>767.3</ele>
      </trkpt>
      <trkpt lat="12.40942" lon="76.55459">
        <ele>766.9</ele>
      </trkpt>
      <trkpt lat="12.40929" lon="76.55458">
        <ele>766.8</ele>
      </trkpt>
      <trkpt lat="12.40911" lon="76.55458">
        <ele>766.7</ele>
      </trkpt>
      <trkpt lat="12.40891" lon="76.55458">
        <ele>767.1</ele>
      </trkpt>
      <trkpt lat="12.40872" lon="76.55453">
        <ele>768.1</ele>
      </trkpt>
      <trkpt lat="12.40833" lon="76.55441">
        <ele>770.0</ele>
      </trkpt>
      <trkpt lat="12.40824" lon="76.55438">
        <ele>770.3</ele>
      </trkpt>
      <trkpt lat="12.40809" lon="76.55432">
        <ele>771.1</ele>
      </trkpt>
      <trkpt lat="12.40795" lon="76.5543">
        <ele>771.4</ele>
      </trkpt>
      <trkpt lat="12.40783" lon="76.55428">
        <ele>771.7</ele>
      </trkpt>
      <trkpt lat="12.40761" lon="76.55424">
        <ele>772.3</ele>
      </trkpt>
      <trkpt lat="12.40754" lon="76.55424">
        <ele>772.4</ele>
      </trkpt>
      <trkpt lat="12.40736" lon="76.55425">
        <ele>772.6</ele>
      </trkpt>
      <trkpt lat="12.40683" lon="76.55425">
        <ele>773.1</ele>
      </trkpt>
      <trkpt lat="12.40645" lon="76.55426">
        <ele>773.4</ele>
      </trkpt>
      <trkpt lat="12.40632" lon="76.55425">
        <ele>773.5</ele>
      </trkpt>
      <trkpt lat="12.40612" lon="76.55427">
        <ele>773.5</ele>
      </trkpt>
      <trkpt lat="12.40586" lon="76.55426">
        <ele>773.8</ele>
      </trkpt>
      <trkpt lat="12.40574" lon="76.55426">
        <ele>773.6</ele>
      </trkpt>
      <trkpt lat="12.40573" lon="76.55426">
        <ele>773.6</ele>
      </trkpt>
      <trkpt lat="12.40564" lon="76.55424">
        <ele>773.4</ele>
      </trkpt>
      <trkpt lat="12.40556" lon="76.5542">
        <ele>773.3</ele>
      </trkpt>
      <trkpt lat="12.40554" lon="76.55418">
        <ele>773.3</ele>
      </trkpt>
      <trkpt lat="12.40536" lon="76.55404">
        <ele>773.3</ele>
      </trkpt>
      <trkpt lat="12.40521" lon="76.55388">
        <ele>773.3</ele>
      </trkpt>
      <trkpt lat="12.40517" lon="76.55382">
        <ele>773.2</ele>
      </trkpt>
      <trkpt lat="12.40513" lon="76.55378">
        <ele>773.1</ele>
      </trkpt>
      <trkpt lat="12.40505" lon="76.55364">
        <ele>772.9</ele>
      </trkpt>
      <trkpt lat="12.40499" lon="76.55344">
        <ele>772.8</ele>
      </trkpt>
      <trkpt lat="12.40495" lon="76.55332">
        <ele>773.0</ele>
      </trkpt>
      <trkpt lat="12.40491" lon="76.55318">
        <ele>773.7</ele>
      </trkpt>
      <trkpt lat="12.40488" lon="76.55313">
        <ele>774.0</ele>
      </trkpt>
      <trkpt lat="12.40483" lon="76.55307">
        <ele>774.3</ele>
      </trkpt>
      <trkpt lat="12.40473" lon="76.553">
        <ele>774.6</ele>
      </trkpt>
      <trkpt lat="12.40466" lon="76.55298">
        <ele>774.6</ele>
      </trkpt>
      <trkpt lat="12.40452" lon="76.55293">
        <ele>774.8</ele>
      </trkpt>
      <trkpt lat="12.40434" lon="76.55291">
        <ele>774.8</ele>
      </trkpt>
      <trkpt lat="12.40417" lon="76.55293">
        <ele>774.4</ele>
      </trkpt>
      <trkpt lat="12.40414" lon="76.55294">
        <ele>774.4</ele>
      </trkpt>
      <trkpt lat="12.40403" lon="76.55299">
        <ele>774.2</ele>
      </trkpt>
      <trkpt lat="12.40397" lon="76.55302">
        <ele>774.0</ele>
      </trkpt>
      <trkpt lat="12.40391" lon="76.55306">
        <ele>773.7</ele>
      </trkpt>
      <trkpt lat="12.40383" lon="76.55314">
        <ele>773.0</ele>
      </trkpt>
      <trkpt lat="12.40381" lon="76.55316">
        <ele>772.8</ele>
      </trkpt>
      <trkpt lat="12.40364" lon="76.55337">
        <ele>770.8</ele>
      </trkpt>
      <trkpt lat="12.40364" lon="76.55337">
        <ele>770.8</ele>
      </trkpt>
      <trkpt lat="12.40337" lon="76.5537">
        <ele>768.0</ele>
      </trkpt>
      <trkpt lat="12.40303" lon="76.55413">
        <ele>764.3</ele>
      </trkpt>
      <trkpt lat="12.40276" lon="76.55443">
        <ele>763.0</ele>
      </trkpt>
      <trkpt lat="12.40258" lon="76.55459">
        <ele>762.4</ele>
      </trkpt>
      <trkpt lat="12.40253" lon="76.55463">
        <ele>762.3</ele>
      </trkpt>
      <trkpt lat="12.40244" lon="76.55467">
        <ele>762.2</ele>
      </trkpt>
      <trkpt lat="12.40244" lon="76.55467">
        <ele>762.2</ele>
      </trkpt>
      <trkpt lat="12.40236" lon="76.55474">
        <ele>761.9</ele>
      </trkpt>
      <trkpt lat="12.40236" lon="76.55474">
        <ele>761.9</ele>
      </trkpt>
      <trkpt lat="12.401086" lon="76.555848">
        <ele>763.4</ele>
      </trkpt>
      <trkpt lat="12.400973" lon="76.556356">
        <ele>763.6</ele>
      </trkpt>
      <trkpt lat="12.401059" lon="76.555956">
        <ele>763.4</ele>
      </trkpt>
      <trkpt lat="12.401059" lon="76.555956">
        <ele>763.4</ele>
      </trkpt>
      <trkpt lat="12.40175" lon="76.555298">
        <ele>761.9</ele>
      </trkpt>
      <trkpt lat="12.40244" lon="76.55464">
        <ele>762.3</ele>
      </trkpt>
      <trkpt lat="12.40244" lon="76.55464">
        <ele>762.3</ele>
      </trkpt>
      <trkpt lat="12.40242" lon="76.55355">
        <ele>768.0</ele>
      </trkpt>
      <trkpt lat="12.40242" lon="76.5532">
        <ele>770.1</ele>
      </trkpt>
      <trkpt lat="12.40242" lon="76.55288">
        <ele>771.6</ele>
      </trkpt>
      <trkpt lat="12.40242" lon="76.55281">
        <ele>772.0</ele>
      </trkpt>
      <trkpt lat="12.40242" lon="76.55264">
        <ele>772.8</ele>
      </trkpt>
      <trkpt lat="12.40247" lon="76.55215">
        <ele>774.7</ele>
      </trkpt>
      <trkpt lat="12.40248" lon="76.55214">
        <ele>774.8</ele>
      </trkpt>
      <trkpt lat="12.40253" lon="76.55174">
        <ele>776.1</ele>
      </trkpt>
      <trkpt lat="12.40254" lon="76.55171">
        <ele>776.3</ele>
      </trkpt>
      <trkpt lat="12.40257" lon="76.55161">
        <ele>776.6</ele>
      </trkpt>
      <trkpt lat="12.40259" lon="76.55155">
        <ele>776.6</ele>
      </trkpt>
      <trkpt lat="12.40267" lon="76.55132">
        <ele>776.6</ele>
      </trkpt>
      <trkpt lat="12.40273" lon="76.55117">
        <ele>776.5</ele>
      </trkpt>
      <trkpt lat="12.40273" lon="76.55117">
        <ele>776.5</ele>
      </trkpt>
      <trkpt lat="12.40267" lon="76.55132">
        <ele>776.6</ele>
      </trkpt>
      <trkpt lat="12.40259" lon="76.55155">
        <ele>776.6</ele>
      </trkpt>
      <trkpt lat="12.40257" lon="76.55161">
        <ele>776.6</ele>
      </trkpt>
      <trkpt lat="12.40254" lon="76.55171">
        <ele>776.3</ele>
      </trkpt>
      <trkpt lat="12.40253" lon="76.55174">
        <ele>776.1</ele>
      </trkpt>
      <trkpt lat="12.40248" lon="76.55214">
        <ele>774.8</ele>
      </trkpt>
      <trkpt lat="12.40247" lon="76.55215">
        <ele>774.7</ele>
      </trkpt>
      <trkpt lat="12.40242" lon="76.55264">
        <ele>772.8</ele>
      </trkpt>
      <trkpt lat="12.40242" lon="76.55281">
        <ele>772.0</ele>
      </trkpt>
      <trkpt lat="12.40242" lon="76.55288">
        <ele>771.6</ele>
      </trkpt>
      <trkpt lat="12.40242" lon="76.5532">
        <ele>770.1</ele>
      </trkpt>
      <trkpt lat="12.40242" lon="76.55355">
        <ele>768.0</ele>
      </trkpt>
      <trkpt lat="12.40244" lon="76.55467">
        <ele>762.2</ele>
      </trkpt>
      <trkpt lat="12.40244" lon="76.55467">
        <ele>762.2</ele>
      </trkpt>
      <trkpt lat="12.40253" lon="76.55463">
        <ele>762.3</ele>
      </trkpt>
      <trkpt lat="12.40258" lon="76.55459">
        <ele>762.4</ele>
      </trkpt>
      <trkpt lat="12.4027" lon="76.55448">
        <ele>762.8</ele>
      </trkpt>
      <trkpt lat="12.4027" lon="76.55448">
        <ele>762.8</ele>
      </trkpt>
      <trkpt lat="12.40276" lon="76.55443">
        <ele>763.0</ele>
      </trkpt>
      <trkpt lat="12.40303" lon="76.55413">
        <ele>764.3</ele>
      </trkpt>
      <trkpt lat="12.40337" lon="76.5537">
        <ele>768.0</ele>
      </trkpt>
      <trkpt lat="12.40381" lon="76.55316">
        <ele>772.8</ele>
      </trkpt>
      <trkpt lat="12.40383" lon="76.55314">
        <ele>773.0</ele>
      </trkpt>
      <trkpt lat="12.40391" lon="76.55306">
        <ele>773.7</ele>
      </trkpt>
      <trkpt lat="12.40397" lon="76.55302">
        <ele>774.0</ele>
      </trkpt>
      <trkpt lat="12.40403" lon="76.55299">
        <ele>774.2</ele>
      </trkpt>
      <trkpt lat="12.40414" lon="76.55294">
        <ele>774.4</ele>
      </trkpt>
      <trkpt lat="12.40417" lon="76.55293">
        <ele>774.4</ele>
      </trkpt>
      <trkpt lat="12.40434" lon="76.55291">
        <ele>774.8</ele>
      </trkpt>
      <trkpt lat="12.40452" lon="76.55293">
        <ele>774.8</ele>
      </trkpt>
      <trkpt lat="12.40466" lon="76.55298">
        <ele>774.6</ele>
      </trkpt>
      <trkpt lat="12.40473" lon="76.553">
        <ele>774.6</ele>
      </trkpt>
      <trkpt lat="12.40483" lon="76.55307">
        <ele>774.3</ele>
      </trkpt>
      <trkpt lat="12.40488" lon="76.55313">
        <ele>774.0</ele>
      </trkpt>
      <trkpt lat="12.40491" lon="76.55318">
        <ele>773.7</ele>
      </trkpt>
      <trkpt lat="12.40495" lon="76.55332">
        <ele>773.0</ele>
      </trkpt>
      <trkpt lat="12.40499" lon="76.55344">
        <ele>772.8</ele>
      </trkpt>
      <trkpt lat="12.40505" lon="76.55364">
        <ele>772.9</ele>
      </trkpt>
      <trkpt lat="12.40513" lon="76.55378">
        <ele>773.1</ele>
      </trkpt>
      <trkpt lat="12.40517" lon="76.55382">
        <ele>773.2</ele>
      </trkpt>
      <trkpt lat="12.40521" lon="76.55388">
        <ele>773.3</ele>
      </trkpt>
      <trkpt lat="12.40536" lon="76.55404">
        <ele>773.3</ele>
      </trkpt>
      <trkpt lat="12.40554" lon="76.55418">
        <ele>773.3</ele>
      </trkpt>
      <trkpt lat="12.40556" lon="76.5542">
        <ele>773.3</ele>
      </trkpt>
      <trkpt lat="12.40564" lon="76.55424">
        <ele>773.4</ele>
      </trkpt>
      <trkpt lat="12.40573" lon="76.55426">
        <ele>773.6</ele>
      </trkpt>
      <trkpt lat="12.40574" lon="76.55426">
        <ele>773.6</ele>
      </trkpt>
      <trkpt lat="12.40586" lon="76.55426">
        <ele>773.8</ele>
      </trkpt>
      <trkpt lat="12.40612" lon="76.55427">
        <ele>773.5</ele>
      </trkpt>
      <trkpt lat="12.40632" lon="76.55425">
        <ele>773.5</ele>
      </trkpt>
      <trkpt lat="12.40645" lon="76.55426">
        <ele>773.4</ele>
      </trkpt>
      <trkpt lat="12.40683" lon="76.55425">
        <ele>773.1</ele>
      </trkpt>
      <trkpt lat="12.40736" lon="76.55425">
        <ele>772.6</ele>
      </trkpt>
      <trkpt lat="12.40754" lon="76.55424">
        <ele>772.4</ele>
      </trkpt>
      <trkpt lat="12.40761" lon="76.55424">
        <ele>772.3</ele>
      </trkpt>
      <trkpt lat="12.40783" lon="76.55428">
        <ele>771.7</ele>
      </trkpt>
      <trkpt lat="12.40795" lon="76.5543">
        <ele>771.4</ele>
      </trkpt>
      <trkpt lat="12.40809" lon="76.55432">
        <ele>771.1</ele>
      </trkpt>
      <trkpt lat="12.40818" lon="76.55435">
        <ele>770.7</ele>
      </trkpt>
      <trkpt lat="12.40818" lon="76.55435">
        <ele>770.7</ele>
      </trkpt>
      <trkpt lat="12.40824" lon="76.55438">
        <ele>770.3</ele>
      </trkpt>
      <trkpt lat="12.40833" lon="76.55441">
        <ele>770.0</ele>
      </trkpt>
      <trkpt lat="12.40872" lon="76.55453">
        <ele>768.1</ele>
      </trkpt>
      <trkpt lat="12.40891" lon="76.55458">
        <ele>767.1</ele>
      </trkpt>
      <trkpt lat="12.40911" lon="76.55458">
        <ele>766.7</ele>
      </trkpt>
      <trkpt lat="12.40929" lon="76.55458">
        <ele>766.8</ele>
      </trkpt>
      <trkpt lat="12.40942" lon="76.55459">
        <ele>766.9</ele>
      </trkpt>
      <trkpt lat="12.40971" lon="76.55461">
        <ele>767.3</ele>
      </trkpt>
      <trkpt lat="12.41003" lon="76.55463">
        <ele>767.6</ele>
      </trkpt>
      <trkpt lat="12.4104" lon="76.55465">
        <ele>766.8</ele>
      </trkpt>
      <trkpt lat="12.41057" lon="76.55462">
        <ele>766.7</ele>
      </trkpt>
      <trkpt lat="12.41074" lon="76.5545">
        <ele>767.2</ele>
      </trkpt>
      <trkpt lat="12.41094" lon="76.55425">
        <ele>768.0</ele>
      </trkpt>
      <trkpt lat="12.41133" lon="76.55384">
        <ele>768.3</ele>
      </trkpt>
      <trkpt lat="12.41133" lon="76.55384">
        <ele>768.3</ele>
      </trkpt>
      <trkpt lat="12.41141" lon="76.55376">
        <ele>768.3</ele>
      </trkpt>
      <trkpt lat="12.41148" lon="76.55372">
        <ele>768.2</ele>
      </trkpt>
      <trkpt lat="12.41149" lon="76.55371">
        <ele>768.2</ele>
      </trkpt>
      <trkpt lat="12.4116" lon="76.55368">
        <ele>767.7</ele>
      </trkpt>
      <trkpt lat="12.4117" lon="76.55368">
        <ele>767.5</ele>
      </trkpt>
      <trkpt lat="12.41181" lon="76.55368">
        <ele>767.9</ele>
      </trkpt>
      <trkpt lat="12.41201" lon="76.55374">
        <ele>768.3</ele>
      </trkpt>
      <trkpt lat="12.41208" lon="76.55375">
        <ele>768.5</ele>
      </trkpt>
      <trkpt lat="12.41233" lon="76.55388">
        <ele>768.5</ele>
      </trkpt>
      <trkpt lat="12.41248" lon="76.55402">
        <ele>768.0</ele>
      </trkpt>
      <trkpt lat="12.41258" lon="76.55419">
        <ele>767.4</ele>
      </trkpt>
      <trkpt lat="12.4127" lon="76.55433">
        <ele>767.0</ele>
      </trkpt>
      <trkpt lat="12.4128" lon="76.55445">
        <ele>766.7</ele>
      </trkpt>
      <trkpt lat="12.41292" lon="76.55459">
        <ele>766.2</ele>
      </trkpt>
      <trkpt lat="12.41295" lon="76.55462">
        <ele>766.1</ele>
      </trkpt>
      <trkpt lat="12.41317" lon="76.5548">
        <ele>765.9</ele>
      </trkpt>
      <trkpt lat="12.41344" lon="76.55498">
        <ele>765.3</ele>
      </trkpt>
      <trkpt lat="12.41365" lon="76.55506">
        <ele>765.0</ele>
      </trkpt>
      <trkpt lat="12.41368" lon="76.55508">
        <ele>764.9</ele>
      </trkpt>
      <trkpt lat="12.41374" lon="76.55507">
        <ele>765.1</ele>
      </trkpt>
      <trkpt lat="12.41374" lon="76.55507">
        <ele>765.1</ele>
      </trkpt>
      <trkpt lat="12.41368" lon="76.55508">
        <ele>764.9</ele>
      </trkpt>
      <trkpt lat="12.41365" lon="76.55506">
        <ele>765.0</ele>
      </trkpt>
      <trkpt lat="12.41344" lon="76.55498">
        <ele>765.3</ele>
      </trkpt>
      <trkpt lat="12.41317" lon="76.5548">
        <ele>765.9</ele>
      </trkpt>
      <trkpt lat="12.41295" lon="76.55462">
        <ele>766.1</ele>
      </trkpt>
      <trkpt lat="12.41292" lon="76.55459">
        <ele>766.2</ele>
      </trkpt>
      <trkpt lat="12.4128" lon="76.55445">
        <ele>766.7</ele>
      </trkpt>
      <trkpt lat="12.4127" lon="76.55433">
        <ele>767.0</ele>
      </trkpt>
      <trkpt lat="12.41258" lon="76.55419">
        <ele>767.4</ele>
      </trkpt>
      <trkpt lat="12.41248" lon="76.55402">
        <ele>768.0</ele>
      </trkpt>
      <trkpt lat="12.41233" lon="76.55388">
        <ele>768.5</ele>
      </trkpt>
      <trkpt lat="12.41208" lon="76.55375">
        <ele>768.5</ele>
      </trkpt>
      <trkpt lat="12.41201" lon="76.55374">
        <ele>768.3</ele>
      </trkpt>
      <trkpt lat="12.41181" lon="76.55368">
        <ele>767.9</ele>
      </trkpt>
      <trkpt lat="12.4117" lon="76.55368">
        <ele>767.5</ele>
      </trkpt>
      <trkpt lat="12.4116" lon="76.55368">
        <ele>767.7</ele>
      </trkpt>
      <trkpt lat="12.41149" lon="76.55371">
        <ele>768.2</ele>
      </trkpt>
      <trkpt lat="12.41148" lon="76.55372">
        <ele>768.2</ele>
      </trkpt>
      <trkpt lat="12.41141" lon="76.55376">
        <ele>768.3</ele>
      </trkpt>
      <trkpt lat="12.41094" lon="76.55425">
        <ele>768.0</ele>
      </trkpt>
      <trkpt lat="12.41074" lon="76.5545">
        <ele>767.2</ele>
      </trkpt>
      <trkpt lat="12.41057" lon="76.55462">
        <ele>766.7</ele>
      </trkpt>
      <trkpt lat="12.4104" lon="76.55465">
        <ele>766.8</ele>
      </trkpt>
      <trkpt lat="12.41019" lon="76.55464">
        <ele>767.3</ele>
      </trkpt>
      <trkpt lat="12.41019" lon="76.55464">
        <ele>767.3</ele>
      </trkpt>
      <trkpt lat="12.41003" lon="76.55463">
        <ele>767.6</ele>
      </trkpt>
      <trkpt lat="12.40971" lon="76.55461">
        <ele>767.3</ele>
      </trkpt>
      <trkpt lat="12.40942" lon="76.55459">
        <ele>766.9</ele>
      </trkpt>
      <trkpt lat="12.40929" lon="76.55458">
        <ele>766.8</ele>
      </trkpt>
      <trkpt lat="12.40911" lon="76.55458">
        <ele>766.7</ele>
      </trkpt>
      <trkpt lat="12.40891" lon="76.55458">
        <ele>767.1</ele>
      </trkpt>
      <trkpt lat="12.40872" lon="76.55453">
        <ele>768.1</ele>
      </trkpt>
      <trkpt lat="12.40833" lon="76.55441">
        <ele>770.0</ele>
      </trkpt>
      <trkpt lat="12.40824" lon="76.55438">
        <ele>770.3</ele>
      </trkpt>
      <trkpt lat="12.40809" lon="76.55432">
        <ele>771.1</ele>
      </trkpt>
      <trkpt lat="12.40795" lon="76.5543">
        <ele>771.4</ele>
      </trkpt>
      <trkpt lat="12.40783" lon="76.55428">
        <ele>771.7</ele>
      </trkpt>
      <trkpt lat="12.40761" lon="76.55424">
        <ele>772.3</ele>
      </trkpt>
      <trkpt lat="12.40754" lon="76.55424">
        <ele>772.4</ele>
      </trkpt>
      <trkpt lat="12.40736" lon="76.55425">
        <ele>772.6</ele>
      </trkpt>
      <trkpt lat="12.40683" lon="76.55425">
        <ele>773.1</ele>
      </trkpt>
      <trkpt lat="12.40645" lon="76.55426">
        <ele>773.4</ele>
      </trkpt>
      <trkpt lat="12.40632" lon="76.55425">
        <ele>773.5</ele>
      </trkpt>
      <trkpt lat="12.40612" lon="76.55427">
        <ele>773.5</ele>
      </trkpt>
      <trkpt lat="12.40586" lon="76.55426">
        <ele>773.8</ele>
      </trkpt>
      <trkpt lat="12.40574" lon="76.55426">
        <ele>773.6</ele>
      </trkpt>
      <trkpt lat="12.40573" lon="76.55426">
        <ele>773.6</ele>
      </trkpt>
      <trkpt lat="12.40564" lon="76.55424">
        <ele>773.4</ele>
      </trkpt>
      <trkpt lat="12.40556" lon="76.5542">
        <ele>773.3</ele>
      </trkpt>
      <trkpt lat="12.40554" lon="76.55418">
        <ele>773.3</ele>
      </trkpt>
      <trkpt lat="12.40536" lon="76.55404">
        <ele>773.3</ele>
      </trkpt>
      <trkpt lat="12.40521" lon="76.55388">
        <ele>773.3</ele>
      </trkpt>
      <trkpt lat="12.40517" lon="76.55382">
        <ele>773.2</ele>
      </trkpt>
      <trkpt lat="12.40513" lon="76.55378">
        <ele>773.1</ele>
      </trkpt>
      <trkpt lat="12.40505" lon="76.55364">
        <ele>772.9</ele>
      </trkpt>
      <trkpt lat="12.40499" lon="76.55344">
        <ele>772.8</ele>
      </trkpt>
      <trkpt lat="12.40495" lon="76.55332">
        <ele>773.0</ele>
      </trkpt>
      <trkpt lat="12.40491" lon="76.55318">
        <ele>773.7</ele>
      </trkpt>
      <trkpt lat="12.40488" lon="76.55313">
        <ele>774.0</ele>
      </trkpt>
      <trkpt lat="12.40483" lon="76.55307">
        <ele>774.3</ele>
      </trkpt>
      <trkpt lat="12.40473" lon="76.553">
        <ele>774.6</ele>
      </trkpt>
      <trkpt lat="12.40466" lon="76.55298">
        <ele>774.6</ele>
      </trkpt>
      <trkpt lat="12.40452" lon="76.55293">
        <ele>774.8</ele>
      </trkpt>
      <trkpt lat="12.40434" lon="76.55291">
        <ele>774.8</ele>
      </trkpt>
      <trkpt lat="12.40417" lon="76.55293">
        <ele>774.4</ele>
      </trkpt>
      <trkpt lat="12.40414" lon="76.55294">
        <ele>774.4</ele>
      </trkpt>
      <trkpt lat="12.40403" lon="76.55299">
        <ele>774.2</ele>
      </trkpt>
      <trkpt lat="12.40397" lon="76.55302">
        <ele>774.0</ele>
      </trkpt>
      <trkpt lat="12.40391" lon="76.55306">
        <ele>773.7</ele>
      </trkpt>
      <trkpt lat="12.40383" lon="76.55314">
        <ele>773.0</ele>
      </trkpt>
      <trkpt lat="12.40381" lon="76.55316">
        <ele>772.8</ele>
      </trkpt>
      <trkpt lat="12.40337" lon="76.5537">
        <ele>768.0</ele>
      </trkpt>
      <trkpt lat="12.40303" lon="76.55413">
        <ele>764.3</ele>
      </trkpt>
      <trkpt lat="12.40276" lon="76.55443">
        <ele>763.0</ele>
      </trkpt>
      <trkpt lat="12.40258" lon="76.55459">
        <ele>762.4</ele>
      </trkpt>
      <trkpt lat="12.40253" lon="76.55463">
        <ele>762.3</ele>
      </trkpt>
      <trkpt lat="12.40244" lon="76.55467">
        <ele>762.2</ele>
      </trkpt>
      <trkpt lat="12.40244" lon="76.55467">
        <ele>762.2</ele>
      </trkpt>
      <trkpt lat="12.40234" lon="76.55476">
        <ele>761.9</ele>
      </trkpt>
      <trkpt lat="12.40224" lon="76.55482">
        <ele>761.8</ele>
      </trkpt>
      <trkpt lat="12.40199" lon="76.55497">
        <ele>761.7</ele>
      </trkpt>
      <trkpt lat="12.40188" lon="76.55504">
        <ele>761.7</ele>
      </trkpt>
      <trkpt lat="12.40187" lon="76.55505">
        <ele>761.7</ele>
      </trkpt>
      <trkpt lat="12.401449" lon="76.555417">
        <ele>762.4</ele>
      </trkpt>
      <trkpt lat="12.401037" lon="76.555919">
        <ele>763.5</ele>
      </trkpt>
      <trkpt lat="12.400963" lon="76.556393">
        <ele>763.6</ele>
      </trkpt>
      <trkpt lat="12.401129" lon="76.555784">
        <ele>763.3</ele>
      </trkpt>
      <trkpt lat="12.401129" lon="76.555784">
        <ele>763.3</ele>
      </trkpt>
      <trkpt lat="12.402414" lon="76.554709">
        <ele>762.0</ele>
      </trkpt>
      <trkpt lat="12.402414" lon="76.554709">
        <ele>762.0</ele>
      </trkpt>
      <trkpt lat="12.40244" lon="76.553522">
        <ele>768.3</ele>
      </trkpt>
      <trkpt lat="12.402465" lon="76.552336">
        <ele>774.2</ele>
      </trkpt>
      <trkpt lat="12.402465" lon="76.552336">
        <ele>774.2</ele>
      </trkpt>
      <trkpt lat="12.40272" lon="76.55119">
        <ele>776.5</ele>
      </trkpt>
      <trkpt lat="12.40272" lon="76.55119">
        <ele>776.5</ele>
      </trkpt>
      <trkpt lat="12.40267" lon="76.55132">
        <ele>776.6</ele>
      </trkpt>
      <trkpt lat="12.40259" lon="76.55155">
        <ele>776.6</ele>
      </trkpt>
      <trkpt lat="12.40257" lon="76.55161">
        <ele>776.6</ele>
      </trkpt>
      <trkpt lat="12.40254" lon="76.55171">
        <ele>776.3</ele>
      </trkpt>
      <trkpt lat="12.40253" lon="76.55174">
        <ele>776.1</ele>
      </trkpt>
      <trkpt lat="12.40248" lon="76.55214">
        <ele>774.8</ele>
      </trkpt>
      <trkpt lat="12.40247" lon="76.55215">
        <ele>774.7</ele>
      </trkpt>
      <trkpt lat="12.40242" lon="76.55264">
        <ele>772.8</ele>
      </trkpt>
      <trkpt lat="12.40242" lon="76.55281">
        <ele>772.0</ele>
      </trkpt>
      <trkpt lat="12.40242" lon="76.55288">
        <ele>771.6</ele>
      </trkpt>
      <trkpt lat="12.40242" lon="76.5532">
        <ele>770.1</ele>
      </trkpt>
      <trkpt lat="12.40242" lon="76.55355">
        <ele>768.0</ele>
      </trkpt>
      <trkpt lat="12.40244" lon="76.55467">
        <ele>762.2</ele>
      </trkpt>
      <trkpt lat="12.40244" lon="76.55467">
        <ele>762.2</ele>
      </trkpt>
      <trkpt lat="12.40253" lon="76.55463">
        <ele>762.3</ele>
      </trkpt>
      <trkpt lat="12.40258" lon="76.55459">
        <ele>762.4</ele>
      </trkpt>
      <trkpt lat="12.40276" lon="76.55443">
        <ele>763.0</ele>
      </trkpt>
      <trkpt lat="12.40303" lon="76.55413">
        <ele>764.3</ele>
      </trkpt>
      <trkpt lat="12.40337" lon="76.5537">
        <ele>768.0</ele>
      </trkpt>
      <trkpt lat="12.40379" lon="76.55318">
        <ele>772.6</ele>
      </trkpt>
      <trkpt lat="12.40379" lon="76.55318">
        <ele>772.6</ele>
      </trkpt>
      <trkpt lat="12.40381" lon="76.55316">
        <ele>772.8</ele>
      </trkpt>
      <trkpt lat="12.40383" lon="76.55314">
        <ele>773.0</ele>
      </trkpt>
      <trkpt lat="12.40391" lon="76.55306">
        <ele>773.7</ele>
      </trkpt>
      <trkpt lat="12.40397" lon="76.55302">
        <ele>774.0</ele>
      </trkpt>
      <trkpt lat="12.40403" lon="76.55299">
        <ele>774.2</ele>
      </trkpt>
      <trkpt lat="12.40414" lon="76.55294">
        <ele>774.4</ele>
      </trkpt>
      <trkpt lat="12.40417" lon="76.55293">
        <ele>774.4</ele>
      </trkpt>
      <trkpt lat="12.40434" lon="76.55291">
        <ele>774.8</ele>
      </trkpt>
      <trkpt lat="12.40452" lon="76.55293">
        <ele>774.8</ele>
      </trkpt>
      <trkpt lat="12.40466" lon="76.55298">
        <ele>774.6</ele>
      </trkpt>
      <trkpt lat="12.40473" lon="76.553">
        <ele>774.6</ele>
      </trkpt>
      <trkpt lat="12.40483" lon="76.55307">
        <ele>774.3</ele>
      </trkpt>
      <trkpt lat="12.40488" lon="76.55313">
        <ele>774.0</ele>
      </trkpt>
      <trkpt lat="12.40491" lon="76.55318">
        <ele>773.7</ele>
      </trkpt>
      <trkpt lat="12.40495" lon="76.55332">
        <ele>773.0</ele>
      </trkpt>
      <trkpt lat="12.40499" lon="76.55344">
        <ele>772.8</ele>
      </trkpt>
      <trkpt lat="12.40503" lon="76.55358">
        <ele>772.9</ele>
      </trkpt>
      <trkpt lat="12.40503" lon="76.55358">
        <ele>772.9</ele>
      </trkpt>
      <trkpt lat="12.40505" lon="76.55364">
        <ele>772.9</ele>
      </trkpt>
      <trkpt lat="12.40513" lon="76.55378">
        <ele>773.1</ele>
      </trkpt>
      <trkpt lat="12.40517" lon="76.55382">
        <ele>773.2</ele>
      </trkpt>
      <trkpt lat="12.40521" lon="76.55388">
        <ele>773.3</ele>
      </trkpt>
      <trkpt lat="12.40536" lon="76.55404">
        <ele>773.3</ele>
      </trkpt>
      <trkpt lat="12.40554" lon="76.55418">
        <ele>773.3</ele>
      </trkpt>
      <trkpt lat="12.40556" lon="76.5542">
        <ele>773.3</ele>
      </trkpt>
      <trkpt lat="12.40564" lon="76.55424">
        <ele>773.4</ele>
      </trkpt>
      <trkpt lat="12.40573" lon="76.55426">
        <ele>773.6</ele>
      </trkpt>
      <trkpt lat="12.40574" lon="76.55426">
        <ele>773.6</ele>
      </trkpt>
      <trkpt lat="12.40586" lon="76.55426">
        <ele>773.8</ele>
      </trkpt>
      <trkpt lat="12.40612" lon="76.55427">
        <ele>773.5</ele>
      </trkpt>
      <trkpt lat="12.40632" lon="76.55425">
        <ele>773.5</ele>
      </trkpt>
      <trkpt lat="12.40645" lon="76.55426">
        <ele>773.4</ele>
      </trkpt>
      <trkpt lat="12.40659" lon="76.55426">
        <ele>773.3</ele>
      </trkpt>
      <trkpt lat="12.40659" lon="76.55426">
        <ele>773.3</ele>
      </trkpt>
      <trkpt lat="12.40683" lon="76.55425">
        <ele>773.1</ele>
      </trkpt>
      <trkpt lat="12.40736" lon="76.55425">
        <ele>772.6</ele>
      </trkpt>
      <trkpt lat="12.40754" lon="76.55424">
        <ele>772.4</ele>
      </trkpt>
      <trkpt lat="12.40761" lon="76.55424">
        <ele>772.3</ele>
      </trkpt>
      <trkpt lat="12.40783" lon="76.55428">
        <ele>771.7</ele>
      </trkpt>
      <trkpt lat="12.40795" lon="76.5543">
        <ele>771.4</ele>
      </trkpt>
      <trkpt lat="12.40809" lon="76.55432">
        <ele>771.1</ele>
      </trkpt>
      <trkpt lat="12.40824" lon="76.55438">
        <ele>770.3</ele>
      </trkpt>
      <trkpt lat="12.40833" lon="76.55441">
        <ele>770.0</ele>
      </trkpt>
      <trkpt lat="12.40872" lon="76.55453">
        <ele>768.1</ele>
      </trkpt>
      <trkpt lat="12.40891" lon="76.55458">
        <ele>767.1</ele>
      </trkpt>
      <trkpt lat="12.40911" lon="76.55458">
        <ele>766.7</ele>
      </trkpt>
      <trkpt lat="12.40929" lon="76.55458">
        <ele>766.8</ele>
      </trkpt>
      <trkpt lat="12.40942" lon="76.55459">
        <ele>766.9</ele>
      </trkpt>
      <trkpt lat="12.40971" lon="76.55461">
        <ele>767.3</ele>
      </trkpt>
      <trkpt lat="12.41003" lon="76.55463">
        <ele>767.6</ele>
      </trkpt>
      <trkpt lat="12.4104" lon="76.55465">
        <ele>766.8</ele>
      </trkpt>
      <trkpt lat="12.41057" lon="76.55462">
        <ele>766.7</ele>
      </trkpt>
      <trkpt lat="12.41074" lon="76.5545">
        <ele>767.2</ele>
      </trkpt>
      <trkpt lat="12.41094" lon="76.55425">
        <ele>768.0</ele>
      </trkpt>
      <trkpt lat="12.41141" lon="76.55376">
        <ele>768.3</ele>
      </trkpt>
      <trkpt lat="12.41148" lon="76.55372">
        <ele>768.2</ele>
      </trkpt>
      <trkpt lat="12.41149" lon="76.55371">
        <ele>768.2</ele>
      </trkpt>
      <trkpt lat="12.4116" lon="76.55368">
        <ele>767.7</ele>
      </trkpt>
      <trkpt lat="12.4117" lon="76.55368">
        <ele>767.5</ele>
      </trkpt>
      <trkpt lat="12.41181" lon="76.55368">
        <ele>767.9</ele>
      </trkpt>
      <trkpt lat="12.41201" lon="76.55374">
        <ele>768.3</ele>
      </trkpt>
      <trkpt lat="12.41208" lon="76.55375">
        <ele>768.5</ele>
      </trkpt>
      <trkpt lat="12.41211" lon="76.55377">
        <ele>768.5</ele>
      </trkpt>
      <trkpt lat="12.41211" lon="76.55377">
        <ele>768.5</ele>
      </trkpt>
      <trkpt lat="12.41233" lon="76.55388">
        <ele>768.5</ele>
      </trkpt>
      <trkpt lat="12.41248" lon="76.55402">
        <ele>768.0</ele>
      </trkpt>
      <trkpt lat="12.41258" lon="76.55419">
        <ele>767.4</ele>
      </trkpt>
      <trkpt lat="12.4127" lon="76.55433">
        <ele>767.0</ele>
      </trkpt>
      <trkpt lat="12.4128" lon="76.55445">
        <ele>766.7</ele>
      </trkpt>
      <trkpt lat="12.41292" lon="76.55459">
        <ele>766.2</ele>
      </trkpt>
      <trkpt lat="12.41295" lon="76.55462">
        <ele>766.1</ele>
      </trkpt>
      <trkpt lat="12.41317" lon="76.5548">
        <ele>765.9</ele>
      </trkpt>
      <trkpt lat="12.41344" lon="76.55498">
        <ele>765.3</ele>
      </trkpt>
      <trkpt lat="12.41365" lon="76.55506">
        <ele>765.0</ele>
      </trkpt>
      <trkpt lat="12.41368" lon="76.55508">
        <ele>764.9</ele>
      </trkpt>
      <trkpt lat="12.41377" lon="76.55507">
        <ele>765.1</ele>
      </trkpt>
      <trkpt lat="12.41377" lon="76.55507">
        <ele>765.1</ele>
      </trkpt>
      <trkpt lat="12.41368" lon="76.55508">
        <ele>764.9</ele>
      </trkpt>
      <trkpt lat="12.41365" lon="76.55506">
        <ele>765.0</ele>
      </trkpt>
      <trkpt lat="12.41344" lon="76.55498">
        <ele>765.3</ele>
      </trkpt>
      <trkpt lat="12.41317" lon="76.5548">
        <ele>765.9</ele>
      </trkpt>
      <trkpt lat="12.41295" lon="76.55462">
        <ele>766.1</ele>
      </trkpt>
      <trkpt lat="12.41292" lon="76.55459">
        <ele>766.2</ele>
      </trkpt>
      <trkpt lat="12.4128" lon="76.55445">
        <ele>766.7</ele>
      </trkpt>
      <trkpt lat="12.4127" lon="76.55433">
        <ele>767.0</ele>
      </trkpt>
      <trkpt lat="12.41258" lon="76.55419">
        <ele>767.4</ele>
      </trkpt>
      <trkpt lat="12.41248" lon="76.55402">
        <ele>768.0</ele>
      </trkpt>
      <trkpt lat="12.41233" lon="76.55388">
        <ele>768.5</ele>
      </trkpt>
      <trkpt lat="12.41208" lon="76.55375">
        <ele>768.5</ele>
      </trkpt>
      <trkpt lat="12.41201" lon="76.55374">
        <ele>768.3</ele>
      </trkpt>
      <trkpt lat="12.41181" lon="76.55368">
        <ele>767.9</ele>
      </trkpt>
      <trkpt lat="12.4117" lon="76.55368">
        <ele>767.5</ele>
      </trkpt>
      <trkpt lat="12.4116" lon="76.55368">
        <ele>767.7</ele>
      </trkpt>
      <trkpt lat="12.41149" lon="76.55371">
        <ele>768.2</ele>
      </trkpt>
      <trkpt lat="12.41148" lon="76.55372">
        <ele>768.2</ele>
      </trkpt>
      <trkpt lat="12.41141" lon="76.55376">
        <ele>768.3</ele>
      </trkpt>
      <trkpt lat="12.41094" lon="76.55425">
        <ele>768.0</ele>
      </trkpt>
      <trkpt lat="12.41074" lon="76.5545">
        <ele>767.2</ele>
      </trkpt>
      <trkpt lat="12.41057" lon="76.55462">
        <ele>766.7</ele>
      </trkpt>
      <trkpt lat="12.4104" lon="76.55465">
        <ele>766.8</ele>
      </trkpt>
      <trkpt lat="12.41003" lon="76.55463">
        <ele>767.6</ele>
      </trkpt>
      <trkpt lat="12.40994" lon="76.55462">
        <ele>767.6</ele>
      </trkpt>
      <trkpt lat="12.40994" lon="76.55462">
        <ele>767.6</ele>
      </trkpt>
      <trkpt lat="12.40971" lon="76.55461">
        <ele>767.3</ele>
      </trkpt>
      <trkpt lat="12.40942" lon="76.55459">
        <ele>766.9</ele>
      </trkpt>
      <trkpt lat="12.40929" lon="76.55458">
        <ele>766.8</ele>
      </trkpt>
      <trkpt lat="12.40911" lon="76.55458">
        <ele>766.7</ele>
      </trkpt>
      <trkpt lat="12.40891" lon="76.55458">
        <ele>767.1</ele>
      </trkpt>
      <trkpt lat="12.40872" lon="76.55453">
        <ele>768.1</ele>
      </trkpt>
      <trkpt lat="12.40833" lon="76.55441">
        <ele>770.0</ele>
      </trkpt>
      <trkpt lat="12.40824" lon="76.55438">
        <ele>770.3</ele>
      </trkpt>
      <trkpt lat="12.40809" lon="76.55432">
        <ele>771.1</ele>
      </trkpt>
      <trkpt lat="12.40795" lon="76.5543">
        <ele>771.4</ele>
      </trkpt>
      <trkpt lat="12.40783" lon="76.55428">
        <ele>771.7</ele>
      </trkpt>
      <trkpt lat="12.40761" lon="76.55424">
        <ele>772.3</ele>
      </trkpt>
      <trkpt lat="12.40754" lon="76.55424">
        <ele>772.4</ele>
      </trkpt>
      <trkpt lat="12.40736" lon="76.55425">
        <ele>772.6</ele>
      </trkpt>
      <trkpt lat="12.40683" lon="76.55425">
        <ele>773.1</ele>
      </trkpt>
      <trkpt lat="12.40645" lon="76.55426">
        <ele>773.4</ele>
      </trkpt>
      <trkpt lat="12.40645" lon="76.55426">
        <ele>773.4</ele>
      </trkpt>
      <trkpt lat="12.40638" lon="76.55438">
        <ele>772.6</ele>
      </trkpt>
      <trkpt lat="12.40631" lon="76.55455">
        <ele>771.8</ele>
      </trkpt>
      <trkpt lat="12.4061" lon="76.55506">
        <ele>770.4</ele>
      </trkpt>
      <trkpt lat="12.40608" lon="76.55509">
        <ele>770.5</ele>
      </trkpt>
      <trkpt lat="12.40605" lon="76.55523">
        <ele>770.6</ele>
      </trkpt>
      <trkpt lat="12.406" lon="76.55541">
        <ele>770.9</ele>
      </trkpt>
      <trkpt lat="12.40598" lon="76.55549">
        <ele>771.0</ele>
      </trkpt>
      <trkpt lat="12.40598" lon="76.55551">
        <ele>771.0</ele>
      </trkpt>
      <trkpt lat="12.40597" lon="76.55567">
        <ele>771.0</ele>
      </trkpt>
      <trkpt lat="12.40599" lon="76.55579">
        <ele>770.9</ele>
      </trkpt>
      <trkpt lat="12.406" lon="76.55592">
        <ele>770.8</ele>
      </trkpt>
      <trkpt lat="12.406" lon="76.55606">
        <ele>770.8</ele>
      </trkpt>
      <trkpt lat="12.40599" lon="76.55615">
        <ele>770.9</ele>
      </trkpt>
      <trkpt lat="12.40596" lon="76.55628">
        <ele>771.1</ele>
      </trkpt>
      <trkpt lat="12.40595" lon="76.55629">
        <ele>771.2</ele>
      </trkpt>
      <trkpt lat="12.40589" lon="76.5565">
        <ele>771.6</ele>
      </trkpt>
      <trkpt lat="12.40586" lon="76.55662">
        <ele>771.8</ele>
      </trkpt>
      <trkpt lat="12.40584" lon="76.55667">
        <ele>771.9</ele>
      </trkpt>
      <trkpt lat="12.40576" lon="76.557">
        <ele>769.9</ele>
      </trkpt>
      <trkpt lat="12.40567" lon="76.55738">
        <ele>768.0</ele>
      </trkpt>
      <trkpt lat="12.40567" lon="76.55739">
        <ele>767.9</ele>
      </trkpt>
      <trkpt lat="12.40563" lon="76.55762">
        <ele>766.9</ele>
      </trkpt>
      <trkpt lat="12.40558" lon="76.55788">
        <ele>765.6</ele>
      </trkpt>
      <trkpt lat="12.40558" lon="76.55793">
        <ele>765.4</ele>
      </trkpt>
      <trkpt lat="12.40555" lon="76.55807">
        <ele>764.7</ele>
      </trkpt>
      <trkpt lat="12.40555" lon="76.55811">
        <ele>764.5</ele>
      </trkpt>
      <trkpt lat="12.40555" lon="76.55811">
        <ele>764.5</ele>
      </trkpt>
      <trkpt lat="12.40575" lon="76.55814">
        <ele>764.1</ele>
      </trkpt>
      <trkpt lat="12.40575" lon="76.55814">
        <ele>764.1</ele>
      </trkpt>
      <trkpt lat="12.40575" lon="76.55814">
        <ele>764.1</ele>
      </trkpt>
      <trkpt lat="12.40582" lon="76.55815">
        <ele>763.9</ele>
      </trkpt>
      <trkpt lat="12.40622" lon="76.55829">
        <ele>761.8</ele>
      </trkpt>
      <trkpt lat="12.40633" lon="76.55833">
        <ele>761.2</ele>
      </trkpt>
      <trkpt lat="12.4065" lon="76.55839">
        <ele>760.3</ele>
      </trkpt>
      <trkpt lat="12.40667" lon="76.55845">
        <ele>759.4</ele>
      </trkpt>
      <trkpt lat="12.40684" lon="76.55852">
        <ele>759.0</ele>
      </trkpt>
      <trkpt lat="12.40718" lon="76.55864">
        <ele>758.6</ele>
      </trkpt>
      <trkpt lat="12.40765" lon="76.55881">
        <ele>757.7</ele>
      </trkpt>
      <trkpt lat="12.40786" lon="76.55892">
        <ele>756.6</ele>
      </trkpt>
      <trkpt lat="12.40823" lon="76.5591">
        <ele>754.6</ele>
      </trkpt>
    </trkseg>
  </trk>
</gpx>
